{
  "type": "FeatureCollection",
  "name": "locked_search_areas",
  "features": [
    {
      "type": "Feature",
      "id": "SH-AREA-0001",
      "properties": {
        "geometry_id": "SH-AREA-0001",
        "object_id": "SH-GEO-0036",
        "canonical_name": "Sacramento headquarters search envelope",
        "canon_status": "CANON_CONSTRAINED",
        "geometry_status": "PROPOSED",
        "location_method": "APPROXIMATE_STUDY_WINDOW",
        "precision_class": "CORRIDOR_SCALE",
        "horizontal_accuracy_m": null,
        "valid_from": null,
        "valid_to": null,
        "source_commit": "8d20e51a7cf0068729e3296840ccb5ba1ac1d7bd",
        "notes": "Railyards / River District direction; eventual 8-15 acre campus remains unsited."
      },
      "geometry": {
        "type": "Polygon",
        "coordinates": [
          [
            [
              -121.476,
              38.589
            ],
            [
              -121.476,
              38.609
            ],
            [
              -121.515,
              38.609
            ],
            [
              -121.515,
              38.589
            ],
            [
              -121.476,
              38.589
            ]
          ]
        ]
      }
    },
    {
      "type": "Feature",
      "id": "SH-AREA-0002",
      "properties": {
        "geometry_id": "SH-AREA-0002",
        "object_id": "SH-GEO-0037",
        "canonical_name": "Hazelwood research-site search envelope",
        "canon_status": "CANON_CONSTRAINED",
        "geometry_status": "PROPOSED",
        "location_method": "APPROXIMATE_STUDY_WINDOW",
        "precision_class": "CORRIDOR_SCALE",
        "horizontal_accuracy_m": null,
        "valid_from": null,
        "valid_to": null,
        "source_commit": "8d20e51a7cf0068729e3296840ccb5ba1ac1d7bd",
        "notes": "Hazelwood current direction retained; historical original-shop chronology remains open."
      },
      "geometry": {
        "type": "Polygon",
        "coordinates": [
          [
            [
              -79.936,
              40.401
            ],
            [
              -79.936,
              40.428
            ],
            [
              -79.965,
              40.428
            ],
            [
              -79.965,
              40.401
            ],
            [
              -79.936,
              40.401
            ]
          ]
        ]
      }
    },
    {
      "type": "Feature",
      "id": "SH-AREA-0003",
      "properties": {
        "geometry_id": "SH-AREA-0003",
        "object_id": "SH-GEO-0038",
        "canonical_name": "Belle / Kanawha recovery search envelope",
        "canon_status": "CANON_CONSTRAINED",
        "geometry_status": "PROPOSED",
        "location_method": "APPROXIMATE_STUDY_WINDOW",
        "precision_class": "CORRIDOR_SCALE",
        "horizontal_accuracy_m": null,
        "valid_from": null,
        "valid_to": null,
        "source_commit": "8d20e51a7cf0068729e3296840ccb5ba1ac1d7bd",
        "notes": "Corridor context only, not OxyChem/Belle plant ownership or selected 20-30 acre site."
      },
      "geometry": {
        "type": "Polygon",
        "coordinates": [
          [
            [
              -81.475,
              38.212
            ],
            [
              -81.475,
              38.265
            ],
            [
              -81.575,
              38.265
            ],
            [
              -81.575,
              38.212
            ],
            [
              -81.475,
              38.212
            ]
          ]
        ]
      }
    },
    {
      "type": "Feature",
      "id": "SH-AREA-0004",
      "properties": {
        "geometry_id": "SH-AREA-0004",
        "object_id": "SH-GEO-0039",
        "canonical_name": "Red Wash north-of-Wamsutter search envelope",
        "canon_status": "CANON_CONSTRAINED",
        "geometry_status": "PROPOSED",
        "location_method": "APPROXIMATE_STUDY_WINDOW",
        "precision_class": "CORRIDOR_SCALE",
        "horizontal_accuracy_m": null,
        "valid_from": null,
        "valid_to": null,
        "source_commit": "8d20e51a7cf0068729e3296840ccb5ba1ac1d7bd",
        "notes": "Sweetwater regional envelope around user-locked anchor. Not a legal parcel."
      },
      "geometry": {
        "type": "Polygon",
        "coordinates": [
          [
            [
              -108.11,
              42.16
            ],
            [
              -108.11,
              42.28
            ],
            [
              -108.25,
              42.28
            ],
            [
              -108.25,
              42.16
            ],
            [
              -108.11,
              42.16
            ]
          ]
        ]
      }
    },
    {
      "type": "Feature",
      "id": "SH-AREA-0005",
      "properties": {
        "geometry_id": "SH-AREA-0005",
        "object_id": "SH-GEO-0040",
        "canonical_name": "Taylor settlement / yard study envelope",
        "canon_status": "CANON_CONSTRAINED",
        "geometry_status": "PROPOSED",
        "location_method": "APPROXIMATE_STUDY_WINDOW",
        "precision_class": "CORRIDOR_SCALE",
        "horizontal_accuracy_m": null,
        "valid_from": null,
        "valid_to": null,
        "source_commit": "8d20e51a7cf0068729e3296840ccb5ba1ac1d7bd",
        "notes": "Taylor name/role locked. Exact hub coordinate and envelope are engineered candidates, not a user coordinate lock."
      },
      "geometry": {
        "type": "Polygon",
        "coordinates": [
          [
            [
              -108.2,
              41.955
            ],
            [
              -108.2,
              42.005
            ],
            [
              -108.26,
              42.005
            ],
            [
              -108.26,
              41.955
            ],
            [
              -108.2,
              41.955
            ]
          ]
        ]
      }
    },
    {
      "type": "Feature",
      "id": "SH-AREA-0006",
      "properties": {
        "geometry_id": "SH-AREA-0006",
        "object_id": "SH-GEO-0041",
        "canonical_name": "Wamsutter interchange study envelope",
        "canon_status": "CANON_CONSTRAINED",
        "geometry_status": "PROPOSED",
        "location_method": "APPROXIMATE_STUDY_WINDOW",
        "precision_class": "CORRIDOR_SCALE",
        "horizontal_accuracy_m": null,
        "valid_from": null,
        "valid_to": null,
        "source_commit": "8d20e51a7cf0068729e3296840ccb5ba1ac1d7bd",
        "notes": "Not real track geometry, host ownership or an approved connection."
      },
      "geometry": {
        "type": "Polygon",
        "coordinates": [
          [
            [
              -107.91,
              41.645
            ],
            [
              -107.91,
              41.705
            ],
            [
              -108.04,
              41.705
            ],
            [
              -108.04,
              41.645
            ],
            [
              -107.91,
              41.645
            ]
          ]
        ]
      }
    }
  ]
}
