{
  "type": "FeatureCollection",
  "features": [
    {
      "type": "Feature",
      "id": "IND-CUL-01",
      "geometry": {
        "coordinates": [
          -107.99238423217578,
          41.69301859380714
        ],
        "type": "Point"
      },
      "properties": {
        "catchup_usd": 35000,
        "condition": "fair",
        "constructed": 1969,
        "fact_state": "LOCKED_DERIVED_IMPLEMENTATION",
        "id": "CUL-01",
        "inspection_date": "2025-10-22",
        "kind": "culvert",
        "lon_lat": [
          -107.99238423217578,
          41.69301859380714
        ],
        "material": "corrugated steel",
        "milepost": 1.89,
        "provenance": "Synthetic case implementation derived from reconciled handoff and explicit user authority; no external party or surveyed certification claimed",
        "restriction": "none beyond inspection restrictions",
        "route_id": "BST-MAIN",
        "span_m": 1.2,
        "waterway": "synthetic ephemeral drainage crossing; not an asserted named watercourse",
        "feature_id": "IND-CUL-01",
        "object_id": "SH-IND-CUL-01",
        "canonical_name": "CUL-01 culvert",
        "fictionality": "FICTIONAL_IN_REAL_GEOGRAPHY",
        "real_world_relation": "SYNTHETIC_CASE_NOT_REAL_PROPERTY",
        "canon_status": "ENGINEERED",
        "geometry_status": "LOCKED_DERIVED_IMPLEMENTATION",
        "location_method": "DERIVED_FROM_ACCEPTED_SOURCE",
        "precision_class": "CASE_ENGINEERING_NOT_SURVEY",
        "horizontal_accuracy_m": null,
        "vertical_accuracy_m": null,
        "public_precision": "SYNTHETIC_CASE",
        "source_id": "SRC-CURRENT-OPS",
        "decision_id": "GEO-D018",
        "recorded_at": "2026-09-07T16:00:00+00:00",
        "world_state_date": "2026-09-07",
        "owner_entity": "SH-ENT-009",
        "operator_entity": "SH-ENT-009",
        "valid_from": null,
        "valid_to": null,
        "construction_method": "Geo adapter of industrial source; geometry and original attributes retained.",
        "notes": "Owner/operator identify the current synthetic case, not a timeless real-property right. Source opening date is not automatically the current owner acquisition date."
      }
    },
    {
      "type": "Feature",
      "id": "IND-CUL-02",
      "geometry": {
        "coordinates": [
          -108.01372199647919,
          41.71418471585889
        ],
        "type": "Point"
      },
      "properties": {
        "catchup_usd": 35000,
        "condition": "fair",
        "constructed": 1970,
        "fact_state": "LOCKED_DERIVED_IMPLEMENTATION",
        "id": "CUL-02",
        "inspection_date": "2025-10-22",
        "kind": "culvert",
        "lon_lat": [
          -108.01372199647919,
          41.71418471585889
        ],
        "material": "reinforced concrete",
        "milepost": 3.78,
        "provenance": "Synthetic case implementation derived from reconciled handoff and explicit user authority; no external party or surveyed certification claimed",
        "restriction": "none beyond inspection restrictions",
        "route_id": "BST-MAIN",
        "span_m": 1.2,
        "waterway": "synthetic ephemeral drainage crossing; not an asserted named watercourse",
        "feature_id": "IND-CUL-02",
        "object_id": "SH-IND-CUL-02",
        "canonical_name": "CUL-02 culvert",
        "fictionality": "FICTIONAL_IN_REAL_GEOGRAPHY",
        "real_world_relation": "SYNTHETIC_CASE_NOT_REAL_PROPERTY",
        "canon_status": "ENGINEERED",
        "geometry_status": "LOCKED_DERIVED_IMPLEMENTATION",
        "location_method": "DERIVED_FROM_ACCEPTED_SOURCE",
        "precision_class": "CASE_ENGINEERING_NOT_SURVEY",
        "horizontal_accuracy_m": null,
        "vertical_accuracy_m": null,
        "public_precision": "SYNTHETIC_CASE",
        "source_id": "SRC-CURRENT-OPS",
        "decision_id": "GEO-D018",
        "recorded_at": "2026-09-07T16:00:00+00:00",
        "world_state_date": "2026-09-07",
        "owner_entity": "SH-ENT-009",
        "operator_entity": "SH-ENT-009",
        "valid_from": null,
        "valid_to": null,
        "construction_method": "Geo adapter of industrial source; geometry and original attributes retained.",
        "notes": "Owner/operator identify the current synthetic case, not a timeless real-property right. Source opening date is not automatically the current owner acquisition date."
      }
    },
    {
      "type": "Feature",
      "id": "IND-CUL-03",
      "geometry": {
        "coordinates": [
          -108.0130685289668,
          41.74055665699319
        ],
        "type": "Point"
      },
      "properties": {
        "catchup_usd": 35000,
        "condition": "fair",
        "constructed": 1971,
        "fact_state": "LOCKED_DERIVED_IMPLEMENTATION",
        "id": "CUL-03",
        "inspection_date": "2025-10-22",
        "kind": "culvert",
        "lon_lat": [
          -108.0130685289668,
          41.74055665699319
        ],
        "material": "corrugated steel",
        "milepost": 5.67,
        "provenance": "Synthetic case implementation derived from reconciled handoff and explicit user authority; no external party or surveyed certification claimed",
        "restriction": "none beyond inspection restrictions",
        "route_id": "BST-MAIN",
        "span_m": 1.8,
        "waterway": "synthetic ephemeral drainage crossing; not an asserted named watercourse",
        "feature_id": "IND-CUL-03",
        "object_id": "SH-IND-CUL-03",
        "canonical_name": "CUL-03 culvert",
        "fictionality": "FICTIONAL_IN_REAL_GEOGRAPHY",
        "real_world_relation": "SYNTHETIC_CASE_NOT_REAL_PROPERTY",
        "canon_status": "ENGINEERED",
        "geometry_status": "LOCKED_DERIVED_IMPLEMENTATION",
        "location_method": "DERIVED_FROM_ACCEPTED_SOURCE",
        "precision_class": "CASE_ENGINEERING_NOT_SURVEY",
        "horizontal_accuracy_m": null,
        "vertical_accuracy_m": null,
        "public_precision": "SYNTHETIC_CASE",
        "source_id": "SRC-CURRENT-OPS",
        "decision_id": "GEO-D018",
        "recorded_at": "2026-09-07T16:00:00+00:00",
        "world_state_date": "2026-09-07",
        "owner_entity": "SH-ENT-009",
        "operator_entity": "SH-ENT-009",
        "valid_from": null,
        "valid_to": null,
        "construction_method": "Geo adapter of industrial source; geometry and original attributes retained.",
        "notes": "Owner/operator identify the current synthetic case, not a timeless real-property right. Source opening date is not automatically the current owner acquisition date."
      }
    },
    {
      "type": "Feature",
      "id": "IND-CUL-04",
      "geometry": {
        "coordinates": [
          -108.02322777076203,
          41.76621535612026
        ],
        "type": "Point"
      },
      "properties": {
        "catchup_usd": 35000,
        "condition": "serviceable with sediment/headwall deficiency",
        "constructed": 1972,
        "fact_state": "LOCKED_DERIVED_IMPLEMENTATION",
        "id": "CUL-04",
        "inspection_date": "2025-10-22",
        "kind": "culvert",
        "lon_lat": [
          -108.02322777076203,
          41.76621535612026
        ],
        "material": "reinforced concrete",
        "milepost": 7.56,
        "provenance": "Synthetic case implementation derived from reconciled handoff and explicit user authority; no external party or surveyed certification claimed",
        "restriction": "none beyond inspection restrictions",
        "route_id": "BST-MAIN",
        "span_m": 1.2,
        "waterway": "synthetic ephemeral drainage crossing; not an asserted named watercourse",
        "feature_id": "IND-CUL-04",
        "object_id": "SH-IND-CUL-04",
        "canonical_name": "CUL-04 culvert",
        "fictionality": "FICTIONAL_IN_REAL_GEOGRAPHY",
        "real_world_relation": "SYNTHETIC_CASE_NOT_REAL_PROPERTY",
        "canon_status": "ENGINEERED",
        "geometry_status": "LOCKED_DERIVED_IMPLEMENTATION",
        "location_method": "DERIVED_FROM_ACCEPTED_SOURCE",
        "precision_class": "CASE_ENGINEERING_NOT_SURVEY",
        "horizontal_accuracy_m": null,
        "vertical_accuracy_m": null,
        "public_precision": "SYNTHETIC_CASE",
        "source_id": "SRC-CURRENT-OPS",
        "decision_id": "GEO-D018",
        "recorded_at": "2026-09-07T16:00:00+00:00",
        "world_state_date": "2026-09-07",
        "owner_entity": "SH-ENT-009",
        "operator_entity": "SH-ENT-009",
        "valid_from": null,
        "valid_to": null,
        "construction_method": "Geo adapter of industrial source; geometry and original attributes retained.",
        "notes": "Owner/operator identify the current synthetic case, not a timeless real-property right. Source opening date is not automatically the current owner acquisition date."
      }
    },
    {
      "type": "Feature",
      "id": "IND-CUL-05",
      "geometry": {
        "coordinates": [
          -108.03146183579017,
          41.79232192218632
        ],
        "type": "Point"
      },
      "properties": {
        "catchup_usd": 35000,
        "condition": "fair",
        "constructed": 1973,
        "fact_state": "LOCKED_DERIVED_IMPLEMENTATION",
        "id": "CUL-05",
        "inspection_date": "2025-10-22",
        "kind": "culvert",
        "lon_lat": [
          -108.03146183579017,
          41.79232192218632
        ],
        "material": "corrugated steel",
        "milepost": 9.45,
        "provenance": "Synthetic case implementation derived from reconciled handoff and explicit user authority; no external party or surveyed certification claimed",
        "restriction": "none beyond inspection restrictions",
        "route_id": "BST-MAIN",
        "span_m": 1.2,
        "waterway": "synthetic ephemeral drainage crossing; not an asserted named watercourse",
        "feature_id": "IND-CUL-05",
        "object_id": "SH-IND-CUL-05",
        "canonical_name": "CUL-05 culvert",
        "fictionality": "FICTIONAL_IN_REAL_GEOGRAPHY",
        "real_world_relation": "SYNTHETIC_CASE_NOT_REAL_PROPERTY",
        "canon_status": "ENGINEERED",
        "geometry_status": "LOCKED_DERIVED_IMPLEMENTATION",
        "location_method": "DERIVED_FROM_ACCEPTED_SOURCE",
        "precision_class": "CASE_ENGINEERING_NOT_SURVEY",
        "horizontal_accuracy_m": null,
        "vertical_accuracy_m": null,
        "public_precision": "SYNTHETIC_CASE",
        "source_id": "SRC-CURRENT-OPS",
        "decision_id": "GEO-D018",
        "recorded_at": "2026-09-07T16:00:00+00:00",
        "world_state_date": "2026-09-07",
        "owner_entity": "SH-ENT-009",
        "operator_entity": "SH-ENT-009",
        "valid_from": null,
        "valid_to": null,
        "construction_method": "Geo adapter of industrial source; geometry and original attributes retained.",
        "notes": "Owner/operator identify the current synthetic case, not a timeless real-property right. Source opening date is not automatically the current owner acquisition date."
      }
    },
    {
      "type": "Feature",
      "id": "IND-CUL-06",
      "geometry": {
        "coordinates": [
          -108.0393601381131,
          41.81839583789126
        ],
        "type": "Point"
      },
      "properties": {
        "catchup_usd": 35000,
        "condition": "fair",
        "constructed": 1974,
        "fact_state": "LOCKED_DERIVED_IMPLEMENTATION",
        "id": "CUL-06",
        "inspection_date": "2025-10-22",
        "kind": "culvert",
        "lon_lat": [
          -108.0393601381131,
          41.81839583789126
        ],
        "material": "reinforced concrete",
        "milepost": 11.34,
        "provenance": "Synthetic case implementation derived from reconciled handoff and explicit user authority; no external party or surveyed certification claimed",
        "restriction": "none beyond inspection restrictions",
        "route_id": "BST-MAIN",
        "span_m": 1.8,
        "waterway": "synthetic ephemeral drainage crossing; not an asserted named watercourse",
        "feature_id": "IND-CUL-06",
        "object_id": "SH-IND-CUL-06",
        "canonical_name": "CUL-06 culvert",
        "fictionality": "FICTIONAL_IN_REAL_GEOGRAPHY",
        "real_world_relation": "SYNTHETIC_CASE_NOT_REAL_PROPERTY",
        "canon_status": "ENGINEERED",
        "geometry_status": "LOCKED_DERIVED_IMPLEMENTATION",
        "location_method": "DERIVED_FROM_ACCEPTED_SOURCE",
        "precision_class": "CASE_ENGINEERING_NOT_SURVEY",
        "horizontal_accuracy_m": null,
        "vertical_accuracy_m": null,
        "public_precision": "SYNTHETIC_CASE",
        "source_id": "SRC-CURRENT-OPS",
        "decision_id": "GEO-D018",
        "recorded_at": "2026-09-07T16:00:00+00:00",
        "world_state_date": "2026-09-07",
        "owner_entity": "SH-ENT-009",
        "operator_entity": "SH-ENT-009",
        "valid_from": null,
        "valid_to": null,
        "construction_method": "Geo adapter of industrial source; geometry and original attributes retained.",
        "notes": "Owner/operator identify the current synthetic case, not a timeless real-property right. Source opening date is not automatically the current owner acquisition date."
      }
    },
    {
      "type": "Feature",
      "id": "IND-CUL-07",
      "geometry": {
        "coordinates": [
          -108.05968644846595,
          41.84050299486875
        ],
        "type": "Point"
      },
      "properties": {
        "catchup_usd": 35000,
        "condition": "fair",
        "constructed": 1975,
        "fact_state": "LOCKED_DERIVED_IMPLEMENTATION",
        "id": "CUL-07",
        "inspection_date": "2025-10-22",
        "kind": "culvert",
        "lon_lat": [
          -108.05968644846595,
          41.84050299486875
        ],
        "material": "corrugated steel",
        "milepost": 13.229999999999999,
        "provenance": "Synthetic case implementation derived from reconciled handoff and explicit user authority; no external party or surveyed certification claimed",
        "restriction": "none beyond inspection restrictions",
        "route_id": "BST-MAIN",
        "span_m": 1.2,
        "waterway": "synthetic ephemeral drainage crossing; not an asserted named watercourse",
        "feature_id": "IND-CUL-07",
        "object_id": "SH-IND-CUL-07",
        "canonical_name": "CUL-07 culvert",
        "fictionality": "FICTIONAL_IN_REAL_GEOGRAPHY",
        "real_world_relation": "SYNTHETIC_CASE_NOT_REAL_PROPERTY",
        "canon_status": "ENGINEERED",
        "geometry_status": "LOCKED_DERIVED_IMPLEMENTATION",
        "location_method": "DERIVED_FROM_ACCEPTED_SOURCE",
        "precision_class": "CASE_ENGINEERING_NOT_SURVEY",
        "horizontal_accuracy_m": null,
        "vertical_accuracy_m": null,
        "public_precision": "SYNTHETIC_CASE",
        "source_id": "SRC-CURRENT-OPS",
        "decision_id": "GEO-D018",
        "recorded_at": "2026-09-07T16:00:00+00:00",
        "world_state_date": "2026-09-07",
        "owner_entity": "SH-ENT-009",
        "operator_entity": "SH-ENT-009",
        "valid_from": null,
        "valid_to": null,
        "construction_method": "Geo adapter of industrial source; geometry and original attributes retained.",
        "notes": "Owner/operator identify the current synthetic case, not a timeless real-property right. Source opening date is not automatically the current owner acquisition date."
      }
    },
    {
      "type": "Feature",
      "id": "IND-CUL-08",
      "geometry": {
        "coordinates": [
          -108.07066481373491,
          41.86558459387432
        ],
        "type": "Point"
      },
      "properties": {
        "catchup_usd": 35000,
        "condition": "serviceable with sediment/headwall deficiency",
        "constructed": 1976,
        "fact_state": "LOCKED_DERIVED_IMPLEMENTATION",
        "id": "CUL-08",
        "inspection_date": "2025-10-22",
        "kind": "culvert",
        "lon_lat": [
          -108.07066481373491,
          41.86558459387432
        ],
        "material": "reinforced concrete",
        "milepost": 15.12,
        "provenance": "Synthetic case implementation derived from reconciled handoff and explicit user authority; no external party or surveyed certification claimed",
        "restriction": "none beyond inspection restrictions",
        "route_id": "BST-MAIN",
        "span_m": 1.2,
        "waterway": "synthetic ephemeral drainage crossing; not an asserted named watercourse",
        "feature_id": "IND-CUL-08",
        "object_id": "SH-IND-CUL-08",
        "canonical_name": "CUL-08 culvert",
        "fictionality": "FICTIONAL_IN_REAL_GEOGRAPHY",
        "real_world_relation": "SYNTHETIC_CASE_NOT_REAL_PROPERTY",
        "canon_status": "ENGINEERED",
        "geometry_status": "LOCKED_DERIVED_IMPLEMENTATION",
        "location_method": "DERIVED_FROM_ACCEPTED_SOURCE",
        "precision_class": "CASE_ENGINEERING_NOT_SURVEY",
        "horizontal_accuracy_m": null,
        "vertical_accuracy_m": null,
        "public_precision": "SYNTHETIC_CASE",
        "source_id": "SRC-CURRENT-OPS",
        "decision_id": "GEO-D018",
        "recorded_at": "2026-09-07T16:00:00+00:00",
        "world_state_date": "2026-09-07",
        "owner_entity": "SH-ENT-009",
        "operator_entity": "SH-ENT-009",
        "valid_from": null,
        "valid_to": null,
        "construction_method": "Geo adapter of industrial source; geometry and original attributes retained.",
        "notes": "Owner/operator identify the current synthetic case, not a timeless real-property right. Source opening date is not automatically the current owner acquisition date."
      }
    },
    {
      "type": "Feature",
      "id": "IND-CUL-09",
      "geometry": {
        "coordinates": [
          -108.08812089230693,
          41.889585722139074
        ],
        "type": "Point"
      },
      "properties": {
        "catchup_usd": 35000,
        "condition": "fair",
        "constructed": 1977,
        "fact_state": "LOCKED_DERIVED_IMPLEMENTATION",
        "id": "CUL-09",
        "inspection_date": "2025-10-22",
        "kind": "culvert",
        "lon_lat": [
          -108.08812089230693,
          41.889585722139074
        ],
        "material": "corrugated steel",
        "milepost": 17.009999999999998,
        "provenance": "Synthetic case implementation derived from reconciled handoff and explicit user authority; no external party or surveyed certification claimed",
        "restriction": "none beyond inspection restrictions",
        "route_id": "BST-MAIN",
        "span_m": 1.8,
        "waterway": "synthetic ephemeral drainage crossing; not an asserted named watercourse",
        "feature_id": "IND-CUL-09",
        "object_id": "SH-IND-CUL-09",
        "canonical_name": "CUL-09 culvert",
        "fictionality": "FICTIONAL_IN_REAL_GEOGRAPHY",
        "real_world_relation": "SYNTHETIC_CASE_NOT_REAL_PROPERTY",
        "canon_status": "ENGINEERED",
        "geometry_status": "LOCKED_DERIVED_IMPLEMENTATION",
        "location_method": "DERIVED_FROM_ACCEPTED_SOURCE",
        "precision_class": "CASE_ENGINEERING_NOT_SURVEY",
        "horizontal_accuracy_m": null,
        "vertical_accuracy_m": null,
        "public_precision": "SYNTHETIC_CASE",
        "source_id": "SRC-CURRENT-OPS",
        "decision_id": "GEO-D018",
        "recorded_at": "2026-09-07T16:00:00+00:00",
        "world_state_date": "2026-09-07",
        "owner_entity": "SH-ENT-009",
        "operator_entity": "SH-ENT-009",
        "valid_from": null,
        "valid_to": null,
        "construction_method": "Geo adapter of industrial source; geometry and original attributes retained.",
        "notes": "Owner/operator identify the current synthetic case, not a timeless real-property right. Source opening date is not automatically the current owner acquisition date."
      }
    },
    {
      "type": "Feature",
      "id": "IND-CUL-10",
      "geometry": {
        "coordinates": [
          -108.09888772447724,
          41.91553155873953
        ],
        "type": "Point"
      },
      "properties": {
        "catchup_usd": 35000,
        "condition": "fair",
        "constructed": 1978,
        "fact_state": "LOCKED_DERIVED_IMPLEMENTATION",
        "id": "CUL-10",
        "inspection_date": "2025-10-22",
        "kind": "culvert",
        "lon_lat": [
          -108.09888772447724,
          41.91553155873953
        ],
        "material": "reinforced concrete",
        "milepost": 18.9,
        "provenance": "Synthetic case implementation derived from reconciled handoff and explicit user authority; no external party or surveyed certification claimed",
        "restriction": "none beyond inspection restrictions",
        "route_id": "BST-MAIN",
        "span_m": 1.2,
        "waterway": "synthetic ephemeral drainage crossing; not an asserted named watercourse",
        "feature_id": "IND-CUL-10",
        "object_id": "SH-IND-CUL-10",
        "canonical_name": "CUL-10 culvert",
        "fictionality": "FICTIONAL_IN_REAL_GEOGRAPHY",
        "real_world_relation": "SYNTHETIC_CASE_NOT_REAL_PROPERTY",
        "canon_status": "ENGINEERED",
        "geometry_status": "LOCKED_DERIVED_IMPLEMENTATION",
        "location_method": "DERIVED_FROM_ACCEPTED_SOURCE",
        "precision_class": "CASE_ENGINEERING_NOT_SURVEY",
        "horizontal_accuracy_m": null,
        "vertical_accuracy_m": null,
        "public_precision": "SYNTHETIC_CASE",
        "source_id": "SRC-CURRENT-OPS",
        "decision_id": "GEO-D018",
        "recorded_at": "2026-09-07T16:00:00+00:00",
        "world_state_date": "2026-09-07",
        "owner_entity": "SH-ENT-009",
        "operator_entity": "SH-ENT-009",
        "valid_from": null,
        "valid_to": null,
        "construction_method": "Geo adapter of industrial source; geometry and original attributes retained.",
        "notes": "Owner/operator identify the current synthetic case, not a timeless real-property right. Source opening date is not automatically the current owner acquisition date."
      }
    },
    {
      "type": "Feature",
      "id": "IND-CUL-11",
      "geometry": {
        "coordinates": [
          -108.10410138045616,
          41.94246556149584
        ],
        "type": "Point"
      },
      "properties": {
        "catchup_usd": 35000,
        "condition": "fair",
        "constructed": 1979,
        "fact_state": "LOCKED_DERIVED_IMPLEMENTATION",
        "id": "CUL-11",
        "inspection_date": "2025-10-22",
        "kind": "culvert",
        "lon_lat": [
          -108.10410138045616,
          41.94246556149584
        ],
        "material": "corrugated steel",
        "milepost": 20.79,
        "provenance": "Synthetic case implementation derived from reconciled handoff and explicit user authority; no external party or surveyed certification claimed",
        "restriction": "none beyond inspection restrictions",
        "route_id": "BST-MAIN",
        "span_m": 1.2,
        "waterway": "synthetic ephemeral drainage crossing; not an asserted named watercourse",
        "feature_id": "IND-CUL-11",
        "object_id": "SH-IND-CUL-11",
        "canonical_name": "CUL-11 culvert",
        "fictionality": "FICTIONAL_IN_REAL_GEOGRAPHY",
        "real_world_relation": "SYNTHETIC_CASE_NOT_REAL_PROPERTY",
        "canon_status": "ENGINEERED",
        "geometry_status": "LOCKED_DERIVED_IMPLEMENTATION",
        "location_method": "DERIVED_FROM_ACCEPTED_SOURCE",
        "precision_class": "CASE_ENGINEERING_NOT_SURVEY",
        "horizontal_accuracy_m": null,
        "vertical_accuracy_m": null,
        "public_precision": "SYNTHETIC_CASE",
        "source_id": "SRC-CURRENT-OPS",
        "decision_id": "GEO-D018",
        "recorded_at": "2026-09-07T16:00:00+00:00",
        "world_state_date": "2026-09-07",
        "owner_entity": "SH-ENT-009",
        "operator_entity": "SH-ENT-009",
        "valid_from": null,
        "valid_to": null,
        "construction_method": "Geo adapter of industrial source; geometry and original attributes retained.",
        "notes": "Owner/operator identify the current synthetic case, not a timeless real-property right. Source opening date is not automatically the current owner acquisition date."
      }
    },
    {
      "type": "Feature",
      "id": "IND-CUL-12",
      "geometry": {
        "coordinates": [
          -108.11267084511982,
          41.968986265802876
        ],
        "type": "Point"
      },
      "properties": {
        "catchup_usd": 35000,
        "condition": "serviceable with sediment/headwall deficiency",
        "constructed": 1980,
        "fact_state": "LOCKED_DERIVED_IMPLEMENTATION",
        "id": "CUL-12",
        "inspection_date": "2025-10-22",
        "kind": "culvert",
        "lon_lat": [
          -108.11267084511982,
          41.968986265802876
        ],
        "material": "reinforced concrete",
        "milepost": 22.68,
        "provenance": "Synthetic case implementation derived from reconciled handoff and explicit user authority; no external party or surveyed certification claimed",
        "restriction": "none beyond inspection restrictions",
        "route_id": "BST-MAIN",
        "span_m": 1.8,
        "waterway": "synthetic ephemeral drainage crossing; not an asserted named watercourse",
        "feature_id": "IND-CUL-12",
        "object_id": "SH-IND-CUL-12",
        "canonical_name": "CUL-12 culvert",
        "fictionality": "FICTIONAL_IN_REAL_GEOGRAPHY",
        "real_world_relation": "SYNTHETIC_CASE_NOT_REAL_PROPERTY",
        "canon_status": "ENGINEERED",
        "geometry_status": "LOCKED_DERIVED_IMPLEMENTATION",
        "location_method": "DERIVED_FROM_ACCEPTED_SOURCE",
        "precision_class": "CASE_ENGINEERING_NOT_SURVEY",
        "horizontal_accuracy_m": null,
        "vertical_accuracy_m": null,
        "public_precision": "SYNTHETIC_CASE",
        "source_id": "SRC-CURRENT-OPS",
        "decision_id": "GEO-D018",
        "recorded_at": "2026-09-07T16:00:00+00:00",
        "world_state_date": "2026-09-07",
        "owner_entity": "SH-ENT-009",
        "operator_entity": "SH-ENT-009",
        "valid_from": null,
        "valid_to": null,
        "construction_method": "Geo adapter of industrial source; geometry and original attributes retained.",
        "notes": "Owner/operator identify the current synthetic case, not a timeless real-property right. Source opening date is not automatically the current owner acquisition date."
      }
    },
    {
      "type": "Feature",
      "id": "IND-CUL-13",
      "geometry": {
        "coordinates": [
          -108.11512201860916,
          41.99630317415689
        ],
        "type": "Point"
      },
      "properties": {
        "catchup_usd": 35000,
        "condition": "fair",
        "constructed": 1981,
        "fact_state": "LOCKED_DERIVED_IMPLEMENTATION",
        "id": "CUL-13",
        "inspection_date": "2025-10-22",
        "kind": "culvert",
        "lon_lat": [
          -108.11512201860916,
          41.99630317415689
        ],
        "material": "corrugated steel",
        "milepost": 24.57,
        "provenance": "Synthetic case implementation derived from reconciled handoff and explicit user authority; no external party or surveyed certification claimed",
        "restriction": "none beyond inspection restrictions",
        "route_id": "BST-MAIN",
        "span_m": 1.2,
        "waterway": "synthetic ephemeral drainage crossing; not an asserted named watercourse",
        "feature_id": "IND-CUL-13",
        "object_id": "SH-IND-CUL-13",
        "canonical_name": "CUL-13 culvert",
        "fictionality": "FICTIONAL_IN_REAL_GEOGRAPHY",
        "real_world_relation": "SYNTHETIC_CASE_NOT_REAL_PROPERTY",
        "canon_status": "ENGINEERED",
        "geometry_status": "LOCKED_DERIVED_IMPLEMENTATION",
        "location_method": "DERIVED_FROM_ACCEPTED_SOURCE",
        "precision_class": "CASE_ENGINEERING_NOT_SURVEY",
        "horizontal_accuracy_m": null,
        "vertical_accuracy_m": null,
        "public_precision": "SYNTHETIC_CASE",
        "source_id": "SRC-CURRENT-OPS",
        "decision_id": "GEO-D018",
        "recorded_at": "2026-09-07T16:00:00+00:00",
        "world_state_date": "2026-09-07",
        "owner_entity": "SH-ENT-009",
        "operator_entity": "SH-ENT-009",
        "valid_from": null,
        "valid_to": null,
        "construction_method": "Geo adapter of industrial source; geometry and original attributes retained.",
        "notes": "Owner/operator identify the current synthetic case, not a timeless real-property right. Source opening date is not automatically the current owner acquisition date."
      }
    },
    {
      "type": "Feature",
      "id": "IND-CUL-14",
      "geometry": {
        "coordinates": [
          -108.11646573871418,
          42.023668990831396
        ],
        "type": "Point"
      },
      "properties": {
        "catchup_usd": 35000,
        "condition": "fair",
        "constructed": 1982,
        "fact_state": "LOCKED_DERIVED_IMPLEMENTATION",
        "id": "CUL-14",
        "inspection_date": "2025-10-22",
        "kind": "culvert",
        "lon_lat": [
          -108.11646573871418,
          42.023668990831396
        ],
        "material": "reinforced concrete",
        "milepost": 26.459999999999997,
        "provenance": "Synthetic case implementation derived from reconciled handoff and explicit user authority; no external party or surveyed certification claimed",
        "restriction": "none beyond inspection restrictions",
        "route_id": "BST-MAIN",
        "span_m": 1.2,
        "waterway": "synthetic ephemeral drainage crossing; not an asserted named watercourse",
        "feature_id": "IND-CUL-14",
        "object_id": "SH-IND-CUL-14",
        "canonical_name": "CUL-14 culvert",
        "fictionality": "FICTIONAL_IN_REAL_GEOGRAPHY",
        "real_world_relation": "SYNTHETIC_CASE_NOT_REAL_PROPERTY",
        "canon_status": "ENGINEERED",
        "geometry_status": "LOCKED_DERIVED_IMPLEMENTATION",
        "location_method": "DERIVED_FROM_ACCEPTED_SOURCE",
        "precision_class": "CASE_ENGINEERING_NOT_SURVEY",
        "horizontal_accuracy_m": null,
        "vertical_accuracy_m": null,
        "public_precision": "SYNTHETIC_CASE",
        "source_id": "SRC-CURRENT-OPS",
        "decision_id": "GEO-D018",
        "recorded_at": "2026-09-07T16:00:00+00:00",
        "world_state_date": "2026-09-07",
        "owner_entity": "SH-ENT-009",
        "operator_entity": "SH-ENT-009",
        "valid_from": null,
        "valid_to": null,
        "construction_method": "Geo adapter of industrial source; geometry and original attributes retained.",
        "notes": "Owner/operator identify the current synthetic case, not a timeless real-property right. Source opening date is not automatically the current owner acquisition date."
      }
    },
    {
      "type": "Feature",
      "id": "IND-CUL-15",
      "geometry": {
        "coordinates": [
          -108.11768283264658,
          42.051038040564535
        ],
        "type": "Point"
      },
      "properties": {
        "catchup_usd": 35000,
        "condition": "fair",
        "constructed": 1983,
        "fact_state": "LOCKED_DERIVED_IMPLEMENTATION",
        "id": "CUL-15",
        "inspection_date": "2025-10-22",
        "kind": "culvert",
        "lon_lat": [
          -108.11768283264658,
          42.051038040564535
        ],
        "material": "corrugated steel",
        "milepost": 28.349999999999998,
        "provenance": "Synthetic case implementation derived from reconciled handoff and explicit user authority; no external party or surveyed certification claimed",
        "restriction": "none beyond inspection restrictions",
        "route_id": "BST-MAIN",
        "span_m": 1.8,
        "waterway": "synthetic ephemeral drainage crossing; not an asserted named watercourse",
        "feature_id": "IND-CUL-15",
        "object_id": "SH-IND-CUL-15",
        "canonical_name": "CUL-15 culvert",
        "fictionality": "FICTIONAL_IN_REAL_GEOGRAPHY",
        "real_world_relation": "SYNTHETIC_CASE_NOT_REAL_PROPERTY",
        "canon_status": "ENGINEERED",
        "geometry_status": "LOCKED_DERIVED_IMPLEMENTATION",
        "location_method": "DERIVED_FROM_ACCEPTED_SOURCE",
        "precision_class": "CASE_ENGINEERING_NOT_SURVEY",
        "horizontal_accuracy_m": null,
        "vertical_accuracy_m": null,
        "public_precision": "SYNTHETIC_CASE",
        "source_id": "SRC-CURRENT-OPS",
        "decision_id": "GEO-D018",
        "recorded_at": "2026-09-07T16:00:00+00:00",
        "world_state_date": "2026-09-07",
        "owner_entity": "SH-ENT-009",
        "operator_entity": "SH-ENT-009",
        "valid_from": null,
        "valid_to": null,
        "construction_method": "Geo adapter of industrial source; geometry and original attributes retained.",
        "notes": "Owner/operator identify the current synthetic case, not a timeless real-property right. Source opening date is not automatically the current owner acquisition date."
      }
    },
    {
      "type": "Feature",
      "id": "IND-CUL-16",
      "geometry": {
        "coordinates": [
          -108.11873012028391,
          42.0784091776061
        ],
        "type": "Point"
      },
      "properties": {
        "catchup_usd": 35000,
        "condition": "serviceable with sediment/headwall deficiency",
        "constructed": 1984,
        "fact_state": "LOCKED_DERIVED_IMPLEMENTATION",
        "id": "CUL-16",
        "inspection_date": "2025-10-22",
        "kind": "culvert",
        "lon_lat": [
          -108.11873012028391,
          42.0784091776061
        ],
        "material": "reinforced concrete",
        "milepost": 30.24,
        "provenance": "Synthetic case implementation derived from reconciled handoff and explicit user authority; no external party or surveyed certification claimed",
        "restriction": "none beyond inspection restrictions",
        "route_id": "BST-MAIN",
        "span_m": 1.2,
        "waterway": "synthetic ephemeral drainage crossing; not an asserted named watercourse",
        "feature_id": "IND-CUL-16",
        "object_id": "SH-IND-CUL-16",
        "canonical_name": "CUL-16 culvert",
        "fictionality": "FICTIONAL_IN_REAL_GEOGRAPHY",
        "real_world_relation": "SYNTHETIC_CASE_NOT_REAL_PROPERTY",
        "canon_status": "ENGINEERED",
        "geometry_status": "LOCKED_DERIVED_IMPLEMENTATION",
        "location_method": "DERIVED_FROM_ACCEPTED_SOURCE",
        "precision_class": "CASE_ENGINEERING_NOT_SURVEY",
        "horizontal_accuracy_m": null,
        "vertical_accuracy_m": null,
        "public_precision": "SYNTHETIC_CASE",
        "source_id": "SRC-CURRENT-OPS",
        "decision_id": "GEO-D018",
        "recorded_at": "2026-09-07T16:00:00+00:00",
        "world_state_date": "2026-09-07",
        "owner_entity": "SH-ENT-009",
        "operator_entity": "SH-ENT-009",
        "valid_from": null,
        "valid_to": null,
        "construction_method": "Geo adapter of industrial source; geometry and original attributes retained.",
        "notes": "Owner/operator identify the current synthetic case, not a timeless real-property right. Source opening date is not automatically the current owner acquisition date."
      }
    },
    {
      "type": "Feature",
      "id": "IND-CUL-17",
      "geometry": {
        "coordinates": [
          -108.04628658214853,
          41.87771783612307
        ],
        "type": "Point"
      },
      "properties": {
        "catchup_usd": 35000,
        "condition": "fair",
        "constructed": 1985,
        "fact_state": "LOCKED_DERIVED_IMPLEMENTATION",
        "id": "CUL-17",
        "inspection_date": "2025-10-22",
        "kind": "culvert",
        "lon_lat": [
          -108.04628658214853,
          41.87771783612307
        ],
        "material": "corrugated steel",
        "milepost": 1.5,
        "provenance": "Synthetic case implementation derived from reconciled handoff and explicit user authority; no external party or surveyed certification claimed",
        "restriction": "none beyond inspection restrictions",
        "route_id": "BST-EAST",
        "span_m": 1.2,
        "waterway": "synthetic ephemeral drainage crossing; not an asserted named watercourse",
        "feature_id": "IND-CUL-17",
        "object_id": "SH-IND-CUL-17",
        "canonical_name": "CUL-17 culvert",
        "fictionality": "FICTIONAL_IN_REAL_GEOGRAPHY",
        "real_world_relation": "SYNTHETIC_CASE_NOT_REAL_PROPERTY",
        "canon_status": "ENGINEERED",
        "geometry_status": "LOCKED_DERIVED_IMPLEMENTATION",
        "location_method": "DERIVED_FROM_ACCEPTED_SOURCE",
        "precision_class": "CASE_ENGINEERING_NOT_SURVEY",
        "horizontal_accuracy_m": null,
        "vertical_accuracy_m": null,
        "public_precision": "SYNTHETIC_CASE",
        "source_id": "SRC-CURRENT-OPS",
        "decision_id": "GEO-D018",
        "recorded_at": "2026-09-07T16:00:00+00:00",
        "world_state_date": "2026-09-07",
        "owner_entity": "SH-ENT-009",
        "operator_entity": "SH-ENT-009",
        "valid_from": null,
        "valid_to": null,
        "construction_method": "Geo adapter of industrial source; geometry and original attributes retained.",
        "notes": "Owner/operator identify the current synthetic case, not a timeless real-property right. Source opening date is not automatically the current owner acquisition date."
      }
    },
    {
      "type": "Feature",
      "id": "IND-CUL-18",
      "geometry": {
        "coordinates": [
          -108.02543226355233,
          41.89284878948144
        ],
        "type": "Point"
      },
      "properties": {
        "catchup_usd": 35000,
        "condition": "fair",
        "constructed": 1986,
        "fact_state": "LOCKED_DERIVED_IMPLEMENTATION",
        "id": "CUL-18",
        "inspection_date": "2025-10-22",
        "kind": "culvert",
        "lon_lat": [
          -108.02543226355233,
          41.89284878948144
        ],
        "material": "reinforced concrete",
        "milepost": 3.0,
        "provenance": "Synthetic case implementation derived from reconciled handoff and explicit user authority; no external party or surveyed certification claimed",
        "restriction": "none beyond inspection restrictions",
        "route_id": "BST-EAST",
        "span_m": 1.8,
        "waterway": "synthetic ephemeral drainage crossing; not an asserted named watercourse",
        "feature_id": "IND-CUL-18",
        "object_id": "SH-IND-CUL-18",
        "canonical_name": "CUL-18 culvert",
        "fictionality": "FICTIONAL_IN_REAL_GEOGRAPHY",
        "real_world_relation": "SYNTHETIC_CASE_NOT_REAL_PROPERTY",
        "canon_status": "ENGINEERED",
        "geometry_status": "LOCKED_DERIVED_IMPLEMENTATION",
        "location_method": "DERIVED_FROM_ACCEPTED_SOURCE",
        "precision_class": "CASE_ENGINEERING_NOT_SURVEY",
        "horizontal_accuracy_m": null,
        "vertical_accuracy_m": null,
        "public_precision": "SYNTHETIC_CASE",
        "source_id": "SRC-CURRENT-OPS",
        "decision_id": "GEO-D018",
        "recorded_at": "2026-09-07T16:00:00+00:00",
        "world_state_date": "2026-09-07",
        "owner_entity": "SH-ENT-009",
        "operator_entity": "SH-ENT-009",
        "valid_from": null,
        "valid_to": null,
        "construction_method": "Geo adapter of industrial source; geometry and original attributes retained.",
        "notes": "Owner/operator identify the current synthetic case, not a timeless real-property right. Source opening date is not automatically the current owner acquisition date."
      }
    },
    {
      "type": "Feature",
      "id": "IND-CUL-19",
      "geometry": {
        "coordinates": [
          -108.09712149335367,
          42.02245298595429
        ],
        "type": "Point"
      },
      "properties": {
        "catchup_usd": 35000,
        "condition": "fair",
        "constructed": 1987,
        "fact_state": "LOCKED_DERIVED_IMPLEMENTATION",
        "id": "CUL-19",
        "inspection_date": "2025-10-22",
        "kind": "culvert",
        "lon_lat": [
          -108.09712149335367,
          42.02245298595429
        ],
        "material": "corrugated steel",
        "milepost": 1.05,
        "provenance": "Synthetic case implementation derived from reconciled handoff and explicit user authority; no external party or surveyed certification claimed",
        "restriction": "none beyond inspection restrictions",
        "route_id": "BST-MINERAL",
        "span_m": 1.2,
        "waterway": "synthetic ephemeral drainage crossing; not an asserted named watercourse",
        "feature_id": "IND-CUL-19",
        "object_id": "SH-IND-CUL-19",
        "canonical_name": "CUL-19 culvert",
        "fictionality": "FICTIONAL_IN_REAL_GEOGRAPHY",
        "real_world_relation": "SYNTHETIC_CASE_NOT_REAL_PROPERTY",
        "canon_status": "ENGINEERED",
        "geometry_status": "LOCKED_DERIVED_IMPLEMENTATION",
        "location_method": "DERIVED_FROM_ACCEPTED_SOURCE",
        "precision_class": "CASE_ENGINEERING_NOT_SURVEY",
        "horizontal_accuracy_m": null,
        "vertical_accuracy_m": null,
        "public_precision": "SYNTHETIC_CASE",
        "source_id": "SRC-CURRENT-OPS",
        "decision_id": "GEO-D018",
        "recorded_at": "2026-09-07T16:00:00+00:00",
        "world_state_date": "2026-09-07",
        "owner_entity": "SH-ENT-009",
        "operator_entity": "SH-ENT-009",
        "valid_from": null,
        "valid_to": null,
        "construction_method": "Geo adapter of industrial source; geometry and original attributes retained.",
        "notes": "Owner/operator identify the current synthetic case, not a timeless real-property right. Source opening date is not automatically the current owner acquisition date."
      }
    },
    {
      "type": "Feature",
      "id": "IND-CUL-20",
      "geometry": {
        "coordinates": [
          -108.07958374377804,
          42.03018525134497
        ],
        "type": "Point"
      },
      "properties": {
        "catchup_usd": 35000,
        "condition": "serviceable with sediment/headwall deficiency",
        "constructed": 1988,
        "fact_state": "LOCKED_DERIVED_IMPLEMENTATION",
        "id": "CUL-20",
        "inspection_date": "2025-10-22",
        "kind": "culvert",
        "lon_lat": [
          -108.07958374377804,
          42.03018525134497
        ],
        "material": "reinforced concrete",
        "milepost": 2.1,
        "provenance": "Synthetic case implementation derived from reconciled handoff and explicit user authority; no external party or surveyed certification claimed",
        "restriction": "none beyond inspection restrictions",
        "route_id": "BST-MINERAL",
        "span_m": 1.2,
        "waterway": "synthetic ephemeral drainage crossing; not an asserted named watercourse",
        "feature_id": "IND-CUL-20",
        "object_id": "SH-IND-CUL-20",
        "canonical_name": "CUL-20 culvert",
        "fictionality": "FICTIONAL_IN_REAL_GEOGRAPHY",
        "real_world_relation": "SYNTHETIC_CASE_NOT_REAL_PROPERTY",
        "canon_status": "ENGINEERED",
        "geometry_status": "LOCKED_DERIVED_IMPLEMENTATION",
        "location_method": "DERIVED_FROM_ACCEPTED_SOURCE",
        "precision_class": "CASE_ENGINEERING_NOT_SURVEY",
        "horizontal_accuracy_m": null,
        "vertical_accuracy_m": null,
        "public_precision": "SYNTHETIC_CASE",
        "source_id": "SRC-CURRENT-OPS",
        "decision_id": "GEO-D018",
        "recorded_at": "2026-09-07T16:00:00+00:00",
        "world_state_date": "2026-09-07",
        "owner_entity": "SH-ENT-009",
        "operator_entity": "SH-ENT-009",
        "valid_from": null,
        "valid_to": null,
        "construction_method": "Geo adapter of industrial source; geometry and original attributes retained.",
        "notes": "Owner/operator identify the current synthetic case, not a timeless real-property right. Source opening date is not automatically the current owner acquisition date."
      }
    },
    {
      "type": "Feature",
      "id": "IND-HWY-I80-1",
      "geometry": {
        "coordinates": [
          -107.9710163548332,
          41.67930112876496
        ],
        "type": "Point"
      },
      "properties": {
        "catchup_usd": 0,
        "condition": "serviceable synthetic condition",
        "constructed": 1968,
        "fact_state": "LOCKED_DERIVED_IMPLEMENTATION",
        "id": "HWY-I80-1",
        "inspection_state": "host-highway responsibilities modeled in crossing agreement",
        "kind": "third_party_highway_overbridge",
        "lon_lat": [
          -107.9710163548332,
          41.67930112876496
        ],
        "material": "prestressed concrete highway span",
        "milepost": 0.4338486504634681,
        "owner": "fictional WYDOT crossing arrangement; no real agreement asserted",
        "provenance": "I80 corridor real; existing grade-separated crossing invented as necessary historical infrastructure, not a mapped real bridge",
        "reference_id": "REF-WAMSUTTER-HIGHWAYS-4",
        "restriction": "rail clearance21ft6in assumed; survey verification gate",
        "route_id": "BST-MAIN",
        "span_m": 35,
        "feature_id": "IND-HWY-I80-1",
        "object_id": "SH-IND-HWY-I80-1",
        "canonical_name": "HWY-I80-1 third_party_highway_overbridge",
        "fictionality": "FICTIONAL_IN_REAL_GEOGRAPHY",
        "real_world_relation": "SYNTHETIC_CASE_NOT_REAL_PROPERTY",
        "canon_status": "ENGINEERED",
        "geometry_status": "LOCKED_DERIVED_IMPLEMENTATION",
        "location_method": "DERIVED_FROM_ACCEPTED_SOURCE",
        "precision_class": "CASE_ENGINEERING_NOT_SURVEY",
        "horizontal_accuracy_m": null,
        "vertical_accuracy_m": null,
        "public_precision": "SYNTHETIC_CASE",
        "source_id": "SRC-CURRENT-OPS",
        "decision_id": "GEO-D018",
        "recorded_at": "2026-09-07T16:00:00+00:00",
        "world_state_date": "2026-09-07",
        "owner_entity": "SH-ENT-009",
        "operator_entity": "SH-ENT-009",
        "valid_from": null,
        "valid_to": null,
        "construction_method": "Geo adapter of industrial source; geometry and original attributes retained.",
        "notes": "Owner/operator identify the current synthetic case, not a timeless real-property right. Source opening date is not automatically the current owner acquisition date."
      }
    },
    {
      "type": "Feature",
      "id": "IND-HWY-I80-2",
      "geometry": {
        "coordinates": [
          -107.97062132925036,
          41.678992799552994
        ],
        "type": "Point"
      },
      "properties": {
        "catchup_usd": 0,
        "condition": "serviceable synthetic condition",
        "constructed": 1968,
        "fact_state": "LOCKED_DERIVED_IMPLEMENTATION",
        "id": "HWY-I80-2",
        "inspection_state": "host-highway responsibilities modeled in crossing agreement",
        "kind": "third_party_highway_overbridge",
        "lon_lat": [
          -107.97062132925036,
          41.678992799552994
        ],
        "material": "prestressed concrete highway span",
        "milepost": 0.4043327541069508,
        "owner": "fictional WYDOT crossing arrangement; no real agreement asserted",
        "provenance": "I80 corridor real; existing grade-separated crossing invented as necessary historical infrastructure, not a mapped real bridge",
        "reference_id": "REF-WAMSUTTER-HIGHWAYS-151",
        "restriction": "rail clearance21ft6in assumed; survey verification gate",
        "route_id": "BST-MAIN",
        "span_m": 35,
        "feature_id": "IND-HWY-I80-2",
        "object_id": "SH-IND-HWY-I80-2",
        "canonical_name": "HWY-I80-2 third_party_highway_overbridge",
        "fictionality": "FICTIONAL_IN_REAL_GEOGRAPHY",
        "real_world_relation": "SYNTHETIC_CASE_NOT_REAL_PROPERTY",
        "canon_status": "ENGINEERED",
        "geometry_status": "LOCKED_DERIVED_IMPLEMENTATION",
        "location_method": "DERIVED_FROM_ACCEPTED_SOURCE",
        "precision_class": "CASE_ENGINEERING_NOT_SURVEY",
        "horizontal_accuracy_m": null,
        "vertical_accuracy_m": null,
        "public_precision": "SYNTHETIC_CASE",
        "source_id": "SRC-CURRENT-OPS",
        "decision_id": "GEO-D018",
        "recorded_at": "2026-09-07T16:00:00+00:00",
        "world_state_date": "2026-09-07",
        "owner_entity": "SH-ENT-009",
        "operator_entity": "SH-ENT-009",
        "valid_from": null,
        "valid_to": null,
        "construction_method": "Geo adapter of industrial source; geometry and original attributes retained.",
        "notes": "Owner/operator identify the current synthetic case, not a timeless real-property right. Source opening date is not automatically the current owner acquisition date."
      }
    }
  ]
}
