{
  "type": "FeatureCollection",
  "features": [
    {
      "type": "Feature",
      "id": "IND-ROAD-RW-01",
      "geometry": {
        "coordinates": [
          [
            -108.1,
            42.12
          ],
          [
            -108.09952368860982,
            42.120967994350266
          ],
          [
            -108.09904862036439,
            42.12193601796876
          ],
          [
            -108.09857605247407,
            42.12290410268782
          ],
          [
            -108.0981072397411,
            42.12387228029999
          ],
          [
            -108.09764343332122,
            42.12484058252616
          ],
          [
            -108.09718587948895,
            42.125809040983725
          ],
          [
            -108.09673581840745,
            42.126777687154814
          ],
          [
            -108.0962944829047,
            42.12774655235433
          ],
          [
            -108.09586309725665,
            42.12871566769818
          ],
          [
            -108.09544287597895,
            42.1296850640714
          ],
          [
            -108.09503502262815,
            42.13065477209664
          ],
          [
            -108.09464072861388,
            42.131624822102424
          ],
          [
            -108.0942611720228,
            42.1325952440919
          ],
          [
            -108.09389751645584,
            42.133566067711605
          ],
          [
            -108.09355090987965,
            42.134537322220616
          ],
          [
            -108.0932224834934,
            42.13550903645985
          ],
          [
            -108.09291335061226,
            42.13648123882176
          ],
          [
            -108.0926246055683,
            42.13745395722041
          ],
          [
            -108.09235732263033,
            42.13842721906188
          ],
          [
            -108.09211255494331,
            42.13940105121515
          ],
          [
            -108.09189133348877,
            42.14037547998348
          ],
          [
            -108.09169466606686,
            42.1413505310762
          ],
          [
            -108.09152353630144,
            42.14232622958117
          ],
          [
            -108.09137890266899,
            42.143302599937805
          ],
          [
            -108.09126169755218,
            42.144279665910574
          ],
          [
            -108.09117282631925,
            42.14525745056337
          ],
          [
            -108.09111316643002,
            42.146235976234465
          ],
          [
            -108.09108356656945,
            42.147215264512084
          ],
          [
            -108.09108484580943,
            42.14819533621104
          ],
          [
            -108.09111779279995,
            42.14917621134981
          ],
          [
            -108.09118316499014,
            42.15015790912867
          ],
          [
            -108.09128168788007,
            42.151140447908695
          ],
          [
            -108.0914140543041,
            42.15212384519143
          ],
          [
            -108.0915809237464,
            42.15310811759972
          ],
          [
            -108.0917829216894,
            42.15409328085939
          ],
          [
            -108.09202063899566,
            42.15507934978185
          ],
          [
            -108.09229463132402,
            42.15606633824778
          ],
          [
            -108.09260541858028,
            42.15705425919182
          ],
          [
            -108.09295348440327,
            42.15804312458823
          ],
          [
            -108.09333927568666,
            42.15903294543772
          ],
          [
            -108.09376320213694,
            42.16002373175534
          ],
          [
            -108.09422563586809,
            42.16101549255942
          ],
          [
            -108.09472691103333,
            42.16200823586169
          ],
          [
            -108.09526732349431,
            42.16300196865849
          ],
          [
            -108.09584713052804,
            42.16399669692325
          ],
          [
            -108.09646655057185,
            42.16499242559989
          ],
          [
            -108.09712576300662,
            42.16598915859772
          ],
          [
            -108.09782490797872,
            42.16698689878718
          ],
          [
            -108.09856408626032,
            42.16798564799708
          ],
          [
            -108.09934335914879,
            42.16898540701278
          ],
          [
            -108.1001627484049,
            42.16998617557571
          ],
          [
            -108.1010222362301,
            42.17098795238406
          ],
          [
            -108.1019217652827,
            42.171990735094646
          ],
          [
            -108.10286123873317,
            42.172994520325936
          ],
          [
            -108.10384052035829,
            42.17399930366236
          ],
          [
            -108.10485943467421,
            42.175005079659705
          ],
          [
            -108.1059177671083,
            42.17601184185176
          ],
          [
            -108.10701526420932,
            42.17701958275803
          ],
          [
            -108.10815163389627,
            42.17802829389275
          ],
          [
            -108.10932654574512,
            42.17903796577484
          ],
          [
            -108.1105396313134,
            42.18004858793917
          ],
          [
            -108.11179048450241,
            42.18106014894884
          ],
          [
            -108.11307866195645,
            42.18207263640856
          ],
          [
            -108.11440368349892,
            42.18308603697907
          ],
          [
            -108.11576503260467,
            42.184100336392696
          ],
          [
            -108.11716215690828,
            42.18511551946981
          ],
          [
            -108.11859446874772,
            42.18613157013643
          ],
          [
            -108.12006134574274,
            42.18714847144261
          ],
          [
            -108.1215621314077,
            42.188166205582
          ],
          [
            -108.12309613579794,
            42.18918475391209
          ],
          [
            -108.12466263618921,
            42.19020409697553
          ],
          [
            -108.12626087778949,
            42.19122421452224
          ],
          [
            -108.12789007448248,
            42.19224508553225
          ],
          [
            -108.12954940960194,
            42.193266688239554
          ],
          [
            -108.13123803673632,
            42.19428900015647
          ],
          [
            -108.13295508056272,
            42.19531199809891
          ],
          [
            -108.13469963770935,
            42.1963356582122
          ],
          [
            -108.13647077764577,
            42.19735995599771
          ],
          [
            -108.13826754360002,
            42.19838486633995
          ],
          [
            -108.14008895350149,
            42.199410363534305
          ],
          [
            -108.141934000949,
            42.200436421315295
          ],
          [
            -108.14380165620287,
            42.20146301288539
          ],
          [
            -108.1456908671999,
            42.20249011094418
          ],
          [
            -108.14760056059075,
            42.20351768771808
          ],
          [
            -108.14952964279802,
            42.204545714990346
          ],
          [
            -108.1514770010946,
            42.20557416413141
          ],
          [
            -108.15344150470092,
            42.20660300612966
          ],
          [
            -108.15542200589987,
            42.20763221162234
          ],
          [
            -108.15741734116877,
            42.2086617509267
          ],
          [
            -108.1594263323268,
            42.20969159407142
          ],
          [
            -108.1614477876971,
            42.210721710828075
          ],
          [
            -108.16348050328205,
            42.21175207074282
          ],
          [
            -108.16552326395092,
            42.21278264316803
          ],
          [
            -108.16757484463864,
            42.21381339729405
          ],
          [
            -108.16963401155415,
            42.21484430218101
          ],
          [
            -108.1716995233977,
            42.2158753267904
          ],
          [
            -108.17377013258552,
            42.21690644001677
          ],
          [
            -108.17584458648072,
            42.21793761071926
          ],
          [
            -108.17792162862932,
            42.21896880775294
          ],
          [
            -108.18,
            42.22
          ]
        ],
        "type": "LineString"
      },
      "properties": {
        "fact_state": "LOCKED_DERIVED_IMPLEMENTATION",
        "fictionality": "FICTIONAL_IN_REAL_GEOGRAPHY",
        "id": "ROAD-RW-01",
        "mode": "truck_only",
        "name": "Taylor–RedWash industrial access road",
        "open_date": "2010-12-18",
        "owner": "Red Wash Mining, LLC with synthetic easement rights",
        "provenance": "Derived9mile historic industrial road scenario; not an observed public road or permitted ROW",
        "route_miles": 9.00000000000137,
        "terrain_profile_ref": "geography/derived_ground_profiles.json#ROAD-RW-01",
        "terrain_status": "FEASIBLE_GRADE_ONLY_SCREEN",
        "feature_id": "IND-ROAD-RW-01",
        "object_id": "SH-RAIL-0002",
        "canonical_name": "Taylor–RedWash industrial access road",
        "real_world_relation": "SYNTHETIC_CASE_NOT_REAL_PROPERTY",
        "canon_status": "ENGINEERED",
        "geometry_status": "LOCKED_DERIVED_IMPLEMENTATION",
        "location_method": "DERIVED_FROM_ACCEPTED_SOURCE",
        "precision_class": "CASE_ENGINEERING_NOT_SURVEY",
        "horizontal_accuracy_m": null,
        "vertical_accuracy_m": null,
        "public_precision": "SYNTHETIC_CASE",
        "source_id": "SRC-CURRENT-NETWORK",
        "decision_id": "GEO-D018",
        "recorded_at": "2026-09-07T16:00:00+00:00",
        "world_state_date": "2026-09-07",
        "owner_entity": "SH-ENT-007",
        "operator_entity": "SH-ENT-008",
        "valid_from": null,
        "valid_to": null,
        "construction_method": "Geo adapter of industrial source; geometry and original attributes retained.",
        "notes": "Truck-only synthetic access; RWH easement interests and ARU drayage do not confer uranium custody authority.",
        "route_id": "ROAD-RW-01"
      }
    }
  ]
}
