{"type":"FeatureCollection","features":[{"type":"Feature","id":"BST-EAST-CANDIDATE","geometry":{"type":"LineString","coordinates":[[-108.069130825,41.864277585],[-108.069178067,41.864317931],[-108.06922407,41.864358081],[-108.069268839,41.864398038],[-108.069312382,41.8644378],[-108.069354705,41.86447737],[-108.069395815,41.864516748],[-108.069435719,41.864555934],[-108.069474423,41.86459493],[-108.069511934,41.864633736],[-108.06954826,41.864672352],[-108.069583406,41.86471078],[-108.069617379,41.86474902],[-108.069650187,41.864787073],[-108.069681835,41.864824939],[-108.069712331,41.86486262],[-108.069741681,41.864900116],[-108.069769891,41.864937427],[-108.06979697,41.864974555],[-108.069822923,41.8650115],[-108.069847757,41.865048263],[-108.069871478,41.865084845],[-108.069894094,41.865121246],[-108.069915612,41.865157467],[-108.069936037,41.865193508],[-108.069955377,41.865229371],[-108.069973639,41.865265056],[-108.069990828,41.865300564],[-108.070006952,41.865335896],[-108.070022018,41.865371052],[-108.070036032,41.865406033],[-108.070049001,41.865440839],[-108.070060932,41.865475472],[-108.070071831,41.865509933],[-108.070081706,41.865544221],[-108.070090562,41.865578337],[-108.070098406,41.865612283],[-108.070105246,41.865646059],[-108.070111088,41.865679666],[-108.070115939,41.865713104],[-108.070119805,41.865746374],[-108.070122693,41.865779477],[-108.07012461,41.865812413],[-108.070125563,41.865845184],[-108.070125558,41.86587779],[-108.070124601,41.865910232],[-108.070122701,41.865942509],[-108.070119863,41.865974624],[-108.070116095,41.866006577],[-108.070111402,41.866038369],[-108.070105791,41.86607],[-108.070099271,41.86610147],[-108.070091846,41.866132782],[-108.070083524,41.866163934],[-108.070074311,41.866194929],[-108.070064214,41.866225767],[-108.070053241,41.866256448],[-108.070041397,41.866286974],[-108.07002869,41.866317344],[-108.070015125,41.86634756],[-108.07000071,41.866377623],[-108.069985452,41.866407532],[-108.069969357,41.86643729],[-108.069952432,41.866466896],[-108.069934684,41.866496351],[-108.069916119,41.866525656],[-108.069896744,41.866554812],[-108.069876566,41.866583819],[-108.069855591,41.866612679],[-108.069833827,41.866641391],[-108.06981128,41.866669956],[-108.069787956,41.866698376],[-108.069763863,41.866726651],[-108.069739007,41.866754781],[-108.069713395,41.866782768],[-108.069687033,41.866810612],[-108.069659928,41.866838314],[-108.069632088,41.866865874],[-108.069603518,41.866893293],[-108.069574226,41.866920572],[-108.069544218,41.866947712],[-108.069513501,41.866974714],[-108.069482081,41.867001577],[-108.069449966,41.867028303],[-108.069417162,41.867054893],[-108.069383675,41.867081346],[-108.069349513,41.867107665],[-108.069314682,41.867133849],[-108.069279189,41.8671599],[-108.069243041,41.867185818],[-108.069206244,41.867211603],[-108.069168805,41.867237257],[-108.069130731,41.86726278],[-108.069092028,41.867288173],[-108.069052704,41.867313437],[-108.069012765,41.867338572],[-108.068972217,41.867363579],[-108.068931067,41.867388459],[-108.068889323,41.867413212],[-108.068846991,41.867437839],[-108.068804077,41.867462342],[-108.068760588,41.867486719],[-108.068716531,41.867510974],[-108.068671913,41.867535105],[-108.06862674,41.867559114],[-108.06858102,41.867583001],[-108.068534758,41.867606767],[-108.068487962,41.867630414],[-108.068440638,41.867653941],[-108.068392794,41.867677349],[-108.068344435,41.867700639],[-108.068295568,41.867723812],[-108.068246201,41.867746869],[-108.068196339,41.867769809],[-108.06814599,41.867792635],[-108.06809516,41.867815345],[-108.068043857,41.867837943],[-108.067992086,41.867860427],[-108.067939855,41.867882799],[-108.06788717,41.867905059],[-108.067834037,41.867927209],[-108.067780465,41.867949248],[-108.067726459,41.867971178],[-108.067672025,41.867992999],[-108.067617172,41.868014712],[-108.067561905,41.868036318],[-108.067506232,41.868057817],[-108.067450158,41.86807921],[-108.067393691,41.868100499],[-108.067336838,41.868121682],[-108.067279604,41.868142762],[-108.067221998,41.868163739],[-108.067164025,41.868184614],[-108.067105692,41.868205387],[-108.067047006,41.868226059],[-108.066987974,41.868246631],[-108.066928602,41.868267103],[-108.066868898,41.868287477],[-108.066808867,41.868307752],[-108.066748517,41.86832793],[-108.066687855,41.868348012],[-108.066626886,41.868367998],[-108.066565618,41.868387888],[-108.066504058,41.868407684],[-108.066442211,41.868427387],[-108.066380086,41.868446996],[-108.066317688,41.868466513],[-108.066255025,41.868485938],[-108.066192103,41.868505272],[-108.066128928,41.868524516],[-108.066065508,41.868543671],[-108.066001849,41.868562737],[-108.065937958,41.868581714],[-108.065873842,41.868600605],[-108.065809508,41.868619408],[-108.065744961,41.868638126],[-108.065680209,41.868656759],[-108.065615259,41.868675307],[-108.065550117,41.868693771],[-108.06548479,41.868712152],[-108.065419284,41.868730451],[-108.065353607,41.868748668],[-108.065287766,41.868766804],[-108.065221766,41.86878486],[-108.065155614,41.868802837],[-108.065089318,41.868820734],[-108.065022884,41.868838554],[-108.064956319,41.868856296],[-108.064889629,41.868873962],[-108.064822822,41.868891551],[-108.064755903,41.868909065],[-108.06468888,41.868926505],[-108.064621759,41.868943871],[-108.064554547,41.868961164],[-108.064487252,41.868978384],[-108.064419878,41.868995533],[-108.064352434,41.869012611],[-108.064284926,41.869029619],[-108.06421736,41.869046557],[-108.064149744,41.869063426],[-108.064082084,41.869080227],[-108.064014387,41.86909696],[-108.063946659,41.869113627],[-108.063878907,41.869130228],[-108.063811139,41.869146764],[-108.06374336,41.869163235],[-108.063675578,41.869179643],[-108.063607799,41.869195987],[-108.063540029,41.869212269],[-108.063472276,41.869228489],[-108.063404547,41.869244648],[-108.063336847,41.869260747],[-108.063269185,41.869276786],[-108.063201565,41.869292767],[-108.063133996,41.869308689],[-108.063066484,41.869324554],[-108.062999036,41.869340362],[-108.062931657,41.869356115],[-108.062864356,41.869371812],[-108.062797139,41.869387454],[-108.062730012,41.869403043],[-108.062662982,41.869418578],[-108.062596057,41.869434061],[-108.062529242,41.869449492],[-108.062462544,41.869464873],[-108.06239597,41.869480203],[-108.062329527,41.869495483],[-108.062263222,41.869510715],[-108.062197061,41.869525898],[-108.062131051,41.869541034],[-108.062065199,41.869556124],[-108.061999511,41.869571167],[-108.061933994,41.869586165],[-108.061868656,41.869601119],[-108.061803501,41.869616028],[-108.061738538,41.869630895],[-108.061673773,41.869645719],[-108.061609213,41.869660501],[-108.061544864,41.869675242],[-108.061480734,41.869689943],[-108.061416828,41.869704605],[-108.061353154,41.869719227],[-108.061289718,41.869733812],[-108.061226528,41.869748359],[-108.061163589,41.869762869],[-108.061100908,41.869777343],[-108.061038493,41.869791782],[-108.06097635,41.869806186],[-108.060914485,41.869820557],[-108.060852906,41.869834894],[-108.060791619,41.869849199],[-108.060730631,41.869863472],[-108.060669948,41.869877715],[-108.060609578,41.869891926],[-108.060549526,41.869906109],[-108.060489801,41.869920262],[-108.060430407,41.869934387],[-108.060371353,41.869948485],[-108.060312645,41.869962556],[-108.060254289,41.869976601],[-108.060196292,41.869990621],[-108.060138662,41.870004616],[-108.060081404,41.870018588],[-108.060024526,41.870032536],[-108.059968034,41.870046461],[-108.059911935,41.870060365],[-108.059856235,41.870074248],[-108.059800942,41.870088111],[-108.059746062,41.870101954],[-108.059691602,41.870115778],[-108.059637568,41.870129584],[-108.059583967,41.870143373],[-108.059530806,41.870157144],[-108.059478092,41.8701709],[-108.059425832,41.870184641],[-108.059374031,41.870198367],[-108.059322698,41.870212079],[-108.059271837,41.870225778],[-108.059221458,41.870239464],[-108.059171565,41.870253139],[-108.059122165,41.870266802],[-108.059073267,41.870280456],[-108.059024875,41.870294099],[-108.058976997,41.870307734],[-108.05892964,41.870321361],[-108.05888281,41.87033498],[-108.058836514,41.870348593],[-108.058790759,41.870362199],[-108.058745552,41.8703758],[-108.058700898,41.870389397],[-108.058656806,41.87040299],[-108.058613281,41.870416579],[-108.05857033,41.870430166],[-108.058527961,41.870443752],[-108.058486179,41.870457336],[-108.058444992,41.87047092],[-108.058404406,41.870484504],[-108.058364428,41.87049809],[-108.058325064,41.870511677],[-108.058286322,41.870525267],[-108.058248209,41.87053886],[-108.05821073,41.870552457],[-108.058173892,41.870566059],[-108.058137703,41.870579666],[-108.058102169,41.87059328],[-108.058067296,41.8706069],[-108.058033092,41.870620528],[-108.057999563,41.870634164],[-108.057966716,41.870647809],[-108.057934558,41.870661463],[-108.057903094,41.870675128],[-108.057872333,41.870688804],[-108.057842281,41.870702492],[-108.057812944,41.870716193],[-108.057784329,41.870729907],[-108.057756444,41.870743634],[-108.057729293,41.870757377],[-108.057702886,41.870771135],[-108.057677227,41.870784909],[-108.057652324,41.870798699],[-108.057628183,41.870812508],[-108.057530967,41.870868983],[-108.056766279,41.871315346],[-108.056003219,41.871763014],[-108.055241874,41.872212059],[-108.054482328,41.872662547],[-108.053724665,41.873114545],[-108.052968962,41.873568116],[-108.052215295,41.874023321],[-108.051463738,41.874480217],[-108.050714359,41.87493886],[-108.049967224,41.875399304],[-108.049222397,41.875861598],[-108.048479935,41.87632579],[-108.047739896,41.876791923],[-108.047002329,41.877260041],[-108.046267283,41.87773018],[-108.045534801,41.878202376],[-108.044804924,41.878676661],[-108.044077687,41.879153064],[-108.043353123,41.87963161],[-108.042631258,41.880112321],[-108.041912116,41.880595216],[-108.041195717,41.881080311],[-108.040482075,41.881567618],[-108.039771201,41.882057145],[-108.039063101,41.882548898],[-108.038357778,41.883042878],[-108.03765523,41.883539083],[-108.036955449,41.88403751],[-108.036258426,41.884538148],[-108.035564145,41.885040986],[-108.034872587,41.885546009],[-108.034183729,41.886053198],[-108.033497542,41.88656253],[-108.032813996,41.887073982],[-108.032133053,41.887587523],[-108.031454675,41.888103121],[-108.030778818,41.888620743],[-108.030105433,41.889140349],[-108.029434469,41.889661899],[-108.028765871,41.890185348],[-108.028099579,41.890710648],[-108.027435532,41.89123775],[-108.026773663,41.891766601],[-108.026113902,41.892297146],[-108.025456177,41.892829325],[-108.024800412,41.893363079],[-108.024146528,41.893898344],[-108.023494444,41.894435055],[-108.022844074,41.894973144],[-108.022195332,41.895512541],[-108.021548127,41.896053174],[-108.020902367,41.896594969],[-108.020257959,41.897137852],[-108.019614805,41.897681744],[-108.018972807,41.898226566],[-108.018331865,41.898772239],[-108.017691876,41.899318681],[-108.017052738,41.899865809],[-108.016414346,41.900413539],[-108.015776593,41.900961785],[-108.015139373,41.901510464],[-108.014502578,41.902059488],[-108.013866099,41.90260877],[-108.013229829,41.903158224],[-108.012593656,41.903707761]]},"properties":{"source_route_id":"BST-EAST","case_status":"PROPOSED_HORIZONTAL_AND_VERTICAL_ROUTE_SUCCESSOR","survey_status":"NOT_SURVEYED"}},{"type":"Feature","id":"BST-MINERAL-CANDIDATE","geometry":{"type":"LineString","coordinates":[[-108.116160171,42.017007958],[-108.11616142,42.01703928],[-108.116162233,42.01707029],[-108.116162612,42.017100991],[-108.116162559,42.017131384],[-108.116162077,42.01716147],[-108.116161169,42.01719125],[-108.116159835,42.017220727],[-108.116158079,42.017249902],[-108.116155903,42.017278776],[-108.116153308,42.017307352],[-108.116150298,42.01733563],[-108.116146875,42.017363612],[-108.11614304,42.0173913],[-108.116138797,42.017418695],[-108.116134146,42.017445799],[-108.116129092,42.017472613],[-108.116123635,42.01749914],[-108.116117778,42.01752538],[-108.116111524,42.017551335],[-108.116104875,42.017577006],[-108.116097832,42.017602396],[-108.116090398,42.017627506],[-108.116082576,42.017652337],[-108.116074367,42.017676891],[-108.116065775,42.017701169],[-108.116056801,42.017725174],[-108.116047447,42.017748906],[-108.116037715,42.017772367],[-108.116027609,42.017795558],[-108.11601713,42.017818482],[-108.116006281,42.01784114],[-108.115995063,42.017863534],[-108.115983479,42.017885664],[-108.115971532,42.017907533],[-108.115959223,42.017929141],[-108.115946555,42.017950492],[-108.11593353,42.017971585],[-108.11592015,42.017992424],[-108.115906418,42.018013008],[-108.115892336,42.018033341],[-108.115877906,42.018053423],[-108.11586313,42.018073256],[-108.115848011,42.018092841],[-108.115832551,42.018112181],[-108.115816752,42.018131276],[-108.115800616,42.018150129],[-108.115784146,42.01816874],[-108.115767344,42.018187112],[-108.115750212,42.018205245],[-108.115732752,42.018223142],[-108.115714968,42.018240804],[-108.11569686,42.018258233],[-108.115678431,42.01827543],[-108.115659684,42.018292396],[-108.115640621,42.018309134],[-108.115621244,42.018325645],[-108.115601555,42.01834193],[-108.115581556,42.018357991],[-108.11556125,42.01837383],[-108.11554064,42.018389447],[-108.115519727,42.018404846],[-108.115498513,42.018420026],[-108.115477001,42.01843499],[-108.115455193,42.01844974],[-108.115433092,42.018464276],[-108.115410699,42.018478601],[-108.115388017,42.018492716],[-108.115365048,42.018506623],[-108.115341795,42.018520322],[-108.115318259,42.018533817],[-108.115294444,42.018547107],[-108.11527035,42.018560196],[-108.115245981,42.018573084],[-108.115221339,42.018585772],[-108.115196425,42.018598263],[-108.115171243,42.018610559],[-108.115145794,42.01862266],[-108.115120081,42.018634568],[-108.115094107,42.018646284],[-108.115067872,42.018657811],[-108.11504138,42.01866915],[-108.115014632,42.018680303],[-108.114987632,42.01869127],[-108.114960381,42.018702054],[-108.114932882,42.018712656],[-108.114905136,42.018723078],[-108.114877147,42.01873332],[-108.114848916,42.018743386],[-108.114820446,42.018753276],[-108.114791738,42.018762992],[-108.114762796,42.018772535],[-108.114733621,42.018781908],[-108.114704215,42.018791111],[-108.114674582,42.018800146],[-108.114644723,42.018809015],[-108.11461464,42.018817719],[-108.114584336,42.01882626],[-108.114553813,42.018834639],[-108.114523073,42.018842858],[-108.114492119,42.018850919],[-108.114460952,42.018858823],[-108.114429576,42.018866571],[-108.114397991,42.018874166],[-108.114366202,42.018881608],[-108.114334209,42.0188889],[-108.114302015,42.018896043],[-108.114269622,42.018903038],[-108.114237033,42.018909887],[-108.11420425,42.018916592],[-108.114171275,42.018923153],[-108.11413811,42.018929574],[-108.114104758,42.018935854],[-108.114071221,42.018941997],[-108.114037501,42.018948003],[-108.114003601,42.018953873],[-108.113969522,42.018959611],[-108.113935267,42.018965216],[-108.113900838,42.018970691],[-108.113866238,42.018976037],[-108.113831468,42.018981256],[-108.113796531,42.018986349],[-108.11376143,42.018991318],[-108.113726166,42.018996164],[-108.113690742,42.019000889],[-108.11365516,42.019005495],[-108.113619422,42.019009983],[-108.11358353,42.019014355],[-108.113547488,42.019018611],[-108.113511296,42.019022755],[-108.113474958,42.019026787],[-108.113438476,42.019030709],[-108.113401851,42.019034522],[-108.113365086,42.019038228],[-108.113328184,42.019041829],[-108.113291146,42.019045326],[-108.113253976,42.01904872],[-108.113216674,42.019052014],[-108.113179244,42.019055209],[-108.113141688,42.019058306],[-108.113104007,42.019061307],[-108.113066205,42.019064214],[-108.113028283,42.019067028],[-108.112990243,42.01906975],[-108.112952089,42.019072382],[-108.112913822,42.019074926],[-108.112875445,42.019077384],[-108.112836959,42.019079756],[-108.112798367,42.019082045],[-108.112759672,42.019084252],[-108.112720875,42.019086378],[-108.112681979,42.019088426],[-108.112642986,42.019090396],[-108.112603898,42.01909229],[-108.112564718,42.01909411],[-108.112525448,42.019095858],[-108.11248609,42.019097534],[-108.112446646,42.019099141],[-108.112407119,42.01910068],[-108.112367511,42.019102152],[-108.112327824,42.01910356],[-108.11228806,42.019104905],[-108.112248222,42.019106187],[-108.112208312,42.01910741],[-108.112168332,42.019108574],[-108.112128284,42.019109681],[-108.112088172,42.019110732],[-108.112047996,42.019111729],[-108.112007759,42.019112675],[-108.111967464,42.019113569],[-108.111927113,42.019114414],[-108.111886708,42.019115211],[-108.111846251,42.019115963],[-108.111805745,42.01911667],[-108.111765191,42.019117333],[-108.111724592,42.019117956],[-108.111683951,42.019118538],[-108.11164327,42.019119082],[-108.11160255,42.01911959],[-108.111561794,42.019120062],[-108.111521005,42.019120501],[-108.111480184,42.019120907],[-108.111439334,42.019121283],[-108.111398458,42.019121631],[-108.111357557,42.01912195],[-108.111316633,42.019122244],[-108.111275689,42.019122514],[-108.111234728,42.019122761],[-108.111193751,42.019122987],[-108.111152761,42.019123193],[-108.111111759,42.019123381],[-108.111070749,42.019123553],[-108.111029733,42.01912371],[-108.110988712,42.019123853],[-108.110947689,42.019123985],[-108.110906667,42.019124107],[-108.110865647,42.01912422],[-108.110824632,42.019124326],[-108.110783624,42.019124426],[-108.110742625,42.019124522],[-108.110701638,42.019124616],[-108.110660664,42.019124709],[-108.110619707,42.019124803],[-108.110578768,42.019124899],[-108.11053785,42.019124999],[-108.110496955,42.019125105],[-108.110456085,42.019125217],[-108.110415242,42.019125338],[-108.110374429,42.019125469],[-108.110333648,42.019125611],[-108.110292901,42.019125767],[-108.11025219,42.019125938],[-108.110211518,42.019126124],[-108.110170887,42.019126329],[-108.1101303,42.019126553],[-108.110089758,42.019126799],[-108.110049263,42.019127066],[-108.110008819,42.019127358],[-108.109968427,42.019127676],[-108.109928089,42.019128021],[-108.109887808,42.019128394],[-108.109847587,42.019128798],[-108.109807426,42.019129234],[-108.10976733,42.019129704],[-108.109727299,42.019130208],[-108.109687336,42.01913075],[-108.109647443,42.019131329],[-108.109607623,42.019131948],[-108.109567878,42.019132608],[-108.109528211,42.019133312],[-108.109488622,42.019134059],[-108.109449115,42.019134853],[-108.109409693,42.019135694],[-108.109370356,42.019136585],[-108.109331108,42.019137526],[-108.10929195,42.019138519],[-108.109252886,42.019139566],[-108.109213916,42.019140668],[-108.109175045,42.019141828],[-108.109136273,42.019143045],[-108.109097603,42.019144323],[-108.109059037,42.019145663],[-108.109020577,42.019147065],[-108.108982227,42.019148532],[-108.108943988,42.019150066],[-108.108905862,42.019151667],[-108.108867851,42.019153338],[-108.108829958,42.01915508],[-108.108792186,42.019156894],[-108.108754536,42.019158783],[-108.10871701,42.019160747],[-108.108679611,42.019162788],[-108.108642342,42.019164908],[-108.108605203,42.019167108],[-108.108568199,42.019169391],[-108.10853133,42.019171756],[-108.1084946,42.019174207],[-108.10845801,42.019176744],[-108.108421562,42.01917937],[-108.10838526,42.019182085],[-108.108349105,42.019184891],[-108.108313099,42.019187791],[-108.108277246,42.019190784],[-108.108241546,42.019193874],[-108.108206002,42.019197061],[-108.108170617,42.019200347],[-108.108135393,42.019203734],[-108.108100331,42.019207223],[-108.108065435,42.019210815],[-108.108030707,42.019214513],[-108.107996148,42.019218318],[-108.107961762,42.019222231],[-108.10792755,42.019226255],[-108.107893514,42.01923039],[-108.107859658,42.019234637],[-108.107825982,42.019239],[-108.10779249,42.019243479],[-108.107759184,42.019248076],[-108.107726065,42.019252792],[-108.107693137,42.019257629],[-108.107660401,42.019262588],[-108.107627859,42.019267672],[-108.107595515,42.019272881],[-108.10756337,42.019278217],[-108.107531426,42.019283682],[-108.107499686,42.019289277],[-108.107468153,42.019295004],[-108.107436827,42.019300865],[-108.107405712,42.01930686],[-108.10737481,42.019312992],[-108.107344122,42.019319263],[-108.107313652,42.019325672],[-108.107283402,42.019332223],[-108.107253373,42.019338917],[-108.107223569,42.019345755],[-108.10719399,42.019352739],[-108.107164641,42.019359871],[-108.107135522,42.019367151],[-108.107106637,42.019374583],[-108.107077986,42.019382166],[-108.107049574,42.019389903],[-108.106997994,42.01940409],[-108.106393184,42.019572232],[-108.105789502,42.019741955],[-108.10518701,42.019913343],[-108.104585766,42.020086477],[-108.103985827,42.020261436],[-108.103387246,42.020438297],[-108.102790076,42.020617134],[-108.102194367,42.020798016],[-108.101600168,42.020981011],[-108.101007523,42.021166182],[-108.100416477,42.02135359],[-108.099827069,42.021543292],[-108.099239338,42.021735342],[-108.09865332,42.02192979],[-108.098069047,42.022126681],[-108.09748655,42.022326058],[-108.096905857,42.02252796],[-108.096326991,42.022732422],[-108.095749975,42.022939473],[-108.095174828,42.023149142],[-108.094601566,42.02336145],[-108.094030203,42.023576416],[-108.093460748,42.023794055],[-108.092893209,42.024014377],[-108.09232759,42.024237389],[-108.091763893,42.024463092],[-108.091202116,42.024691484],[-108.090642255,42.02492256],[-108.090084303,42.025156308],[-108.089528248,42.025392715],[-108.088974078,42.025631762],[-108.088421776,42.025873426],[-108.087871323,42.02611768],[-108.087322697,42.026364495],[-108.086775873,42.026613834],[-108.086230825,42.02686566],[-108.08568752,42.027119931],[-108.085145927,42.027376599],[-108.08460601,42.027635616],[-108.08406773,42.027896927],[-108.083531046,42.028160477],[-108.082995916,42.028426203],[-108.082462293,42.028694043],[-108.08193013,42.028963929],[-108.081399376,42.029235792],[-108.08086998,42.029509557],[-108.080341885,42.029785148],[-108.079815037,42.030062487],[-108.079289376,42.030341492],[-108.078764842,42.030622078],[-108.078241373,42.030904158],[-108.077718905,42.031187644],[-108.077197374,42.031472444],[-108.076676712,42.031758465],[-108.076156851,42.032045611],[-108.075637723,42.032333786],[-108.075119256,42.032622892],[-108.074601379,42.032912827],[-108.07408402,42.033203491],[-108.073567106,42.033494782],[-108.073050563,42.033786596],[-108.072534316,42.03407883],[-108.072018291,42.034371377],[-108.071502413,42.034664133],[-108.070986605,42.034956993]]},"properties":{"source_route_id":"BST-MINERAL","case_status":"PROPOSED_HORIZONTAL_AND_VERTICAL_ROUTE_SUCCESSOR","survey_status":"NOT_SURVEYED"}},{"type":"Feature","id":"LEAD-TAY-TERMINAL","geometry":{"type":"LineString","coordinates":[[-108.102419278,42.117989332],[-108.102403757,42.118003056],[-108.102388477,42.118016782],[-108.102373439,42.118030512],[-108.102358642,42.118044244],[-108.102344084,42.118057978],[-108.102329767,42.118071713],[-108.102315687,42.11808545],[-108.102301846,42.118099188],[-108.102288242,42.118112927],[-108.102274874,42.118126666],[-108.102261742,42.118140406],[-108.102248845,42.118154145],[-108.102236182,42.118167883],[-108.102223752,42.118181621],[-108.102211555,42.118195357],[-108.102199591,42.118209092],[-108.102187857,42.118222825],[-108.102176354,42.118236556],[-108.102165081,42.118250284],[-108.102154036,42.118264009],[-108.102143221,42.118277731],[-108.102132632,42.11829145],[-108.102122271,42.118305165],[-108.102112135,42.118318875],[-108.102102226,42.118332581],[-108.10209254,42.118346283],[-108.102083079,42.118359979],[-108.10207384,42.118373669],[-108.102064825,42.118387354],[-108.102056031,42.118401033],[-108.102047457,42.118414705],[-108.102039104,42.11842837],[-108.102030971,42.118442029],[-108.102023056,42.11845568],[-108.10201536,42.118469323],[-108.10200788,42.118482958],[-108.102000617,42.118496584],[-108.10199357,42.118510202],[-108.101986739,42.118523811],[-108.101980121,42.11853741],[-108.101973717,42.118551],[-108.101967526,42.118564579],[-108.101961547,42.118578148],[-108.101955779,42.118591707],[-108.101950223,42.118605254],[-108.101944876,42.11861879],[-108.101939738,42.118632315],[-108.101934809,42.118645827],[-108.101930087,42.118659327],[-108.101925573,42.118672814],[-108.101921264,42.118686288],[-108.101917162,42.118699749],[-108.101913264,42.118713196],[-108.10190957,42.11872663],[-108.101906079,42.118740049],[-108.101902791,42.118753453],[-108.101899705,42.118766842],[-108.10189682,42.118780216],[-108.101894135,42.118793575],[-108.10189165,42.118806917],[-108.101889364,42.118820243],[-108.101887276,42.118833553],[-108.101885386,42.118846846],[-108.101883692,42.118860121],[-108.101882194,42.118873379],[-108.101880892,42.118886619],[-108.101879783,42.11889984],[-108.101878869,42.118913043],[-108.101878148,42.118926227],[-108.101877619,42.118939392],[-108.101877281,42.118952538],[-108.101877135,42.118965663],[-108.101877178,42.118978768],[-108.101877411,42.118991853],[-108.101877832,42.119004917],[-108.101878442,42.11901796],[-108.101879238,42.119030981],[-108.101880221,42.11904398],[-108.101881389,42.119056957],[-108.101882743,42.119069912],[-108.101884281,42.119082844],[-108.101886002,42.119095752],[-108.101887906,42.119108638],[-108.101889991,42.119121499],[-108.101892259,42.119134336],[-108.101894706,42.119147149],[-108.101897334,42.119159937],[-108.10190014,42.1191727],[-108.101903125,42.119185437],[-108.101906287,42.119198149],[-108.101909627,42.119210835],[-108.101913142,42.119223494],[-108.101916833,42.119236126],[-108.101920698,42.119248731],[-108.101924738,42.119261309],[-108.10192895,42.119273859],[-108.101933335,42.119286382],[-108.101937892,42.119298875],[-108.101942619,42.11931134],[-108.101947517,42.119323776],[-108.101952584,42.119336183],[-108.10195782,42.11934856],[-108.101963225,42.119360906],[-108.101968796,42.119373223],[-108.101974534,42.119385509],[-108.101980438,42.119397764],[-108.101986507,42.119409987],[-108.10199274,42.119422179],[-108.101999137,42.119434339],[-108.102005697,42.119446466],[-108.102012418,42.119458561],[-108.102019302,42.119470623],[-108.102026346,42.119482651],[-108.10203355,42.119494646],[-108.102040913,42.119506607],[-108.102048434,42.119518534],[-108.102056114,42.119530426],[-108.10206395,42.119542283],[-108.102071943,42.119554105],[-108.102080091,42.119565891],[-108.102088394,42.119577642],[-108.10209685,42.119589356],[-108.102105461,42.119601034],[-108.102114224,42.119612674],[-108.102123138,42.119624278],[-108.102132204,42.119635844],[-108.10214142,42.119647372],[-108.102150786,42.119658861],[-108.102160301,42.119670313],[-108.102169964,42.119681725],[-108.102179774,42.119693098],[-108.102189732,42.119704432],[-108.102199835,42.119715726],[-108.102210083,42.119726979],[-108.102220476,42.119738192],[-108.102231012,42.119749365],[-108.102241692,42.119760496],[-108.102252514,42.119771586],[-108.102263477,42.119782634],[-108.102274582,42.119793639],[-108.102285826,42.119804603],[-108.10229721,42.119815523],[-108.102308732,42.1198264],[-108.102320392,42.119837234],[-108.10233219,42.119848024],[-108.102344123,42.11985877],[-108.102356193,42.119869472],[-108.102368397,42.119880129],[-108.102380736,42.119890741],[-108.102393208,42.119901307],[-108.102405813,42.119911828],[-108.102418549,42.119922302],[-108.102431418,42.11993273],[-108.102444416,42.119943112],[-108.102457544,42.119953446],[-108.102470802,42.119963733],[-108.102484188,42.119973973],[-108.102497701,42.119984164],[-108.102511341,42.119994307],[-108.102525108,42.120004401],[-108.102538999,42.120014446],[-108.102553016,42.120024442],[-108.102567156,42.120034388],[-108.102581419,42.120044285],[-108.102595805,42.120054131],[-108.102610313,42.120063926],[-108.102624941,42.12007367],[-108.10263969,42.120083363],[-108.102654558,42.120093004],[-108.102669545,42.120102594],[-108.10268465,42.120112131],[-108.102699873,42.120121615],[-108.102715212,42.120131047],[-108.102730666,42.120140425],[-108.102746236,42.12014975],[-108.10276192,42.120159021],[-108.102777718,42.120168237],[-108.102793629,42.120177399],[-108.102809652,42.120186506],[-108.102825786,42.120195558],[-108.102842031,42.120204554],[-108.102858386,42.120213495],[-108.10287485,42.120222379],[-108.102891422,42.120231207],[-108.102908103,42.120239977],[-108.10292489,42.120248691],[-108.102941783,42.120257347],[-108.102958782,42.120265945],[-108.102975886,42.120274485],[-108.102993094,42.120282967],[-108.103010405,42.120291389],[-108.103027819,42.120299753],[-108.103045335,42.120308057],[-108.103062951,42.120316301],[-108.103080669,42.120324485],[-108.103098485,42.120332609],[-108.103116401,42.120340672],[-108.103134415,42.120348673],[-108.103152526,42.120356613],[-108.103170734,42.120364492],[-108.103189038,42.120372308],[-108.103207437,42.120380062],[-108.103225931,42.120387753],[-108.103244518,42.120395381],[-108.103263199,42.120402946],[-108.103281972,42.120410447],[-108.103300836,42.120417884],[-108.103319791,42.120425256],[-108.103338836,42.120432564],[-108.103357971,42.120439807],[-108.103377194,42.120446984],[-108.103396505,42.120454096],[-108.103415903,42.120461141],[-108.103435388,42.120468121],[-108.103454958,42.120475033],[-108.103474613,42.120481879],[-108.103494353,42.120488657],[-108.103514176,42.120495367],[-108.103534081,42.12050201],[-108.103554069,42.120508584],[-108.103574138,42.120515089],[-108.103594287,42.120521526],[-108.103614516,42.120527893],[-108.103634825,42.120534191],[-108.103655211,42.120540418],[-108.103675675,42.120546576],[-108.103696216,42.120552663],[-108.103716833,42.120558678],[-108.103737526,42.120564623],[-108.103758293,42.120570496],[-108.103779134,42.120576297],[-108.103800048,42.120582026],[-108.103821035,42.120587682],[-108.103842093,42.120593265],[-108.103863222,42.120598775],[-108.103884422,42.120604212],[-108.103905691,42.120609574],[-108.103927028,42.120614863],[-108.103948434,42.120620076],[-108.103969907,42.120625215],[-108.103991447,42.120630279],[-108.104013052,42.120635267],[-108.104034723,42.12064018],[-108.104056458,42.120645016],[-108.104078256,42.120649776],[-108.104100117,42.120654459],[-108.104122041,42.120659064],[-108.104144026,42.120663593],[-108.104166071,42.120668043],[-108.104188177,42.120672415],[-108.104210341,42.120676709],[-108.104232564,42.120680924],[-108.104254845,42.12068506],[-108.104277183,42.120689116],[-108.104299577,42.120693093],[-108.104322027,42.12069699],[-108.104344531,42.120700806],[-108.10436709,42.120704541],[-108.104389701,42.120708195],[-108.104412366,42.120711768],[-108.104435082,42.120715259],[-108.104457849,42.120718668],[-108.104480667,42.120721995],[-108.104503534,42.120725239],[-108.10452645,42.1207284],[-108.104549415,42.120731477],[-108.104572426,42.120734471],[-108.104595485,42.12073738],[-108.104618589,42.120740206],[-108.104641739,42.120742946],[-108.104664933,42.120745602],[-108.104688171,42.120748172],[-108.104711452,42.120750657],[-108.104734775,42.120753056],[-108.10475814,42.120755368],[-108.104781545,42.120757594],[-108.104804991,42.120759732],[-108.104828476,42.120761784],[-108.104851999,42.120763748],[-108.104875561,42.120765623],[-108.104899159,42.120767411],[-108.104922794,42.12076911],[-108.104946465,42.12077072],[-108.10497017,42.12077224],[-108.10499391,42.120773671],[-108.105017683,42.120775012],[-108.105041489,42.120776263],[-108.105065327,42.120777424],[-108.105089196,42.120778493],[-108.105113096,42.120779471],[-108.105137025,42.120780358],[-108.105160984,42.120781153],[-108.10518497,42.120781855],[-108.105208985,42.120782465],[-108.105233026,42.120782982],[-108.105257093,42.120783406],[-108.105281186,42.120783736],[-108.105305303,42.120783973],[-108.105329444,42.120784115],[-108.105353608,42.120784163]]},"properties":{"source_yard_track_id":"YARD-FAC-TAY-TERMINAL-legacygeneral","case_status":"PROPOSED_ADDITIONAL_LOCAL_LEAD_NOT_ROUTE_MILES","survey_status":"NOT_SURVEYED"}},{"type":"Feature","id":"LEAD-TAY-WAREHOUSE","geometry":{"type":"LineString","coordinates":[[-108.1,42.12],[-108.099983605,42.120013206],[-108.099967498,42.12002657],[-108.099951677,42.120040089],[-108.099936142,42.120053762],[-108.099920891,42.120067588],[-108.099905924,42.120081566],[-108.099891239,42.120095693],[-108.099876836,42.12010997],[-108.099862713,42.120124394],[-108.09984887,42.120138965],[-108.099835305,42.12015368],[-108.099822017,42.120168539],[-108.099809006,42.12018354],[-108.09979627,42.120198681],[-108.099783808,42.120213962],[-108.09977162,42.120229382],[-108.099759704,42.120244937],[-108.099748059,42.120260629],[-108.099736684,42.120276454],[-108.099725579,42.120292412],[-108.099714742,42.120308502],[-108.099704172,42.120324721],[-108.099693868,42.120341069],[-108.099683829,42.120357545],[-108.099674055,42.120374146],[-108.099664544,42.120390872],[-108.099655294,42.120407721],[-108.099646306,42.120424692],[-108.099637578,42.120441784],[-108.099629108,42.120458995],[-108.099620897,42.120476324],[-108.099612943,42.12049377],[-108.099605245,42.12051133],[-108.099597802,42.120529005],[-108.099590612,42.120546792],[-108.099583676,42.12056469],[-108.099576991,42.120582698],[-108.099570558,42.120600814],[-108.099564374,42.120619038],[-108.099558439,42.120637367],[-108.099552752,42.120655801],[-108.099547312,42.120674338],[-108.099542117,42.120692976],[-108.099537167,42.120711715],[-108.099532461,42.120730553],[-108.099527998,42.120749488],[-108.099523776,42.12076852],[-108.099519796,42.120787647],[-108.099516054,42.120806868],[-108.099512552,42.120826181],[-108.099509287,42.120845584],[-108.099506259,42.120865078],[-108.099503466,42.120884659],[-108.099500908,42.120904328],[-108.099498583,42.120924082],[-108.099496491,42.12094392],[-108.099494631,42.120963842],[-108.099493,42.120983844],[-108.0994916,42.121003927],[-108.099490428,42.121024089],[-108.099489483,42.121044328],[-108.099488765,42.121064643],[-108.099488272,42.121085034],[-108.099488004,42.121105497],[-108.099487959,42.121126033],[-108.099488136,42.121146639],[-108.099488535,42.121167315],[-108.099489153,42.121188059],[-108.099489992,42.121208869],[-108.099491048,42.121229745],[-108.099492322,42.121250685],[-108.099493812,42.121271687],[-108.099495517,42.121292751],[-108.099497436,42.121313875],[-108.099499569,42.121335057],[-108.099501914,42.121356297],[-108.09950447,42.121377593],[-108.099507235,42.121398943],[-108.099510211,42.121420346],[-108.099513394,42.121441802],[-108.099516784,42.121463308],[-108.09952038,42.121484863],[-108.099524182,42.121506466],[-108.099528187,42.121528115],[-108.099532395,42.121549809],[-108.099536805,42.121571548],[-108.099541417,42.121593329],[-108.099546228,42.121615151],[-108.099551238,42.121637012],[-108.099556446,42.121658912],[-108.09956185,42.121680849],[-108.099567451,42.121702822],[-108.099573247,42.121724829],[-108.099579236,42.12174687],[-108.099585418,42.121768942],[-108.099591792,42.121791044],[-108.099598357,42.121813175],[-108.099605111,42.121835334],[-108.099612054,42.121857519],[-108.099619185,42.121879729],[-108.099626503,42.121901963],[-108.099634006,42.121924219],[-108.099641694,42.121946496],[-108.099649565,42.121968792],[-108.099657619,42.121991107],[-108.099665855,42.122013438],[-108.099674271,42.122035785],[-108.099682867,42.122058147],[-108.099691641,42.122080521],[-108.099700593,42.122102906],[-108.099709721,42.122125302],[-108.099719025,42.122147706],[-108.099728503,42.122170118],[-108.099738155,42.122192536],[-108.099747979,42.122214958],[-108.099757974,42.122237384],[-108.09976814,42.122259812],[-108.099778475,42.122282241],[-108.099788979,42.122304669],[-108.09979965,42.122327095],[-108.099810487,42.122349518],[-108.09982149,42.122371936],[-108.099832656,42.122394348],[-108.099843986,42.122416753],[-108.099855479,42.122439149],[-108.099867132,42.122461534],[-108.099878946,42.122483909],[-108.099890918,42.122506271],[-108.099903049,42.122528618],[-108.099915337,42.12255095],[-108.099927782,42.122573265],[-108.099940381,42.122595562],[-108.099953134,42.12261784],[-108.099966041,42.122640096],[-108.099979099,42.122662331],[-108.099992309,42.122684542],[-108.100005668,42.122706728],[-108.100019176,42.122728888],[-108.100032833,42.12275102],[-108.100046636,42.122773123],[-108.100060585,42.122795196],[-108.10007468,42.122817237],[-108.100088918,42.122839246],[-108.100103299,42.12286122],[-108.100117821,42.122883158],[-108.100132485,42.122905059],[-108.100147288,42.122926922],[-108.100162231,42.122948746],[-108.100177311,42.122970528],[-108.100192527,42.122992268],[-108.10020788,42.123013964],[-108.100223367,42.123035614],[-108.100238988,42.123057219],[-108.100254741,42.123078776],[-108.100270626,42.123100283],[-108.100286642,42.12312174],[-108.100302788,42.123143145],[-108.100319062,42.123164497],[-108.100335463,42.123185795],[-108.100351991,42.123207036],[-108.100368645,42.123228221],[-108.100385423,42.123249346],[-108.100402325,42.123270412],[-108.100419349,42.123291417],[-108.100436495,42.123312359],[-108.100453761,42.123333237],[-108.100471147,42.123354049],[-108.100488651,42.123374795],[-108.100506272,42.123395474],[-108.10052401,42.123416082],[-108.100541863,42.12343662],[-108.10055983,42.123457086],[-108.100577911,42.123477479],[-108.100596104,42.123497796],[-108.100614408,42.123518038],[-108.100632823,42.123538202],[-108.100651346,42.123558288],[-108.100669978,42.123578293],[-108.100688717,42.123598217],[-108.100707563,42.123618058],[-108.100726513,42.123637815],[-108.100745568,42.123657487],[-108.100764726,42.123677071],[-108.100783985,42.123696567],[-108.100803346,42.123715974],[-108.100822807,42.12373529],[-108.100842367,42.123754514],[-108.100862025,42.123773644],[-108.10088178,42.123792679],[-108.100901631,42.123811617],[-108.100921577,42.123830459],[-108.100941617,42.123849201],[-108.10096175,42.123867842],[-108.100981975,42.123886383],[-108.101002291,42.12390482],[-108.101022696,42.123923152],[-108.10104319,42.123941379],[-108.101063773,42.123959499],[-108.101084442,42.123977511],[-108.101105196,42.123995413],[-108.101126036,42.124013203],[-108.101146959,42.124030881],[-108.101167965,42.124048446],[-108.101189053,42.124065895],[-108.101210221,42.124083228],[-108.10123147,42.124100443],[-108.101252796,42.124117538],[-108.101274201,42.124134513],[-108.101295682,42.124151367],[-108.101317238,42.124168097],[-108.10133887,42.124184702],[-108.101360574,42.124201182],[-108.101382352,42.124217534],[-108.1014042,42.124233758],[-108.10142612,42.124249851],[-108.101448109,42.124265814],[-108.101470166,42.124281643],[-108.101492291,42.124297339],[-108.101514482,42.124312899],[-108.101536738,42.124328323],[-108.101559059,42.124343608],[-108.101581443,42.124358755],[-108.10160389,42.12437376],[-108.101626398,42.124388623],[-108.101648966,42.124403343],[-108.101671594,42.124417918],[-108.10169428,42.124432347],[-108.101717023,42.124446629],[-108.101739822,42.124460761],[-108.101762676,42.124474744],[-108.101785585,42.124488575],[-108.101808547,42.124502253],[-108.101831561,42.124515777],[-108.101854626,42.124529145],[-108.101877741,42.124542357],[-108.101900906,42.12455541],[-108.101924118,42.124568303],[-108.101947378,42.124581036],[-108.101970683,42.124593606],[-108.101994034,42.124606013],[-108.102017428,42.124618254],[-108.102040866,42.12463033],[-108.102064345,42.124642237],[-108.102087865,42.124653976],[-108.102111426,42.124665544],[-108.102135025,42.124676941],[-108.102158662,42.124688164],[-108.102182336,42.124699213],[-108.102206046,42.124710086],[-108.10222979,42.124720783],[-108.102253569,42.1247313],[-108.10227738,42.124741638],[-108.102301223,42.124751795],[-108.102325096,42.124761769],[-108.102349,42.124771559],[-108.102372932,42.124781165],[-108.102396892,42.124790583],[-108.102420878,42.124799814],[-108.10244489,42.124808855],[-108.102468927,42.124817706],[-108.102492987,42.124826365],[-108.10251707,42.124834831],[-108.102541175,42.124843102],[-108.1025653,42.124851177],[-108.102589444,42.124859055],[-108.102613607,42.124866734],[-108.102637788,42.124874213],[-108.102661985,42.124881491],[-108.102686197,42.124888566],[-108.102710424,42.124895437],[-108.102734665,42.124902102],[-108.102758917,42.124908561],[-108.102783181,42.124914812],[-108.102807456,42.124920853],[-108.10283174,42.124926684],[-108.102856032,42.124932302],[-108.102880331,42.124937707],[-108.102904637,42.124942897],[-108.102928947,42.124947871],[-108.102953263,42.124952627],[-108.102977581,42.124957165],[-108.103001901,42.124961482],[-108.103026223,42.124965578],[-108.103050545,42.124969451],[-108.103074866,42.124973099],[-108.103099185,42.124976522],[-108.103123501,42.124979718],[-108.103147814,42.124982686],[-108.103172121,42.124985424],[-108.103196422,42.124987931],[-108.103220717,42.124990205],[-108.103245003,42.124992246],[-108.103269281,42.124994052],[-108.103293548,42.124995622],[-108.103317804,42.124996954],[-108.103342048,42.124998047],[-108.10336628,42.124998899],[-108.103390497,42.12499951],[-108.103414698,42.124999877],[-108.103438884,42.125]]},"properties":{"source_yard_track_id":"YARD-FAC-TAY-WAREHOUSE-warehouse","case_status":"PROPOSED_ADDITIONAL_LOCAL_LEAD_NOT_ROUTE_MILES","survey_status":"NOT_SURVEYED"}},{"type":"Feature","id":"LADDER-TAY-TERMINAL-legacyteam","geometry":{"type":"LineString","coordinates":[[-108.104631334,42.120741715],[-108.104633722,42.120742],[-108.10463611,42.120742292],[-108.104638498,42.12074259],[-108.104640886,42.120742893],[-108.104643275,42.120743203],[-108.104645663,42.12074352],[-108.104648052,42.120743841],[-108.104650441,42.120744169],[-108.104652831,42.120744503],[-108.10465522,42.120744843],[-108.10465761,42.120745188],[-108.10466,42.120745539],[-108.10466239,42.120745896],[-108.10466478,42.120746259],[-108.104667171,42.120746627],[-108.104669561,42.120747],[-108.104671952,42.120747379],[-108.104674343,42.120747764],[-108.104676734,42.120748154],[-108.104679126,42.120748549],[-108.104681517,42.12074895],[-108.104683909,42.120749355],[-108.104686301,42.120749766],[-108.104688693,42.120750182],[-108.104691085,42.120750604],[-108.104693478,42.12075103],[-108.104695871,42.120751461],[-108.104698263,42.120751898],[-108.104700657,42.120752339],[-108.10470305,42.120752785],[-108.104705443,42.120753236],[-108.104707837,42.120753692],[-108.10471023,42.120754152],[-108.104712624,42.120754617],[-108.104715019,42.120755087],[-108.104717413,42.120755561],[-108.104719807,42.12075604],[-108.104722202,42.120756523],[-108.104724597,42.120757011],[-108.104726992,42.120757503],[-108.104729387,42.120758],[-108.104731782,42.1207585],[-108.104734178,42.120759005],[-108.104736573,42.120759515],[-108.104738969,42.120760028],[-108.104741365,42.120760545],[-108.104743761,42.120761067],[-108.104746158,42.120761592],[-108.104748554,42.120762122],[-108.104750951,42.120762655],[-108.104753348,42.120763192],[-108.104755745,42.120763734],[-108.104758142,42.120764278],[-108.104760539,42.120764827],[-108.104762937,42.120765379],[-108.104765334,42.120765935],[-108.104767732,42.120766494],[-108.10477013,42.120767057],[-108.104772528,42.120767623],[-108.104774927,42.120768193],[-108.104777325,42.120768766],[-108.104779724,42.120769343],[-108.104782123,42.120769923],[-108.104784522,42.120770506],[-108.104786921,42.120771092],[-108.10478932,42.120771681],[-108.104791719,42.120772274],[-108.104794119,42.120772869],[-108.104796519,42.120773468],[-108.104798919,42.120774069],[-108.104801319,42.120774674],[-108.104803719,42.120775281],[-108.104806119,42.120775891],[-108.10480852,42.120776504],[-108.10481092,42.120777119],[-108.104813321,42.120777737],[-108.104815722,42.120778358],[-108.104818123,42.120778981],[-108.104820524,42.120779607],[-108.104822926,42.120780235],[-108.104825327,42.120780866],[-108.104827729,42.120781499],[-108.104830131,42.120782134],[-108.104832532,42.120782772],[-108.104834935,42.120783412],[-108.104837337,42.120784054],[-108.104839739,42.120784698],[-108.104842142,42.120785345],[-108.104844544,42.120785993],[-108.104846947,42.120786643],[-108.10484935,42.120787295],[-108.104851753,42.12078795],[-108.104854156,42.120788606],[-108.10485656,42.120789263],[-108.104858963,42.120789923],[-108.104861367,42.120790584],[-108.104863771,42.120791247],[-108.104866175,42.120791911],[-108.104868579,42.120792577],[-108.104870983,42.120793245],[-108.104873387,42.120793914],[-108.104875792,42.120794584],[-108.104878196,42.120795256],[-108.104880601,42.120795929],[-108.104883006,42.120796604],[-108.104885411,42.120797279],[-108.104887816,42.120797956],[-108.104890221,42.120798634],[-108.104892626,42.120799313],[-108.104895032,42.120799993],[-108.104897437,42.120800674],[-108.104899843,42.120801356],[-108.104902249,42.120802038],[-108.104904655,42.120802722],[-108.104907061,42.120803406],[-108.104909467,42.120804092],[-108.104911873,42.120804777],[-108.10491428,42.120805464],[-108.104916686,42.120806151],[-108.104919093,42.120806839],[-108.1049215,42.120807527],[-108.104923907,42.120808215],[-108.104926314,42.120808904],[-108.104928721,42.120809593],[-108.104931128,42.120810283],[-108.104933536,42.120810973],[-108.104935943,42.120811663],[-108.104938351,42.120812353],[-108.104940759,42.120813044],[-108.104943167,42.120813734],[-108.104945575,42.120814425],[-108.104947983,42.120815115],[-108.104950391,42.120815805],[-108.104952799,42.120816496],[-108.104955208,42.120817186],[-108.104957616,42.120817876],[-108.104960025,42.120818565],[-108.104962434,42.120819254],[-108.104964842,42.120819943],[-108.104967251,42.120820632],[-108.104969661,42.12082132],[-108.10497207,42.120822007],[-108.104974479,42.120822694],[-108.104976888,42.120823381],[-108.104979298,42.120824066],[-108.104981707,42.120824751],[-108.104984117,42.120825435],[-108.104986527,42.120826119],[-108.104988937,42.120826801],[-108.104991347,42.120827483],[-108.104993757,42.120828164],[-108.104996167,42.120828844],[-108.104998577,42.120829522],[-108.105000988,42.1208302],[-108.105003398,42.120830877],[-108.105005809,42.120831552],[-108.10500822,42.120832226],[-108.10501063,42.120832899],[-108.105013041,42.12083357],[-108.105015452,42.120834241],[-108.105017863,42.120834909],[-108.105020274,42.120835577],[-108.105022686,42.120836242],[-108.105025097,42.120836906],[-108.105027508,42.120837569],[-108.10502992,42.12083823],[-108.105032332,42.120838889],[-108.105034743,42.120839547],[-108.105037155,42.120840202],[-108.105039567,42.120840856],[-108.105041979,42.120841508],[-108.105044391,42.120842158],[-108.105046803,42.120842806],[-108.105049215,42.120843451],[-108.105051628,42.120844095],[-108.10505404,42.120844737],[-108.105056452,42.120845376],[-108.105058865,42.120846014],[-108.105061278,42.120846648],[-108.10506369,42.120847281],[-108.105066103,42.120847911],[-108.105068516,42.120848539],[-108.105070929,42.120849164],[-108.105073342,42.120849787],[-108.105075755,42.120850407],[-108.105078168,42.120851025],[-108.105080582,42.12085164],[-108.105082995,42.120852252],[-108.105085408,42.120852862],[-108.105087822,42.120853468],[-108.105090235,42.120854072],[-108.105092649,42.120854673],[-108.105095063,42.120855271],[-108.105097476,42.120855866],[-108.10509989,42.120856457],[-108.105102304,42.120857046],[-108.105104718,42.120857632],[-108.105107132,42.120858214],[-108.105109546,42.120858793],[-108.10511196,42.120859369],[-108.105114375,42.120859942],[-108.105116789,42.120860511],[-108.105119203,42.120861076],[-108.105121618,42.120861639],[-108.105124032,42.120862197],[-108.105126447,42.120862752],[-108.105128862,42.120863304],[-108.105131276,42.120863852],[-108.105133691,42.120864396],[-108.105136106,42.120864936],[-108.105138521,42.120865472],[-108.105140936,42.120866005],[-108.105143351,42.120866534],[-108.105145766,42.120867058],[-108.105148181,42.120867579],[-108.105150596,42.120868096],[-108.105153011,42.120868608],[-108.105155426,42.120869117],[-108.105157842,42.120869621],[-108.105160257,42.120870121],[-108.105162673,42.120870616],[-108.105165088,42.120871108],[-108.105167504,42.120871594],[-108.105169919,42.120872077],[-108.105172335,42.120872555],[-108.105174751,42.120873028],[-108.105177166,42.120873497],[-108.105179582,42.120873961],[-108.105181998,42.120874421],[-108.105184414,42.120874875],[-108.10518683,42.120875325],[-108.105189246,42.12087577],[-108.105191662,42.120876211],[-108.105194078,42.120876646],[-108.105196494,42.120877076],[-108.10519891,42.120877502],[-108.105201326,42.120877922],[-108.105203743,42.120878337],[-108.105206159,42.120878747],[-108.105208575,42.120879152],[-108.105210992,42.120879551],[-108.105213408,42.120879946],[-108.105215824,42.120880334],[-108.105218241,42.120880718],[-108.105220658,42.120881096],[-108.105223074,42.120881468],[-108.105225491,42.120881835],[-108.105227907,42.120882196],[-108.105230324,42.120882552],[-108.105232741,42.120882902],[-108.105235157,42.120883246],[-108.105237574,42.120883585],[-108.105239991,42.120883917],[-108.105242408,42.120884244],[-108.105244825,42.120884565],[-108.105247242,42.12088488],[-108.105249658,42.120885189],[-108.105252075,42.120885491],[-108.105254492,42.120885788],[-108.105256909,42.120886078],[-108.105259326,42.120886363],[-108.105261744,42.12088664],[-108.105264161,42.120886912],[-108.105266578,42.120887177],[-108.105268995,42.120887436],[-108.105271412,42.120887688],[-108.105273829,42.120887934],[-108.105276246,42.120888174],[-108.105278664,42.120888406],[-108.105281081,42.120888632],[-108.105283498,42.120888852],[-108.105285915,42.120889064],[-108.105288333,42.12088927],[-108.10529075,42.120889469],[-108.105293167,42.120889661],[-108.105295585,42.120889846],[-108.105298002,42.120890024],[-108.10530042,42.120890195],[-108.105302837,42.120890359],[-108.105305254,42.120890516],[-108.105307672,42.120890666],[-108.105310089,42.120890808],[-108.105312507,42.120890944],[-108.105314924,42.120891071],[-108.105317342,42.120891192],[-108.105319759,42.120891305],[-108.105322177,42.12089141],[-108.105324594,42.120891509],[-108.105327012,42.120891599],[-108.105329429,42.120891682],[-108.105331847,42.120891757],[-108.105334264,42.120891825],[-108.105336682,42.120891884],[-108.105339099,42.120891936],[-108.105341517,42.12089198],[-108.105343935,42.120892017],[-108.105346352,42.120892045],[-108.10534877,42.120892065],[-108.105351187,42.120892077],[-108.105353605,42.120892081]]},"properties":{"source_yard_track_id":"YARD-FAC-TAY-TERMINAL-legacyteam","case_status":"PROPOSED_INTERNAL_YARD_LADDER_NOT_ROUTE_MILES","survey_status":"NOT_SURVEYED"}},{"type":"Feature","id":"LADDER-TAY-TERMINAL-phase1generalA","geometry":{"type":"LineString","coordinates":[[-108.104393678,42.120708822],[-108.104397221,42.120709392],[-108.104400756,42.120709974],[-108.104404284,42.120710567],[-108.104407804,42.120711172],[-108.104411318,42.120711789],[-108.104414824,42.120712417],[-108.104418323,42.120713056],[-108.104421814,42.120713706],[-108.104425299,42.120714368],[-108.104428777,42.120715041],[-108.104432248,42.120715725],[-108.104435712,42.120716419],[-108.104439169,42.120717125],[-108.104442619,42.120717841],[-108.104446062,42.120718568],[-108.104449499,42.120719305],[-108.104452929,42.120720052],[-108.104456353,42.12072081],[-108.10445977,42.120721579],[-108.104463181,42.120722357],[-108.104466585,42.120723145],[-108.104469983,42.120723944],[-108.104473374,42.120724752],[-108.104476759,42.12072557],[-108.104480138,42.120726398],[-108.104483511,42.120727235],[-108.104486877,42.120728082],[-108.104490238,42.120728938],[-108.104493592,42.120729804],[-108.104496941,42.120730679],[-108.104500284,42.120731563],[-108.10450362,42.120732456],[-108.104506951,42.120733358],[-108.104510276,42.120734268],[-108.104513596,42.120735188],[-108.10451691,42.120736116],[-108.104520218,42.120737053],[-108.104523521,42.120737999],[-108.104526818,42.120738952],[-108.104530109,42.120739914],[-108.104533396,42.120740885],[-108.104536677,42.120741863],[-108.104539952,42.120742849],[-108.104543222,42.120743844],[-108.104546488,42.120744846],[-108.104549748,42.120745856],[-108.104553003,42.120746874],[-108.104556253,42.120747899],[-108.104559497,42.120748932],[-108.104562737,42.120749972],[-108.104565972,42.120751019],[-108.104569203,42.120752074],[-108.104572428,42.120753136],[-108.104575649,42.120754204],[-108.104578865,42.12075528],[-108.104582076,42.120756363],[-108.104585283,42.120757452],[-108.104588485,42.120758548],[-108.104591683,42.12075965],[-108.104594877,42.120760759],[-108.104598066,42.120761875],[-108.10460125,42.120762997],[-108.104604431,42.120764124],[-108.104607607,42.120765258],[-108.104610779,42.120766398],[-108.104613947,42.120767544],[-108.104617111,42.120768696],[-108.104620271,42.120769854],[-108.104623427,42.120771017],[-108.104626579,42.120772185],[-108.104629727,42.12077336],[-108.104632871,42.120774539],[-108.104636012,42.120775724],[-108.104639148,42.120776914],[-108.104642282,42.120778109],[-108.104645411,42.120779309],[-108.104648537,42.120780514],[-108.10465166,42.120781724],[-108.104654779,42.120782939],[-108.104657895,42.120784158],[-108.104661007,42.120785382],[-108.104664116,42.12078661],[-108.104667222,42.120787843],[-108.104670325,42.120789079],[-108.104673424,42.120790321],[-108.104676521,42.120791566],[-108.104679614,42.120792815],[-108.104682705,42.120794068],[-108.104685792,42.120795325],[-108.104688877,42.120796585],[-108.104691959,42.120797849],[-108.104695038,42.120799117],[-108.104698114,42.120800388],[-108.104701188,42.120801663],[-108.104704259,42.120802941],[-108.104707327,42.120804222],[-108.104710393,42.120805506],[-108.104713457,42.120806793],[-108.104716518,42.120808083],[-108.104719576,42.120809375],[-108.104722633,42.120810671],[-108.104725687,42.120811969],[-108.104728739,42.120813269],[-108.104731789,42.120814572],[-108.104734836,42.120815878],[-108.104737882,42.120817185],[-108.104740925,42.120818495],[-108.104743967,42.120819807],[-108.104747007,42.120821121],[-108.104750045,42.120822437],[-108.104753081,42.120823754],[-108.104756115,42.120825073],[-108.104759148,42.120826394],[-108.104762179,42.120827716],[-108.104765208,42.12082904],[-108.104768236,42.120830365],[-108.104771263,42.120831692],[-108.104774288,42.120833019],[-108.104777311,42.120834348],[-108.104780334,42.120835677],[-108.104783355,42.120837008],[-108.104786374,42.120838339],[-108.104789393,42.120839671],[-108.104792411,42.120841003],[-108.104795427,42.120842336],[-108.104798442,42.120843669],[-108.104801457,42.120845003],[-108.10480447,42.120846337],[-108.104807483,42.120847671],[-108.104810495,42.120849005],[-108.104813506,42.120850339],[-108.104816516,42.120851673],[-108.104819526,42.120853007],[-108.104822535,42.12085434],[-108.104825543,42.120855673],[-108.104828551,42.120857006],[-108.104831559,42.120858338],[-108.104834566,42.120859669],[-108.104837573,42.120860999],[-108.104840579,42.120862329],[-108.104843585,42.120863657],[-108.104846591,42.120864985],[-108.104849597,42.120866311],[-108.104852603,42.120867637],[-108.104855609,42.12086896],[-108.104858615,42.120870283],[-108.10486162,42.120871604],[-108.104864626,42.120872923],[-108.104867632,42.120874241],[-108.104870639,42.120875556],[-108.104873645,42.12087687],[-108.104876652,42.120878182],[-108.10487966,42.120879492],[-108.104882667,42.1208808],[-108.104885675,42.120882105],[-108.104888684,42.120883409],[-108.104891693,42.120884709],[-108.104894703,42.120886008],[-108.104897714,42.120887303],[-108.104900725,42.120888596],[-108.104903737,42.120889886],[-108.10490675,42.120891173],[-108.104909764,42.120892457],[-108.104912779,42.120893739],[-108.104915794,42.120895017],[-108.104918811,42.120896291],[-108.104921829,42.120897563],[-108.104924848,42.120898831],[-108.104927868,42.120900095],[-108.10493089,42.120901356],[-108.104933912,42.120902613],[-108.104936936,42.120903866],[-108.104939962,42.120905115],[-108.104942989,42.120906361],[-108.104946017,42.120907602],[-108.104949047,42.120908839],[-108.104952079,42.120910072],[-108.104955112,42.120911301],[-108.104958147,42.120912525],[-108.104961184,42.120913744],[-108.104964223,42.120914959],[-108.104967263,42.120916169],[-108.104970305,42.120917374],[-108.10497335,42.120918575],[-108.104976396,42.12091977],[-108.104979444,42.12092096],[-108.104982495,42.120922146],[-108.104985547,42.120923325],[-108.104988602,42.1209245],[-108.10499166,42.120925669],[-108.104994719,42.120926832],[-108.104997781,42.12092799],[-108.105000845,42.120929142],[-108.105003912,42.120930288],[-108.105006982,42.120931429],[-108.105010053,42.120932563],[-108.105013128,42.120933691],[-108.105016205,42.120934813],[-108.105019285,42.120935929],[-108.105022368,42.120937038],[-108.105025454,42.120938141],[-108.105028542,42.120939238],[-108.105031634,42.120940327],[-108.105034728,42.12094141],[-108.105037826,42.120942486],[-108.105040926,42.120943556],[-108.10504403,42.120944618],[-108.105047137,42.120945673],[-108.105050247,42.120946721],[-108.105053361,42.120947761],[-108.105056478,42.120948794],[-108.105059598,42.12094982],[-108.105062722,42.120950838],[-108.105065849,42.120951848],[-108.10506898,42.120952851],[-108.105072115,42.120953846],[-108.105075253,42.120954833],[-108.105078395,42.120955812],[-108.10508154,42.120956782],[-108.10508469,42.120957745],[-108.105087843,42.120958699],[-108.105091001,42.120959645],[-108.105094162,42.120960582],[-108.105097327,42.120961511],[-108.105100496,42.120962431],[-108.10510367,42.120963342],[-108.105106848,42.120964245],[-108.10511003,42.120965138],[-108.105113216,42.120966023],[-108.105116406,42.120966898],[-108.105119601,42.120967764],[-108.105122801,42.120968621],[-108.105126004,42.120969468],[-108.105129213,42.120970306],[-108.105132426,42.120971134],[-108.105135644,42.120971953],[-108.105138866,42.120972762],[-108.105142093,42.120973561],[-108.105145325,42.12097435],[-108.105148562,42.120975129],[-108.105151803,42.120975898],[-108.10515505,42.120976656],[-108.105158302,42.120977404],[-108.105161558,42.120978142],[-108.10516482,42.120978869],[-108.105168087,42.120979586],[-108.105171359,42.120980292],[-108.105174637,42.120980987],[-108.10517792,42.120981672],[-108.105181208,42.120982345],[-108.105184501,42.120983007],[-108.1051878,42.120983659],[-108.105191105,42.120984299],[-108.105194415,42.120984927],[-108.105197731,42.120985544],[-108.105201052,42.12098615],[-108.10520438,42.120986744],[-108.105207712,42.120987326],[-108.105211051,42.120987897],[-108.105214396,42.120988456],[-108.105217747,42.120989002],[-108.105221103,42.120989537],[-108.105224466,42.120990059],[-108.105227835,42.120990569],[-108.105231209,42.120991067],[-108.105234591,42.120991553],[-108.105237978,42.120992026],[-108.105241372,42.120992486],[-108.105244771,42.120992933],[-108.105248178,42.120993368],[-108.105251591,42.12099379],[-108.10525501,42.120994199],[-108.105258436,42.120994594],[-108.105261868,42.120994977],[-108.105265308,42.120995346],[-108.105268753,42.120995702],[-108.105272206,42.120996045],[-108.105275665,42.120996374],[-108.105279132,42.120996689],[-108.105282605,42.120996991],[-108.105286085,42.120997279],[-108.105289572,42.120997553],[-108.105293067,42.120997812],[-108.105296568,42.120998058],[-108.105300077,42.12099829],[-108.105303592,42.120998507],[-108.105307115,42.12099871],[-108.105310646,42.120998899],[-108.105314184,42.120999073],[-108.105317729,42.120999232],[-108.105321282,42.120999377],[-108.105324842,42.120999506],[-108.10532841,42.120999621],[-108.105331985,42.120999721],[-108.105335568,42.120999806],[-108.105339159,42.120999875],[-108.105342758,42.12099993],[-108.105346364,42.120999969],[-108.105349979,42.120999992],[-108.105353601,42.121]]},"properties":{"source_yard_track_id":"YARD-FAC-TAY-TERMINAL-phase1generalA","case_status":"PROPOSED_INTERNAL_YARD_LADDER_NOT_ROUTE_MILES","survey_status":"NOT_SURVEYED"}},{"type":"Feature","id":"LADDER-TAY-TERMINAL-phase1generalB","geometry":{"type":"LineString","coordinates":[[-108.104158712,42.120666557],[-108.104162217,42.120667272],[-108.104165731,42.120668007],[-108.104169253,42.120668761],[-108.104172784,42.120669535],[-108.104176324,42.120670329],[-108.104179872,42.120671141],[-108.104183429,42.120671973],[-108.104186994,42.120672824],[-108.104190567,42.120673693],[-108.104194149,42.120674582],[-108.104197739,42.120675489],[-108.104201337,42.120676414],[-108.104204944,42.120677357],[-108.104208558,42.120678319],[-108.10421218,42.120679298],[-108.104215811,42.120680296],[-108.104219449,42.120681311],[-108.104223095,42.120682343],[-108.104226749,42.120683393],[-108.104230411,42.12068446],[-108.10423408,42.120685544],[-108.104237757,42.120686645],[-108.104241442,42.120687762],[-108.104245134,42.120688896],[-108.104248834,42.120690047],[-108.104252541,42.120691214],[-108.104256255,42.120692397],[-108.104259977,42.120693596],[-108.104263706,42.120694811],[-108.104267442,42.120696042],[-108.104271185,42.120697288],[-108.104274935,42.12069855],[-108.104278693,42.120699827],[-108.104282457,42.120701119],[-108.104286228,42.120702426],[-108.104290006,42.120703747],[-108.104293791,42.120705084],[-108.104297583,42.120706435],[-108.104301381,42.1207078],[-108.104305186,42.120709179],[-108.104308997,42.120710573],[-108.104312815,42.12071198],[-108.10431664,42.120713401],[-108.104320471,42.120714836],[-108.104324308,42.120716284],[-108.104328151,42.120717746],[-108.104332001,42.120719221],[-108.104335857,42.120720709],[-108.104339719,42.120722209],[-108.104343587,42.120723723],[-108.104347461,42.120725248],[-108.104351341,42.120726787],[-108.104355227,42.120728337],[-108.104359119,42.1207299],[-108.104363017,42.120731475],[-108.10436692,42.120733061],[-108.104370829,42.12073466],[-108.104374743,42.120736269],[-108.104378664,42.12073789],[-108.104382589,42.120739523],[-108.10438652,42.120741166],[-108.104390457,42.12074282],[-108.104394399,42.120744485],[-108.104398346,42.120746161],[-108.104402298,42.120747847],[-108.104406256,42.120749544],[-108.104410219,42.120751251],[-108.104414187,42.120752967],[-108.104418159,42.120754694],[-108.104422137,42.12075643],[-108.10442612,42.120758176],[-108.104430107,42.120759932],[-108.104434099,42.120761696],[-108.104438096,42.12076347],[-108.104442098,42.120765253],[-108.104446104,42.120767045],[-108.104450115,42.120768845],[-108.10445413,42.120770654],[-108.10445815,42.120772471],[-108.104462174,42.120774296],[-108.104466202,42.12077613],[-108.104470235,42.120777972],[-108.104474272,42.120779821],[-108.104478313,42.120781678],[-108.104482359,42.120783542],[-108.104486408,42.120785414],[-108.104490461,42.120787293],[-108.104494518,42.120789179],[-108.104498579,42.120791072],[-108.104502644,42.120792972],[-108.104506713,42.120794878],[-108.104510786,42.120796791],[-108.104514862,42.12079871],[-108.104518941,42.120800635],[-108.104523025,42.120802566],[-108.104527111,42.120804503],[-108.104531202,42.120806446],[-108.104535295,42.120808395],[-108.104539392,42.120810348],[-108.104543492,42.120812307],[-108.104547596,42.120814271],[-108.104551702,42.120816241],[-108.104555812,42.120818214],[-108.104559925,42.120820193],[-108.10456404,42.120822176],[-108.104568159,42.120824163],[-108.104572281,42.120826155],[-108.104576405,42.120828151],[-108.104580532,42.12083015],[-108.104584662,42.120832154],[-108.104588794,42.120834161],[-108.104592929,42.120836171],[-108.104597067,42.120838185],[-108.104601207,42.120840202],[-108.10460535,42.120842222],[-108.104609495,42.120844245],[-108.104613642,42.12084627],[-108.104617791,42.120848299],[-108.104621943,42.120850329],[-108.104626097,42.120852362],[-108.104630253,42.120854397],[-108.104634411,42.120856434],[-108.104638571,42.120858473],[-108.104642733,42.120860513],[-108.104646897,42.120862555],[-108.104651062,42.120864599],[-108.10465523,42.120866643],[-108.104659399,42.120868689],[-108.10466357,42.120870735],[-108.104667742,42.120872783],[-108.104671916,42.120874831],[-108.104676091,42.120876879],[-108.104680268,42.120878928],[-108.104684446,42.120880977],[-108.104688626,42.120883026],[-108.104692806,42.120885075],[-108.104696988,42.120887124],[-108.104701171,42.120889172],[-108.104705356,42.12089122],[-108.104709541,42.120893267],[-108.104713727,42.120895313],[-108.104717914,42.120897358],[-108.104722102,42.120899402],[-108.104726291,42.120901445],[-108.10473048,42.120903486],[-108.104734671,42.120905526],[-108.104738861,42.120907564],[-108.104743053,42.1209096],[-108.104747245,42.120911634],[-108.104751437,42.120913666],[-108.10475563,42.120915695],[-108.104759823,42.120917722],[-108.104764017,42.120919746],[-108.104768211,42.120921768],[-108.104772405,42.120923786],[-108.104776599,42.120925801],[-108.104780793,42.120927814],[-108.104784987,42.120929822],[-108.104789182,42.120931828],[-108.104793376,42.120933829],[-108.10479757,42.120935827],[-108.104801764,42.120937821],[-108.104805957,42.12093981],[-108.10481015,42.120941795],[-108.104814343,42.120943776],[-108.104818536,42.120945752],[-108.104822728,42.120947724],[-108.104826919,42.120949691],[-108.10483111,42.120951652],[-108.1048353,42.120953609],[-108.10483949,42.12095556],[-108.104843679,42.120957505],[-108.104847867,42.120959445],[-108.104852054,42.120961379],[-108.10485624,42.120963308],[-108.104860425,42.12096523],[-108.104864609,42.120967146],[-108.104868792,42.120969055],[-108.104872974,42.120970958],[-108.104877155,42.120972855],[-108.104881334,42.120974744],[-108.104885513,42.120976627],[-108.104889689,42.120978502],[-108.104893865,42.120980371],[-108.104898039,42.120982231],[-108.104902211,42.120984085],[-108.104906382,42.12098593],[-108.104910551,42.120987768],[-108.104914718,42.120989597],[-108.104918884,42.120991419],[-108.104923048,42.120993232],[-108.10492721,42.120995036],[-108.10493137,42.120996832],[-108.104935528,42.12099862],[-108.104939683,42.121000398],[-108.104943837,42.121002167],[-108.104947989,42.121003927],[-108.104952139,42.121005678],[-108.104956286,42.121007419],[-108.104960431,42.121009151],[-108.104964573,42.121010873],[-108.104968713,42.121012584],[-108.104972851,42.121014286],[-108.104976986,42.121015978],[-108.104981119,42.121017659],[-108.104985248,42.121019329],[-108.104989376,42.121020989],[-108.1049935,42.121022638],[-108.104997621,42.121024276],[-108.10500174,42.121025902],[-108.105005856,42.121027518],[-108.105009968,42.121029122],[-108.105014078,42.121030714],[-108.105018185,42.121032295],[-108.105022288,42.121033864],[-108.105026388,42.12103542],[-108.105030485,42.121036965],[-108.105034579,42.121038497],[-108.105038669,42.121040017],[-108.105042756,42.121041524],[-108.105046839,42.121043018],[-108.105050919,42.121044499],[-108.105054995,42.121045968],[-108.105059067,42.121047423],[-108.105063136,42.121048864],[-108.105067201,42.121050292],[-108.105071262,42.121051707],[-108.105075319,42.121053107],[-108.105079372,42.121054494],[-108.105083422,42.121055866],[-108.105087467,42.121057224],[-108.105091508,42.121058568],[-108.105095545,42.121059897],[-108.105099578,42.121061212],[-108.105103606,42.121062511],[-108.10510763,42.121063796],[-108.10511165,42.121065065],[-108.105115665,42.121066319],[-108.105119676,42.121067558],[-108.105123682,42.12106878],[-108.105127684,42.121069988],[-108.105131681,42.121071179],[-108.105135673,42.121072354],[-108.10513966,42.121073513],[-108.105143643,42.121074655],[-108.105147621,42.121075781],[-108.105151593,42.121076891],[-108.105155561,42.121077983],[-108.105159524,42.121079059],[-108.105163481,42.121080117],[-108.105167434,42.121081158],[-108.105171381,42.121082182],[-108.105175323,42.121083188],[-108.105179259,42.121084177],[-108.10518319,42.121085147],[-108.105187116,42.1210861],[-108.105191036,42.121087035],[-108.105194951,42.121087951],[-108.10519886,42.121088848],[-108.105202763,42.121089727],[-108.105206661,42.121090588],[-108.105210552,42.121091429],[-108.105214438,42.121092251],[-108.105218318,42.121093055],[-108.105222192,42.121093838],[-108.105226061,42.121094603],[-108.105229923,42.121095347],[-108.105233778,42.121096072],[-108.105237628,42.121096777],[-108.105241471,42.121097462],[-108.105245309,42.121098126],[-108.105249139,42.12109877],[-108.105252964,42.121099394],[-108.105256782,42.121099997],[-108.105260593,42.121100579],[-108.105264398,42.12110114],[-108.105268196,42.12110168],[-108.105271988,42.121102198],[-108.105275773,42.121102696],[-108.105279551,42.121103171],[-108.105283322,42.121103625],[-108.105287086,42.121104057],[-108.105290843,42.121104467],[-108.105294594,42.121104855],[-108.105298337,42.12110522],[-108.105302073,42.121105563],[-108.105305802,42.121105883],[-108.105309523,42.121106181],[-108.105313238,42.121106455],[-108.105316945,42.121106706],[-108.105320644,42.121106935],[-108.105324336,42.12110714],[-108.105328021,42.121107321],[-108.105331698,42.121107478],[-108.105335367,42.121107612],[-108.105339029,42.121107722],[-108.105342683,42.121107808],[-108.105346329,42.121107869],[-108.105349967,42.121107906],[-108.105353597,42.121107919]]},"properties":{"source_yard_track_id":"YARD-FAC-TAY-TERMINAL-phase1generalB","case_status":"PROPOSED_INTERNAL_YARD_LADDER_NOT_ROUTE_MILES","survey_status":"NOT_SURVEYED"}},{"type":"Feature","id":"LADDER-TAY-TERMINAL-phase1liquid","geometry":{"type":"LineString","coordinates":[[-108.103699833,42.120553718],[-108.103709928,42.120556692],[-108.103719971,42.12055967],[-108.103729964,42.120562652],[-108.103739905,42.120565639],[-108.103749797,42.120568629],[-108.103759639,42.120571624],[-108.103769431,42.120574623],[-108.103779174,42.120577625],[-108.103788868,42.120580632],[-108.103798514,42.120583642],[-108.103808111,42.120586655],[-108.103817661,42.120589672],[-108.103827164,42.120592692],[-108.10383662,42.120595716],[-108.103846029,42.120598743],[-108.103855392,42.120601773],[-108.103864708,42.120604806],[-108.10387398,42.120607841],[-108.103883206,42.12061088],[-108.103892387,42.120613921],[-108.103901524,42.120616965],[-108.103910617,42.120620011],[-108.103919666,42.12062306],[-108.103928671,42.120626111],[-108.103937634,42.120629164],[-108.103946554,42.12063222],[-108.103955432,42.120635277],[-108.103964267,42.120638336],[-108.103973062,42.120641398],[-108.103981815,42.12064446],[-108.103990527,42.120647525],[-108.103999198,42.120650591],[-108.10400783,42.120653659],[-108.104016422,42.120656727],[-108.104024974,42.120659797],[-108.104033488,42.120662869],[-108.104041962,42.120665941],[-108.104050399,42.120669014],[-108.104058797,42.120672089],[-108.104067158,42.120675163],[-108.104075481,42.120678239],[-108.104083768,42.120681315],[-108.104092018,42.120684392],[-108.104100233,42.120687469],[-108.104108411,42.120690546],[-108.104116554,42.120693624],[-108.104124661,42.120696701],[-108.104132735,42.120699779],[-108.104140773,42.120702857],[-108.104148778,42.120705934],[-108.104156749,42.120709011],[-108.104164687,42.120712088],[-108.104172592,42.120715164],[-108.104180465,42.12071824],[-108.104188305,42.120721315],[-108.104196114,42.120724389],[-108.104203891,42.120727462],[-108.104211637,42.120730534],[-108.104219352,42.120733606],[-108.104227037,42.120736676],[-108.104234692,42.120739745],[-108.104242317,42.120742812],[-108.104249913,42.120745879],[-108.10425748,42.120748943],[-108.104265019,42.120752006],[-108.104272529,42.120755067],[-108.104280012,42.120758127],[-108.104287467,42.120761184],[-108.104294895,42.12076424],[-108.104302296,42.120767293],[-108.104309671,42.120770344],[-108.104317019,42.120773393],[-108.104324343,42.120776439],[-108.10433164,42.120779483],[-108.104338913,42.120782525],[-108.104346162,42.120785563],[-108.104353386,42.120788599],[-108.104360586,42.120791632],[-108.104367763,42.120794662],[-108.104374916,42.120797689],[-108.104382047,42.120800713],[-108.104389155,42.120803733],[-108.104396242,42.12080675],[-108.104403306,42.120809764],[-108.10441035,42.120812774],[-108.104417372,42.120815781],[-108.104424374,42.120818783],[-108.104431355,42.120821782],[-108.104438317,42.120824777],[-108.104445259,42.120827768],[-108.104452182,42.120830755],[-108.104459086,42.120833737],[-108.104465972,42.120836715],[-108.10447284,42.120839689],[-108.10447969,42.120842658],[-108.104486522,42.120845623],[-108.104493338,42.120848583],[-108.104500137,42.120851538],[-108.10450692,42.120854488],[-108.104513687,42.120857434],[-108.104520438,42.120860374],[-108.104527174,42.120863309],[-108.104533895,42.120866238],[-108.104540602,42.120869163],[-108.104547295,42.120872081],[-108.104553974,42.120874995],[-108.104560639,42.120877902],[-108.104567292,42.120880804],[-108.104573932,42.1208837],[-108.10458056,42.12088659],[-108.104587175,42.120889474],[-108.10459378,42.120892351],[-108.104600372,42.120895223],[-108.104606955,42.120898088],[-108.104613526,42.120900947],[-108.104620088,42.120903799],[-108.10462664,42.120906644],[-108.104633182,42.120909483],[-108.104639715,42.120912315],[-108.10464624,42.12091514],[-108.104652756,42.120917958],[-108.104659265,42.120920769],[-108.104665765,42.120923573],[-108.104672259,42.120926369],[-108.104678746,42.120929158],[-108.104685226,42.12093194],[-108.1046917,42.120934714],[-108.104698168,42.12093748],[-108.104704631,42.120940238],[-108.104711089,42.120942989],[-108.104717542,42.120945731],[-108.10472399,42.120948466],[-108.104730435,42.120951192],[-108.104736876,42.12095391],[-108.104743314,42.12095662],[-108.104749749,42.120959321],[-108.104756182,42.120962014],[-108.104762612,42.120964698],[-108.10476904,42.120967373],[-108.104775467,42.120970039],[-108.104781893,42.120972697],[-108.104788319,42.120975345],[-108.104794743,42.120977985],[-108.104801168,42.120980615],[-108.104807594,42.120983235],[-108.104814019,42.120985847],[-108.104820446,42.120988448],[-108.104826875,42.120991041],[-108.104833305,42.120993623],[-108.104839738,42.120996196],[-108.104846173,42.120998758],[-108.10485261,42.121001311],[-108.104859052,42.121003854],[-108.104865496,42.121006386],[-108.104871945,42.121008909],[-108.104878398,42.12101142],[-108.104884856,42.121013922],[-108.104891319,42.121016412],[-108.104897787,42.121018892],[-108.104904261,42.121021362],[-108.104910741,42.12102382],[-108.104917228,42.121026268],[-108.104923721,42.121028704],[-108.104930222,42.121031129],[-108.10493673,42.121033543],[-108.104943246,42.121035946],[-108.104949771,42.121038337],[-108.104956304,42.121040717],[-108.104962847,42.121043085],[-108.104969398,42.121045441],[-108.10497596,42.121047786],[-108.104982531,42.121050118],[-108.104989113,42.121052439],[-108.104995706,42.121054747],[-108.10500231,42.121057043],[-108.105008926,42.121059327],[-108.105015554,42.121061599],[-108.105022193,42.121063858],[-108.105028846,42.121066104],[-108.105035511,42.121068338],[-108.10504219,42.121070559],[-108.105048883,42.121072767],[-108.10505559,42.121074962],[-108.105062311,42.121077144],[-108.105069047,42.121079313],[-108.105075798,42.121081468],[-108.105082565,42.121083611],[-108.105089347,42.121085739],[-108.105096146,42.121087854],[-108.105102962,42.121089956],[-108.105109794,42.121092044],[-108.105116644,42.121094117],[-108.105123512,42.121096177],[-108.105130397,42.121098223],[-108.105137301,42.121100255],[-108.105144224,42.121102273],[-108.105151166,42.121104276],[-108.105158128,42.121106265],[-108.105165109,42.121108239],[-108.105172111,42.121110199],[-108.105179133,42.121112144],[-108.105186176,42.121114074],[-108.105193241,42.121115989],[-108.105200327,42.121117889],[-108.105207435,42.121119774],[-108.105214566,42.121121644],[-108.105221719,42.121123499],[-108.105228896,42.121125338],[-108.105236096,42.121127162],[-108.10524332,42.12112897],[-108.105250568,42.121130763],[-108.105257841,42.121132539],[-108.105265138,42.1211343],[-108.105272461,42.121136045],[-108.10527981,42.121137774],[-108.105287185,42.121139487],[-108.105294586,42.121141183],[-108.105302013,42.121142863],[-108.105309468,42.121144527],[-108.105316951,42.121146174],[-108.105324461,42.121147805],[-108.105331999,42.121149419],[-108.105339566,42.121151015],[-108.105347162,42.121152595],[-108.105354787,42.121154158],[-108.105362442,42.121155704],[-108.105370126,42.121157233],[-108.105377841,42.121158744],[-108.105385587,42.121160238],[-108.105393364,42.121161715],[-108.105401172,42.121163174],[-108.105409013,42.121164615],[-108.105416885,42.121166038],[-108.10542479,42.121167444],[-108.105432727,42.121168831],[-108.105440698,42.1211702],[-108.105448703,42.121171552],[-108.105456742,42.121172885],[-108.105464814,42.121174199],[-108.105472922,42.121175495],[-108.105481065,42.121176773],[-108.105489243,42.121178032],[-108.105497457,42.121179272],[-108.105505707,42.121180493],[-108.105513993,42.121181696],[-108.105522316,42.121182879],[-108.105530677,42.121184043],[-108.105539075,42.121185188],[-108.105547511,42.121186314],[-108.105555986,42.12118742],[-108.105564499,42.121188507],[-108.105573051,42.121189574],[-108.105581642,42.121190621],[-108.105590274,42.121191649],[-108.105598945,42.121192656],[-108.105607657,42.121193644],[-108.10561641,42.121194611],[-108.105625204,42.121195559],[-108.105634039,42.121196486],[-108.105642917,42.121197393],[-108.105651836,42.121198279],[-108.105660799,42.121199144],[-108.105669804,42.121199989],[-108.105678853,42.121200813],[-108.105687945,42.121201617],[-108.105697082,42.121202399],[-108.105706263,42.12120316],[-108.105715489,42.1212039],[-108.10572476,42.121204619],[-108.105734076,42.121205317],[-108.105743439,42.121205993],[-108.105752847,42.121206647],[-108.105762303,42.12120728],[-108.105771805,42.121207891],[-108.105781355,42.121208481],[-108.105790952,42.121209048],[-108.105800598,42.121209593],[-108.105810291,42.121210117],[-108.105820034,42.121210618],[-108.105829826,42.121211096],[-108.105839667,42.121211553],[-108.105849558,42.121211986],[-108.1058595,42.121212398],[-108.105869492,42.121212786],[-108.105879535,42.121213152],[-108.105889629,42.121213495],[-108.105899775,42.121213814],[-108.105909973,42.121214111],[-108.105920224,42.121214385],[-108.105930527,42.121214635],[-108.105940883,42.121214862],[-108.105951293,42.121215066],[-108.105961757,42.121215245],[-108.105972275,42.121215402],[-108.105982847,42.121215534],[-108.105993475,42.121215643],[-108.106004158,42.121215728],[-108.106014896,42.121215788],[-108.10602569,42.121215825],[-108.106036541,42.121215837]]},"properties":{"source_yard_track_id":"YARD-FAC-TAY-TERMINAL-phase1liquid","case_status":"PROPOSED_INTERNAL_YARD_LADDER_NOT_ROUTE_MILES","survey_status":"NOT_SURVEYED"}}]}
