{"features":[{"geometry":{"coordinates":[[[-81.558955,38.248044],[-81.55923,38.247887],[-81.549171,38.241579],[-81.545697,38.239025],[-81.543496,38.237725],[-81.543625,38.237433],[-81.544392,38.236848],[-81.544587,38.236315],[-81.545123,38.235862],[-81.546819,38.235353],[-81.547485,38.234871],[-81.541967,38.229903],[-81.540527,38.228809],[-81.531841,38.223347],[-81.528775,38.22534],[-81.525342,38.227984],[-81.529636,38.232072],[-81.531567,38.233349],[-81.532256,38.234197],[-81.531648,38.234725],[-81.53792,38.239973],[-81.541121,38.237616],[-81.542386,38.238311],[-81.54807,38.242978],[-81.556683,38.249183],[-81.558955,38.248044]]],"type":"Polygon"},"id":"REF-CONTEXT-PLACES-1","properties":{"AREALAND":1787311,"AREAWATER":233583,"BASENAME":"Belle","CBSAPCI":"N","CENTLAT":"+38.2337464","CENTLON":"-081.5387137","DISP_CLR":5,"FUNCSTAT":"A","GEOID":"5405836","INTPTLAT":"+38.2353882","INTPTLON":"-081.5367005","LSADC":"43","MTFCC":"G4110","NAME":"Belle town","NECTAPCI":"N","OBJECTID":7788,"OID":"27890847725324","PLACE":"05836","PLACECC":"C1","PLACENS":"02390719","STATE":"54","canon_status":"REAL_REFERENCE","fictionality":"REAL","real_world_relation":"REFERENCE_ONLY","source_id":"REF-CONTEXT-PLACES"},"type":"Feature"},{"geometry":{"coordinates":[[[-107.997422,41.667547],[-107.997436,41.661683],[-107.987624,41.661661],[-107.987591,41.659325],[-107.96748,41.659433],[-107.966729,41.66122],[-107.966258,41.663348],[-107.964438,41.673436],[-107.964821,41.673747],[-107.967593,41.672389],[-107.96833,41.672189],[-107.968318,41.673565],[-107.967882,41.673851],[-107.968316,41.673855],[-107.968313,41.679602],[-107.973279,41.677416],[-107.982531,41.677379],[-107.983641,41.67834],[-107.984793,41.677368],[-107.987617,41.677354],[-107.987635,41.671041],[-107.987762,41.67074],[-107.988272,41.670667],[-107.988281,41.669077],[-107.997422,41.667547]]],"type":"Polygon"},"id":"REF-CONTEXT-PLACES-2","properties":{"AREALAND":4214138,"AREAWATER":0,"BASENAME":"Wamsutter","CBSAPCI":"N","CENTLAT":"+41.6679766","CENTLON":"-107.9791419","DISP_CLR":1,"FUNCSTAT":"A","GEOID":"5681300","INTPTLAT":"+41.6679766","INTPTLON":"-107.9791419","LSADC":"43","MTFCC":"G4110","NAME":"Wamsutter town","NECTAPCI":"N","OBJECTID":15535,"OID":"27890243744445","PLACE":"81300","PLACECC":"C1","PLACENS":"02413445","STATE":"56","canon_status":"REAL_REFERENCE","fictionality":"REAL","real_world_relation":"REFERENCE_ONLY","source_id":"REF-CONTEXT-PLACES"},"type":"Feature"},{"geometry":{"coordinates":[[[[-81.707156,38.372489],[-81.706989,38.371478],[-81.705485,38.37218],[-81.702785,38.373053],[-81.701145,38.37377],[-81.698947,38.374297],[-81.695297,38.374643],[-81.690894,38.37416],[-81.690503,38.374248],[-81.688884,38.37355],[-81.687607,38.373296],[-81.684138,38.37278],[-81.681152,38.372739],[-81.679784,38.372414],[-81.676323,38.370947],[-81.675241,38.370363],[-81.675179,38.370192],[-81.66827,38.366935],[-81.671367,38.362064],[-81.671629,38.359666],[-81.672403,38.359772],[-81.672754,38.359632],[-81.673467,38.35917],[-81.674446,38.358096],[-81.672947,38.351593],[-81.672536,38.350863],[-81.670133,38.35126],[-81.670879,38.349942],[-81.669131,38.349683],[-81.669468,38.348786],[-81.668736,38.348305],[-81.668699,38.348049],[-81.669926,38.347856],[-81.670758,38.347168],[-81.669875,38.346137],[-81.669768,38.346277],[-81.670002,38.346494],[-81.66988,38.346607],[-81.669503,38.346244],[-81.669788,38.345832],[-81.670033,38.345631],[-81.671324,38.346799],[-81.67355,38.345166],[-81.674868,38.344948],[-81.677035,38.345809],[-81.677316,38.344912],[-81.684353,38.345529],[-81.68531,38.340698],[-81.685848,38.3452],[-81.686452,38.344974],[-81.686352,38.344405],[-81.686953,38.344592],[-81.687302,38.343874],[-81.686064,38.342806],[-81.685942,38.341509],[-81.686137,38.341028],[-81.687226,38.341137],[-81.687466,38.341463],[-81.687245,38.342201],[-81.687375,38.342594],[-81.688103,38.343594],[-81.688699,38.344029],[-81.689641,38.343593],[-81.68972,38.343418],[-81.689315,38.343023],[-81.68809,38.340856],[-81.688132,38.340687],[-81.688366,38.340649],[-81.688484,38.339976],[-81.688794,38.339856],[-81.688935,38.340033],[-81.69139,38.339535],[-81.692457,38.339043],[-81.692558,38.339322],[-81.692961,38.339317],[-81.692956,38.33911],[-81.695147,38.339118],[-81.69688,38.34045],[-81.697829,38.340763],[-81.700948,38.342388],[-81.701508,38.342822],[-81.702696,38.343301],[-81.703732,38.344092],[-81.704015,38.343964],[-81.702893,38.34273],[-81.703691,38.341712],[-81.704866,38.34102],[-81.705048,38.340463],[-81.704764,38.34018],[-81.704309,38.340724],[-81.703925,38.340923],[-81.702824,38.341271],[-81.702834,38.341168],[-81.702169,38.341262],[-81.702339,38.340046],[-81.702741,38.340182],[-81.703389,38.339701],[-81.703245,38.339506],[-81.703672,38.337843],[-81.703434,38.337531],[-81.701501,38.336419],[-81.700576,38.333083],[-81.699879,38.332229],[-81.69872,38.332221],[-81.697341,38.333857],[-81.695856,38.333404],[-81.696006,38.332992],[-81.695414,38.332912],[-81.695229,38.33317],[-81.693818,38.332729],[-81.693432,38.333473],[-81.693525,38.334164],[-81.694561,38.334688],[-81.694024,38.335448],[-81.692966,38.336134],[-81.691977,38.335849],[-81.690975,38.336181],[-81.689425,38.336215],[-81.687711,38.336559],[-81.688361,38.335936],[-81.68906,38.335733],[-81.690846,38.331786],[-81.689714,38.331391],[-81.686359,38.331812],[-81.686475,38.331063],[-81.685456,38.330899],[-81.685293,38.331766],[-81.68539,38.332094],[-81.680975,38.330481],[-81.678001,38.329168],[-81.67822,38.328258],[-81.67686,38.328123],[-81.676421,38.329163],[-81.674601,38.331352],[-81.673759,38.333077],[-81.671473,38.332583],[-81.673619,38.331026],[-81.676836,38.327109],[-81.677272,38.327109],[-81.677582,38.326521],[-81.67632,38.326157],[-81.676163,38.326282],[-81.675388,38.326096],[-81.674965,38.326399],[-81.674755,38.326157],[-81.674481,38.32627],[-81.674206,38.326609],[-81.674239,38.327093],[-81.671964,38.327464],[-81.671351,38.32827],[-81.670513,38.328719],[-81.670116,38.328693],[-81.669342,38.327514],[-81.66817,38.328376],[-81.667379,38.328351],[-81.66648,38.32808],[-81.665749,38.328321],[-81.665546,38.328429],[-81.667335,38.329775],[-81.666538,38.330673],[-81.664797,38.329303],[-81.664664,38.328964],[-81.66364,38.329524],[-81.663898,38.329828],[-81.66352,38.330354],[-81.662777,38.32997],[-81.661397,38.330085],[-81.663406,38.328013],[-81.665129,38.32721],[-81.665789,38.327288],[-81.665681,38.32773],[-81.666495,38.327894],[-81.667732,38.327603],[-81.667312,38.326065],[-81.669016,38.325094],[-81.668559,38.324763],[-81.669093,38.324291],[-81.668729,38.324085],[-81.669699,38.323213],[-81.668253,38.322512],[-81.666359,38.322554],[-81.665306,38.323047],[-81.664214,38.3232],[-81.662645,38.324561],[-81.661493,38.324289],[-81.660142,38.324263],[-81.657886,38.324876],[-81.657529,38.325095],[-81.657563,38.325478],[-81.659559,38.327174],[-81.657078,38.328837],[-81.656823,38.329182],[-81.655578,38.329406],[-81.653886,38.32932],[-81.654613,38.326593],[-81.654393,38.325916],[-81.653713,38.325092],[-81.653096,38.323399],[-81.655207,38.321928],[-81.65706,38.321141],[-81.657135,38.318715],[-81.657551,38.317193],[-81.657599,38.315817],[-81.657979,38.315179],[-81.658296,38.314974],[-81.657806,38.313939],[-81.656804,38.312865],[-81.656177,38.310054],[-81.655807,38.309702],[-81.654966,38.309979],[-81.654832,38.309829],[-81.65151,38.311694],[-81.652442,38.313274],[-81.646583,38.312462],[-81.645332,38.311629],[-81.640256,38.309568],[-81.640559,38.308763],[-81.640017,38.308066],[-81.638423,38.307102],[-81.635283,38.311231],[-81.640381,38.314432],[-81.633695,38.313996],[-81.631915,38.315143],[-81.63153,38.315181],[-81.63011,38.316305],[-81.623547,38.32053],[-81.62011,38.318852],[-81.617158,38.317188],[-81.617536,38.317083],[-81.623508,38.30973],[-81.621593,38.309677],[-81.620696,38.308663],[-81.618972,38.308863],[-81.618135,38.307505],[-81.617293,38.307047],[-81.61393,38.307507],[-81.614004,38.309673],[-81.610255,38.312667],[-81.612711,38.314576],[-81.612723,38.315358],[-81.607681,38.313044],[-81.608615,38.312392],[-81.614531,38.304137],[-81.614435,38.304097],[-81.615681,38.302144],[-81.613427,38.301437],[-81.610644,38.302249],[-81.606439,38.302927],[-81.601227,38.304927],[-81.601165,38.303776],[-81.597997,38.304822],[-81.597407,38.304582],[-81.597432,38.303431],[-81.59769,38.302986],[-81.596826,38.302856],[-81.596834,38.302371],[-81.595954,38.302338],[-81.595939,38.301699],[-81.594802,38.301747],[-81.594561,38.302387],[-81.593171,38.302338],[-81.592817,38.302572],[-81.592899,38.303443],[-81.593427,38.303683],[-81.593715,38.304195],[-81.593587,38.305251],[-81.589306,38.307217],[-81.588837,38.30681],[-81.588869,38.306685],[-81.589358,38.3063],[-81.589785,38.305384],[-81.589628,38.303719],[-81.589243,38.302959],[-81.588858,38.30271],[-81.587125,38.302293],[-81.587141,38.30285],[-81.588275,38.304078],[-81.588354,38.305176],[-81.587474,38.304843],[-81.586171,38.304893],[-81.586329,38.303865],[-81.585773,38.301591],[-81.58584,38.301294],[-81.586584,38.300737],[-81.587101,38.300069],[-81.588899,38.298754],[-81.599757,38.299118],[-81.598786,38.301192],[-81.601605,38.300982],[-81.60197,38.300442],[-81.604404,38.300394],[-81.606313,38.29996],[-81.606898,38.296697],[-81.606798,38.296343],[-81.610328,38.293983],[-81.610653,38.293609],[-81.61078,38.293228],[-81.610149,38.292868],[-81.609144,38.291923],[-81.607931,38.291262],[-81.60699,38.291164],[-81.606356,38.291451],[-81.605074,38.292841],[-81.603473,38.294166],[-81.603665,38.294466],[-81.601516,38.297296],[-81.601491,38.297601],[-81.602205,38.298093],[-81.603239,38.298188],[-81.603126,38.298503],[-81.603333,38.299469],[-81.603172,38.299728],[-81.602144,38.29968],[-81.601787,38.298079],[-81.601372,38.297799],[-81.600809,38.297896],[-81.59907,38.296602],[-81.596697,38.296101],[-81.596859,38.295229],[-81.592505,38.295573],[-81.592503,38.295081],[-81.591862,38.294922],[-81.591866,38.294686],[-81.594134,38.29375],[-81.594562,38.293279],[-81.595306,38.290927],[-81.595018,38.289881],[-81.595121,38.289045],[-81.595368,38.288714],[-81.595724,38.288424],[-81.597797,38.287605],[-81.598652,38.287104],[-81.599035,38.286504],[-81.599219,38.285848],[-81.599653,38.285309],[-81.599709,38.284651],[-81.59997,38.284342],[-81.600714,38.28406],[-81.601853,38.284266],[-81.60262,38.284196],[-81.602617,38.282398],[-81.600708,38.282249],[-81.599307,38.281139],[-81.5985,38.281452],[-81.598872,38.282295],[-81.598828,38.283505],[-81.599521,38.284613],[-81.599316,38.285384],[-81.595324,38.283621],[-81.594606,38.284739],[-81.595532,38.284843],[-81.595605,38.28467],[-81.596941,38.285569],[-81.596933,38.287538],[-81.593847,38.287545],[-81.593776,38.288383],[-81.593416,38.289145],[-81.593915,38.290145],[-81.592752,38.290319],[-81.592885,38.291105],[-81.593638,38.291037],[-81.59342,38.292516],[-81.594609,38.292553],[-81.594179,38.29336],[-81.591685,38.294553],[-81.591654,38.295075],[-81.589736,38.295525],[-81.589578,38.295297],[-81.588344,38.295979],[-81.587797,38.295643],[-81.587576,38.296434],[-81.588468,38.297703],[-81.588213,38.297865],[-81.588669,38.298614],[-81.585564,38.301076],[-81.585439,38.301804],[-81.586106,38.303912],[-81.585897,38.304911],[-81.585993,38.305083],[-81.586094,38.304987],[-81.586023,38.305115],[-81.58749,38.305077],[-81.588192,38.305431],[-81.588498,38.305404],[-81.588602,38.305144],[-81.588458,38.303891],[-81.587547,38.30298],[-81.587297,38.302481],[-81.588931,38.303074],[-81.589316,38.303865],[-81.589451,38.305592],[-81.588519,38.306625],[-81.588687,38.30707],[-81.589131,38.307363],[-81.587843,38.310299],[-81.584244,38.308641],[-81.582706,38.303312],[-81.581731,38.303267],[-81.580915,38.302723],[-81.580499,38.302787],[-81.580523,38.303293],[-81.580131,38.303267],[-81.579634,38.30349],[-81.579552,38.30406],[-81.579747,38.304707],[-81.580227,38.304995],[-81.581059,38.304867],[-81.581331,38.305187],[-81.581558,38.305881],[-81.581635,38.307571],[-81.577643,38.305999],[-81.574243,38.302699],[-81.569513,38.305174],[-81.568378,38.299984],[-81.569342,38.294199],[-81.5636,38.292748],[-81.563367,38.293374],[-81.562189,38.29479],[-81.561318,38.29615],[-81.5603,38.298269],[-81.559877,38.299915],[-81.559582,38.301954],[-81.559714,38.303481],[-81.55931,38.303748],[-81.559526,38.304243],[-81.55947,38.306091],[-81.559777,38.308135],[-81.560293,38.309381],[-81.560774,38.312073],[-81.561632,38.314692],[-81.562518,38.316783],[-81.567329,38.320504],[-81.573411,38.324643],[-81.578161,38.327701],[-81.580552,38.3289],[-81.580093,38.328963],[-81.580129,38.329315],[-81.580815,38.3295],[-81.581206,38.329117],[-81.581607,38.329234],[-81.584034,38.330277],[-81.585583,38.33122],[-81.58683,38.331669],[-81.58644,38.332754],[-81.586023,38.333052],[-81.582003,38.33143],[-81.580993,38.330863],[-81.579843,38.330861],[-81.579113,38.331126],[-81.576572,38.333241],[-81.575779,38.333456],[-81.575106,38.333226],[-81.57491,38.334278],[-81.575222,38.334728],[-81.575367,38.335372],[-81.576022,38.336219],[-81.573465,38.338523],[-81.573295,38.33834],[-81.573232,38.339272],[-81.576901,38.337311],[-81.57665,38.34047],[-81.57761,38.341738],[-81.583368,38.339974],[-81.583619,38.336754],[-81.584327,38.334307],[-81.584835,38.333509],[-81.586326,38.333814],[-81.586592,38.335434],[-81.585609,38.33756],[-81.585461,38.338524],[-81.584998,38.339526],[-81.582661,38.340731],[-81.581476,38.344604],[-81.580121,38.344831],[-81.578187,38.346073],[-81.57713,38.346553],[-81.576803,38.346875],[-81.576577,38.34811],[-81.575162,38.349244],[-81.574193,38.34947],[-81.572294,38.350405],[-81.570871,38.350606],[-81.570053,38.350911],[-81.568081,38.351953],[-81.567372,38.352612],[-81.566183,38.355137],[-81.566151,38.35578],[-81.566432,38.356368],[-81.567602,38.357874],[-81.567734,38.358458],[-81.56876,38.359363],[-81.569237,38.360192],[-81.569345,38.360755],[-81.569713,38.361313],[-81.56993,38.36325],[-81.570168,38.364044],[-81.571288,38.364969],[-81.57288,38.365689],[-81.574593,38.36756],[-81.575038,38.367821],[-81.575681,38.367814],[-81.580591,38.366242],[-81.58184,38.366055],[-81.582426,38.366187],[-81.581643,38.366692],[-81.579882,38.368667],[-81.578855,38.369558],[-81.575967,38.371241],[-81.573779,38.370154],[-81.571849,38.371066],[-81.571338,38.370803],[-81.570643,38.371123],[-81.569833,38.371767],[-81.568975,38.371888],[-81.567867,38.372469],[-81.567333,38.372555],[-81.567489,38.372758],[-81.568734,38.372953],[-81.569282,38.375682],[-81.571439,38.377762],[-81.573568,38.377288],[-81.576058,38.375775],[-81.57791,38.375772],[-81.577312,38.37506],[-81.58139,38.372689],[-81.581411,38.367713],[-81.583077,38.366139],[-81.583829,38.366187],[-81.583781,38.365556],[-81.584081,38.365343],[-81.584248,38.364946],[-81.583902,38.363988],[-81.58483,38.363021],[-81.584859,38.361796],[-81.585131,38.361005],[-81.585623,38.360736],[-81.586228,38.360085],[-81.587012,38.359744],[-81.588899,38.359358],[-81.590229,38.359307],[-81.592601,38.358355],[-81.594315,38.358993],[-81.594539,38.359666],[-81.594335,38.3602],[-81.594324,38.360856],[-81.595072,38.363258],[-81.594807,38.364267],[-81.594886,38.365191],[-81.59516,38.365488],[-81.595915,38.365401],[-81.596604,38.365937],[-81.597533,38.366252],[-81.59931,38.36575],[-81.600261,38.365681],[-81.600997,38.366097],[-81.601525,38.367057],[-81.602183,38.366995],[-81.602561,38.367128],[-81.605252,38.366233],[-81.606223,38.365708],[-81.608308,38.365687],[-81.609249,38.365441],[-81.610063,38.365518],[-81.610495,38.365731],[-81.610405,38.365841],[-81.610787,38.366368],[-81.610638,38.366939],[-81.610483,38.370226],[-81.610657,38.370725],[-81.610763,38.372715],[-81.611192,38.373994],[-81.611652,38.374727],[-81.615388,38.374738],[-81.617925,38.374143],[-81.618754,38.374296],[-81.618913,38.37453],[-81.6191,38.376205],[-81.619513,38.377815],[-81.620309,38.378685],[-81.620659,38.379417],[-81.622539,38.381064],[-81.624088,38.381431],[-81.624948,38.382203],[-81.625137,38.3832],[-81.624959,38.383831],[-81.62364,38.38583],[-81.619782,38.388272],[-81.619558,38.389024],[-81.620198,38.389632],[-81.620678,38.389824],[-81.621414,38.389744],[-81.62231,38.390096],[-81.622534,38.390464],[-81.62255,38.391392],[-81.623238,38.392208],[-81.62511,38.3936],[-81.62519,38.394016],[-81.62495,38.394736],[-81.622374,38.39632],[-81.62167,38.396944],[-81.621542,38.397184],[-81.621926,38.398736],[-81.621046,38.399392],[-81.62071,38.400192],[-81.621062,38.4008],[-81.622342,38.401264],[-81.62359,38.401184],[-81.624118,38.401408],[-81.624822,38.401264],[-81.629286,38.405759],[-81.632358,38.405391],[-81.633206,38.404351],[-81.639943,38.402623],[-81.641607,38.401615],[-81.642967,38.400527],[-81.644519,38.400895],[-81.646903,38.400767],[-81.647111,38.401855],[-81.647591,38.402447],[-81.648567,38.402975],[-81.65048,38.402031],[-81.651403,38.401904],[-81.652773,38.402031],[-81.655328,38.399552],[-81.658281,38.399004],[-81.659017,38.399118],[-81.661593,38.399028],[-81.663688,38.399194],[-81.667784,38.401751],[-81.668984,38.400732],[-81.671128,38.400018],[-81.673207,38.399032],[-81.673831,38.397501],[-81.673801,38.396879],[-81.673474,38.396428],[-81.67366,38.395841],[-81.674288,38.395476],[-81.675947,38.393987],[-81.67756,38.393546],[-81.680261,38.394037],[-81.681343,38.393928],[-81.684396,38.392464],[-81.686126,38.390482],[-81.687603,38.389224],[-81.691068,38.389044],[-81.692366,38.386819],[-81.692663,38.384986],[-81.692957,38.384861],[-81.695099,38.384821],[-81.69632,38.38453],[-81.69698,38.384082],[-81.69828,38.381491],[-81.700329,38.379652],[-81.700539,38.378551],[-81.700773,38.378133],[-81.702853,38.376016],[-81.706222,38.37412],[-81.707156,38.372489]],[[-81.679321,38.337731],[-81.679323,38.338013],[-81.678713,38.338044],[-81.678483,38.338324],[-81.678397,38.339291],[-81.67552,38.338637],[-81.67541,38.337941],[-81.675923,38.337223],[-81.677116,38.336683],[-81.677592,38.33678],[-81.6782,38.336605],[-81.679318,38.337054],[-81.679321,38.337731]]],[[[-81.727777,38.309751],[-81.72666,38.309747],[-81.725487,38.308342],[-81.72603,38.307935],[-81.725744,38.307792],[-81.725988,38.307627],[-81.726681,38.307678],[-81.725201,38.305375],[-81.72512,38.304874],[-81.721814,38.306295],[-81.721015,38.306009],[-81.718237,38.305487],[-81.717817,38.305607],[-81.716525,38.306239],[-81.716573,38.306419],[-81.717441,38.306893],[-81.717894,38.307528],[-81.715152,38.30909],[-81.713452,38.30875],[-81.712853,38.307611],[-81.70985,38.308536],[-81.705631,38.309303],[-81.704458,38.309692],[-81.704214,38.310137],[-81.703682,38.310453],[-81.703627,38.311832],[-81.704415,38.313166],[-81.705431,38.313304],[-81.709672,38.314419],[-81.712054,38.313807],[-81.708742,38.317536],[-81.707535,38.319804],[-81.706963,38.320455],[-81.707724,38.319886],[-81.708435,38.319591],[-81.712197,38.319654],[-81.709947,38.321045],[-81.710199,38.32145],[-81.709213,38.321731],[-81.709891,38.323604],[-81.714623,38.322928],[-81.714692,38.323553],[-81.714865,38.32353],[-81.714718,38.323769],[-81.714204,38.323986],[-81.714179,38.324209],[-81.712377,38.325859],[-81.712195,38.326094],[-81.712383,38.326196],[-81.711454,38.326654],[-81.711081,38.327702],[-81.711307,38.327734],[-81.711254,38.328099],[-81.711479,38.328105],[-81.7114,38.328318],[-81.711592,38.328831],[-81.711034,38.329461],[-81.710281,38.329541],[-81.710188,38.329741],[-81.709859,38.329681],[-81.709761,38.330042],[-81.710669,38.329917],[-81.710212,38.330463],[-81.710535,38.330555],[-81.710121,38.332368],[-81.709785,38.33251],[-81.709561,38.333338],[-81.709566,38.334035],[-81.710066,38.33529],[-81.709634,38.335818],[-81.705819,38.339072],[-81.706006,38.339424],[-81.705164,38.340213],[-81.705765,38.341201],[-81.710067,38.336154],[-81.710917,38.33496],[-81.711423,38.333833],[-81.711533,38.3325],[-81.712147,38.330213],[-81.712608,38.329966],[-81.716854,38.330797],[-81.717155,38.330505],[-81.716925,38.329528],[-81.717199,38.328976],[-81.7172,38.325723],[-81.717049,38.324501],[-81.716013,38.323753],[-81.715508,38.323579],[-81.715807,38.322948],[-81.71505,38.322135],[-81.71558,38.321227],[-81.715379,38.321153],[-81.715307,38.321279],[-81.714059,38.320442],[-81.71369,38.320677],[-81.712673,38.319928],[-81.712752,38.319743],[-81.713537,38.318935],[-81.714031,38.318034],[-81.715831,38.319171],[-81.716176,38.318535],[-81.71606,38.317974],[-81.717444,38.318022],[-81.717808,38.317706],[-81.718527,38.318141],[-81.71828,38.318397],[-81.718963,38.318865],[-81.718796,38.319009],[-81.718926,38.319308],[-81.723538,38.316032],[-81.722825,38.315471],[-81.723364,38.3142],[-81.724587,38.313234],[-81.725422,38.312164],[-81.724814,38.311948],[-81.726444,38.310005],[-81.727364,38.31008],[-81.727777,38.309751]]]],"type":"MultiPolygon"},"id":"REF-CONTEXT-PLACES-3","properties":{"AREALAND":81317442,"AREAWATER":2948453,"BASENAME":"Charleston","CBSAPCI":"Y","CENTLAT":"+38.3484218","CENTLON":"-081.6320690","DISP_CLR":1,"FUNCSTAT":"A","GEOID":"5414600","INTPTLAT":"+38.3486917","INTPTLON":"-081.6323240","LSADC":"25","MTFCC":"G4110","NAME":"Charleston city","NECTAPCI":"N","OBJECTID":31276,"OID":"27890847725326","PLACE":"14600","PLACECC":"C1","PLACENS":"02390575","STATE":"54","canon_status":"REAL_REFERENCE","fictionality":"REAL","real_world_relation":"REFERENCE_ONLY","source_id":"REF-CONTEXT-PLACES"},"type":"Feature"},{"geometry":{"coordinates":[[[-80.095319,40.457605],[-80.094552,40.453355],[-80.094654,40.45193],[-80.0945,40.451331],[-80.094041,40.450934],[-80.093256,40.450745],[-80.092572,40.450831],[-80.091513,40.451342],[-80.090713,40.451421],[-80.08994,40.451018],[-80.089517,40.450427],[-80.089534,40.449836],[-80.091024,40.44905],[-80.090273,40.447522],[-80.090108,40.446579],[-80.090399,40.44541],[-80.090165,40.444162],[-80.089237,40.443333],[-80.084068,40.441929],[-80.082883,40.440437],[-80.082396,40.440244],[-80.080749,40.439738],[-80.080511,40.440495],[-80.080234,40.440641],[-80.076352,40.441808],[-80.078505,40.446527],[-80.076352,40.447246],[-80.076534,40.448007],[-80.073149,40.448653],[-80.072945,40.448325],[-80.071587,40.448621],[-80.068359,40.447778],[-80.067221,40.448832],[-80.066682,40.44882],[-80.066194,40.449381],[-80.065347,40.448824],[-80.065347,40.448544],[-80.064288,40.448174],[-80.064323,40.447705],[-80.064007,40.447625],[-80.06363,40.447923],[-80.062611,40.447233],[-80.061901,40.447807],[-80.059957,40.445636],[-80.058497,40.444588],[-80.055371,40.443936],[-80.060127,40.442398],[-80.060664,40.442081],[-80.061001,40.441494],[-80.061216,40.440632],[-80.057596,40.437534],[-80.059123,40.437135],[-80.057918,40.436399],[-80.058103,40.435215],[-80.058025,40.434508],[-80.057565,40.434515],[-80.057285,40.431572],[-80.05752,40.431282],[-80.057907,40.431459],[-80.059745,40.42831],[-80.062166,40.429049],[-80.063173,40.427866],[-80.064364,40.428758],[-80.065546,40.430349],[-80.06858,40.431358],[-80.070567,40.428629],[-80.073882,40.425463],[-80.080519,40.423723],[-80.085542,40.423842],[-80.085742,40.422792],[-80.085412,40.421243],[-80.084507,40.420522],[-80.082684,40.420101],[-80.081569,40.420213],[-80.079594,40.420038],[-80.075648,40.420827],[-80.074859,40.420602],[-80.074803,40.420124],[-80.07603,40.417947],[-80.077156,40.41709],[-80.078659,40.416462],[-80.077353,40.415262],[-80.07715,40.415441],[-80.076672,40.415233],[-80.073862,40.413399],[-80.072808,40.414242],[-80.071775,40.415724],[-80.068046,40.416003],[-80.067282,40.416221],[-80.06643,40.416776],[-80.066096,40.417499],[-80.066882,40.420621],[-80.067202,40.422776],[-80.065514,40.425117],[-80.063787,40.426363],[-80.057235,40.426439],[-80.05434,40.42754],[-80.053773,40.427938],[-80.05146,40.427138],[-80.04946,40.426812],[-80.047803,40.425735],[-80.047381,40.425957],[-80.047396,40.42701],[-80.046592,40.427031],[-80.046809,40.427372],[-80.046643,40.42942],[-80.044628,40.429062],[-80.043289,40.428193],[-80.042705,40.428674],[-80.04315,40.428044],[-80.042491,40.428618],[-80.04169,40.428987],[-80.038371,40.427846],[-80.037463,40.428545],[-80.034827,40.428358],[-80.051202,40.401943],[-80.045051,40.399041],[-80.041937,40.399386],[-80.042078,40.399746],[-80.039764,40.401319],[-80.036416,40.404277],[-80.035471,40.404286],[-80.035622,40.401698],[-80.036697,40.400785],[-80.032666,40.401535],[-80.032482,40.401729],[-80.031468,40.400397],[-80.031757,40.400089],[-80.02939,40.397205],[-80.031144,40.396613],[-80.030698,40.395351],[-80.030767,40.395007],[-80.028678,40.391263],[-80.027827,40.391598],[-80.018907,40.386816],[-80.018159,40.38645],[-80.017108,40.386314],[-80.016418,40.385129],[-80.013819,40.386562],[-80.013567,40.38609],[-80.01361,40.385706],[-80.014158,40.385765],[-80.01339,40.383481],[-80.012492,40.383399],[-80.012577,40.383067],[-80.012316,40.383029],[-80.013174,40.382835],[-80.012579,40.380889],[-80.010382,40.380442],[-80.010028,40.380921],[-80.009027,40.381016],[-80.008948,40.381137],[-80.008135,40.380874],[-80.007685,40.38113],[-80.007356,40.380898],[-80.007158,40.381531],[-80.007676,40.383012],[-80.005121,40.383883],[-80.003653,40.382041],[-80.003335,40.38117],[-80.001728,40.379699],[-80.004869,40.377627],[-80.005361,40.377133],[-80.006136,40.37549],[-80.006708,40.374861],[-80.005606,40.374678],[-80.004125,40.373981],[-80.003772,40.374393],[-80.001439,40.374887],[-80.000627,40.375509],[-79.999123,40.377344],[-79.998051,40.376472],[-79.994945,40.375666],[-79.994401,40.375718],[-79.993999,40.375839],[-79.99411,40.376926],[-79.99358,40.378321],[-79.992901,40.378604],[-79.991127,40.378924],[-79.986032,40.377822],[-79.983342,40.381516],[-79.982754,40.381487],[-79.981947,40.380642],[-79.978028,40.381847],[-79.977645,40.381743],[-79.977376,40.381321],[-79.976755,40.381141],[-79.976142,40.381301],[-79.976845,40.382844],[-79.97765,40.384143],[-79.976472,40.385386],[-79.974081,40.384792],[-79.975756,40.387212],[-79.975413,40.38828],[-79.973083,40.388717],[-79.973246,40.39084],[-79.973565,40.392199],[-79.973035,40.392463],[-79.973226,40.392778],[-79.973638,40.392752],[-79.973903,40.393433],[-79.975788,40.393122],[-79.979867,40.399741],[-79.979994,40.400695],[-79.979577,40.401637],[-79.976555,40.40392],[-79.975946,40.404034],[-79.975308,40.404496],[-79.973135,40.404869],[-79.972606,40.404811],[-79.972225,40.405017],[-79.96889,40.405645],[-79.966455,40.407015],[-79.965212,40.407973],[-79.965259,40.408328],[-79.964419,40.409176],[-79.96377,40.409502],[-79.960142,40.409915],[-79.959055,40.409778],[-79.956782,40.41063],[-79.955976,40.410467],[-79.952955,40.410659],[-79.952613,40.408854],[-79.951621,40.405367],[-79.950849,40.403751],[-79.949021,40.401306],[-79.946805,40.399352],[-79.9455,40.398462],[-79.943941,40.397775],[-79.94259,40.397328],[-79.941109,40.397127],[-79.937758,40.39695],[-79.937496,40.395662],[-79.937112,40.395267],[-79.936713,40.395161],[-79.938793,40.395026],[-79.938156,40.39298],[-79.94387,40.394168],[-79.94439,40.394404],[-79.945308,40.394929],[-79.944933,40.395417],[-79.946078,40.395905],[-79.947379,40.396914],[-79.950608,40.399618],[-79.951053,40.400238],[-79.951517,40.400029],[-79.95284,40.401705],[-79.952555,40.402184],[-79.952921,40.40267],[-79.953201,40.402518],[-79.953492,40.403205],[-79.953288,40.403258],[-79.95492,40.406845],[-79.956032,40.406617],[-79.955971,40.406887],[-79.956625,40.407774],[-79.956644,40.408229],[-79.956112,40.409116],[-79.956131,40.410309],[-79.956582,40.410346],[-79.959048,40.40974],[-79.95907,40.409061],[-79.959292,40.409057],[-79.959311,40.408727],[-79.960098,40.408755],[-79.960393,40.407761],[-79.960909,40.407561],[-79.961354,40.408079],[-79.962227,40.408155],[-79.96303,40.407881],[-79.963563,40.408795],[-79.963884,40.408737],[-79.965887,40.40723],[-79.970106,40.404756],[-79.970736,40.403465],[-79.970961,40.403423],[-79.970865,40.402811],[-79.969054,40.400468],[-79.964795,40.399687],[-79.963904,40.399715],[-79.963476,40.398325],[-79.962989,40.398068],[-79.959512,40.397556],[-79.959924,40.395598],[-79.958046,40.39539],[-79.957735,40.389914],[-79.95492,40.389821],[-79.954023,40.39016],[-79.952436,40.390183],[-79.950099,40.390801],[-79.949522,40.390726],[-79.949502,40.39124],[-79.949154,40.391229],[-79.949202,40.390591],[-79.947282,40.390049],[-79.94634,40.390268],[-79.944395,40.390177],[-79.943841,40.389031],[-79.943647,40.389101],[-79.942093,40.388214],[-79.936124,40.3888],[-79.935384,40.383613],[-79.93553,40.382501],[-79.935473,40.38095],[-79.938278,40.38016],[-79.942535,40.37967],[-79.942889,40.379325],[-79.943152,40.379484],[-79.94406,40.378574],[-79.943332,40.378157],[-79.9455,40.376079],[-79.943666,40.374965],[-79.942734,40.375965],[-79.939439,40.373941],[-79.924982,40.375091],[-79.924682,40.373062],[-79.923438,40.370532],[-79.92236,40.370712],[-79.922285,40.368633],[-79.920665,40.365361],[-79.91373,40.365514],[-79.913313,40.364636],[-79.911898,40.365008],[-79.911292,40.364072],[-79.910821,40.362849],[-79.908208,40.363572],[-79.907181,40.361514],[-79.905908,40.362068],[-79.904944,40.362165],[-79.905252,40.362861],[-79.900295,40.365255],[-79.903438,40.371889],[-79.90854,40.370452],[-79.911818,40.372805],[-79.908844,40.376692],[-79.909336,40.376895],[-79.908347,40.378153],[-79.910293,40.378546],[-79.910477,40.378375],[-79.911405,40.379496],[-79.911689,40.380541],[-79.912933,40.38086],[-79.913979,40.380878],[-79.916241,40.380079],[-79.917314,40.381597],[-79.916084,40.382113],[-79.9174,40.38451],[-79.917163,40.384709],[-79.917866,40.388033],[-79.918466,40.388475],[-79.916785,40.390778],[-79.917091,40.390913],[-79.916688,40.391502],[-79.91637,40.391363],[-79.9149,40.39339],[-79.916912,40.393921],[-79.913306,40.396972],[-79.9164,40.398784],[-79.916598,40.398607],[-79.918244,40.399306],[-79.929619,40.389731],[-79.932357,40.391499],[-79.933008,40.397631],[-79.929157,40.399256],[-79.927225,40.400926],[-79.924057,40.404487],[-79.921198,40.408216],[-79.91727,40.411908],[-79.915403,40.413226],[-79.913314,40.41424],[-79.910954,40.415002],[-79.907991,40.415466],[-79.903117,40.415907],[-79.901512,40.415879],[-79.899623,40.41545],[-79.897491,40.425932],[-79.896749,40.426261],[-79.896712,40.42646],[-79.895246,40.42604],[-79.894694,40.425664],[-79.893474,40.425632],[-79.892085,40.426291],[-79.891006,40.427197],[-79.892878,40.428265],[-79.893762,40.426922],[-79.894251,40.427015],[-79.895096,40.428166],[-79.896629,40.427511],[-79.897111,40.427609],[-79.894864,40.438534],[-79.894915,40.438842],[-79.892423,40.450266],[-79.890444,40.449459],[-79.888366,40.447735],[-79.88593,40.446907],[-79.884576,40.449303],[-79.884087,40.449144],[-79.884029,40.448918],[-79.878312,40.449922],[-79.872685,40.449367],[-79.86714,40.449392],[-79.865843,40.455745],[-79.872644,40.457455],[-79.87162,40.458389],[-79.871695,40.460565],[-79.870632,40.460752],[-79.869222,40.460526],[-79.869102,40.460973],[-79.870573,40.46119],[-79.872284,40.460884],[-79.87314,40.460427],[-79.874504,40.459263],[-79.875344,40.459791],[-79.875272,40.459945],[-79.875644,40.459955],[-79.875531,40.461549],[-79.876902,40.461607],[-79.876295,40.459701],[-79.877399,40.45983],[-79.877493,40.459408],[-79.877281,40.459384],[-79.877366,40.45896],[-79.879314,40.459112],[-79.889992,40.461829],[-79.887722,40.473142],[-79.886561,40.478184],[-79.884983,40.478813],[-79.884665,40.479312],[-79.883807,40.483212],[-79.888213,40.483682],[-79.888175,40.48644],[-79.884556,40.486774],[-79.884618,40.488375],[-79.884484,40.488949],[-79.884704,40.490294],[-79.884604,40.490922],[-79.88724,40.491151],[-79.896912,40.492614],[-79.897604,40.487879],[-79.901626,40.488985],[-79.901404,40.48579],[-79.907474,40.487229],[-79.927922,40.491538],[-79.93218,40.491689],[-79.935572,40.491491],[-79.940911,40.490486],[-79.94933,40.488254],[-79.953195,40.486955],[-79.955351,40.485907],[-79.958568,40.483799],[-79.962997,40.479958],[-79.964635,40.478098],[-79.966413,40.475565],[-79.967371,40.474553],[-79.969312,40.471826],[-79.970036,40.471108],[-79.970767,40.470658],[-79.972852,40.470341],[-79.974109,40.469563],[-79.974678,40.469436],[-79.978792,40.47161],[-79.979695,40.470771],[-79.981813,40.469343],[-79.98296,40.467263],[-79.983868,40.466322],[-79.985881,40.471901],[-79.988092,40.476763],[-79.988931,40.47704],[-79.992688,40.477387],[-79.995023,40.477361],[-79.993414,40.476661],[-79.993286,40.474592],[-79.99186,40.473134],[-79.997545,40.472982],[-79.997611,40.474591],[-79.996431,40.474429],[-79.995833,40.474536],[-79.995987,40.477332],[-79.995346,40.477361],[-79.996517,40.479186],[-79.998539,40.478906],[-79.998778,40.479814],[-80.001683,40.480082],[-80.001767,40.482428],[-80.003188,40.482376],[-80.004022,40.497788],[-80.005009,40.49715],[-80.006336,40.49739],[-80.00746,40.497957],[-80.00776,40.497978],[-80.007789,40.497519],[-80.009124,40.497541],[-80.009228,40.498475],[-80.008913,40.499142],[-80.010681,40.499096],[-80.010817,40.501037],[-80.011673,40.500214],[-80.012373,40.498756],[-80.013336,40.498719],[-80.015759,40.499909],[-80.016984,40.499834],[-80.01783,40.497353],[-80.020079,40.497709],[-80.019944,40.496781],[-80.02025,40.495702],[-80.020977,40.494615],[-80.021983,40.493839],[-80.022906,40.495292],[-80.024164,40.495045],[-80.024595,40.495484],[-80.025426,40.495332],[-80.025898,40.4968],[-80.027794,40.496492],[-80.027784,40.4911],[-80.035759,40.490929],[-80.03749,40.490065],[-80.040712,40.491455],[-80.046444,40.487163],[-80.046684,40.487029],[-80.046831,40.487165],[-80.047927,40.486299],[-80.048592,40.48642],[-80.049828,40.485624],[-80.050098,40.484678],[-80.053179,40.48217],[-80.051722,40.481287],[-80.049741,40.479143],[-80.048476,40.4773],[-80.047126,40.474031],[-80.046841,40.472395],[-80.047097,40.471687],[-80.04965,40.469976],[-80.050265,40.469281],[-80.050963,40.467254],[-80.051178,40.465599],[-80.055039,40.464548],[-80.058134,40.463429],[-80.058485,40.463447],[-80.060108,40.464146],[-80.060835,40.464184],[-80.063398,40.462816],[-80.064496,40.462454],[-80.066904,40.461298],[-80.068551,40.460787],[-80.06953,40.460827],[-80.072334,40.461374],[-80.074759,40.463612],[-80.076265,40.464558],[-80.077031,40.46473],[-80.078059,40.464684],[-80.079934,40.463366],[-80.08089,40.461237],[-80.081453,40.460619],[-80.082273,40.459999],[-80.083157,40.459605],[-80.083702,40.459439],[-80.086782,40.459856],[-80.094611,40.459716],[-80.09523,40.459103],[-80.095319,40.457605]],[[-79.991929,40.407125],[-79.989523,40.412223],[-79.988039,40.414434],[-79.988234,40.418469],[-79.986362,40.417556],[-79.982259,40.417667],[-79.982185,40.416083],[-79.981887,40.416106],[-79.981571,40.410415],[-79.980801,40.409485],[-79.981452,40.405855],[-79.987665,40.406075],[-79.991929,40.407125]]],"type":"Polygon"},"id":"REF-CONTEXT-PLACES-4","properties":{"AREALAND":143414819,"AREAWATER":7705630,"BASENAME":"Pittsburgh","CBSAPCI":"Y","CENTLAT":"+40.4396159","CENTLON":"-079.9762566","DISP_CLR":1,"FUNCSTAT":"A","GEOID":"4261000","INTPTLAT":"+40.4398925","INTPTLON":"-079.9754718","LSADC":"25","MTFCC":"G4110","NAME":"Pittsburgh city","NECTAPCI":"N","OBJECTID":32160,"OID":"27890321733443","PLACE":"61000","PLACECC":"C5","PLACENS":"01214818","STATE":"42","canon_status":"REAL_REFERENCE","fictionality":"REAL","real_world_relation":"REFERENCE_ONLY","source_id":"REF-CONTEXT-PLACES"},"type":"Feature"},{"geometry":{"coordinates":[[[-121.55983,38.656344],[-121.56012,38.656339],[-121.558074,38.654971],[-121.557631,38.653765],[-121.552471,38.643357],[-121.54998,38.642076],[-121.549533,38.642284],[-121.549216,38.642935],[-121.548961,38.643041],[-121.548327,38.643079],[-121.546602,38.642539],[-121.546151,38.642574],[-121.54543,38.643383],[-121.54508,38.643534],[-121.542269,38.642764],[-121.540822,38.642545],[-121.539225,38.641965],[-121.537509,38.638743],[-121.535752,38.636502],[-121.535925,38.635505],[-121.53734,38.631621],[-121.53736,38.630927],[-121.545357,38.630908],[-121.54535,38.627258],[-121.5351,38.627298],[-121.533694,38.62756],[-121.525349,38.623115],[-121.524506,38.622381],[-121.524047,38.621735],[-121.524046,38.621486],[-121.534677,38.615916],[-121.536991,38.614233],[-121.538122,38.613018],[-121.547215,38.599737],[-121.546221,38.599595],[-121.545168,38.599707],[-121.545168,38.599355],[-121.544763,38.599375],[-121.544518,38.598894],[-121.544224,38.598997],[-121.54349,38.598506],[-121.54055,38.600769],[-121.540529,38.602386],[-121.53712,38.604431],[-121.535801,38.604934],[-121.534809,38.605128],[-121.534797,38.60295],[-121.527667,38.604604],[-121.515766,38.602704],[-121.511566,38.600904],[-121.508668,38.596803],[-121.507402,38.592],[-121.506269,38.586305],[-121.508266,38.580505],[-121.511566,38.575005],[-121.518966,38.568705],[-121.520965,38.566205],[-121.519816,38.563704],[-121.516537,38.557895],[-121.514066,38.553105],[-121.51129,38.54629],[-121.512618,38.541666],[-121.513546,38.540194],[-121.520366,38.535367],[-121.528467,38.532106],[-121.529774,38.53121],[-121.530498,38.530287],[-121.530976,38.52897],[-121.530597,38.527603],[-121.529922,38.52678],[-121.526557,38.524021],[-121.524562,38.522013],[-121.524068,38.521263],[-121.524133,38.520498],[-121.525056,38.51918],[-121.525747,38.51862],[-121.52872,38.51764],[-121.531396,38.51727],[-121.53888,38.516751],[-121.54354,38.51606],[-121.550663,38.514256],[-121.551782,38.513861],[-121.55277,38.513153],[-121.554598,38.510856],[-121.55855,38.503174],[-121.559036,38.499592],[-121.558937,38.49811],[-121.558526,38.49685],[-121.556978,38.494298],[-121.548406,38.482515],[-121.544792,38.478193],[-121.543664,38.477089],[-121.542717,38.476447],[-121.540066,38.475179],[-121.538312,38.474496],[-121.534524,38.473862],[-121.529337,38.47387],[-121.518823,38.474521],[-121.515076,38.474258],[-121.511882,38.473673],[-121.508867,38.472809],[-121.506612,38.471417],[-121.505838,38.47066],[-121.50509,38.469563],[-121.503221,38.469744],[-121.503116,38.466871],[-121.502835,38.465555],[-121.501412,38.465777],[-121.501104,38.464511],[-121.501217,38.464497],[-121.501207,38.463877],[-121.501059,38.463345],[-121.501615,38.463267],[-121.501355,38.462327],[-121.50188,38.462246],[-121.500787,38.46234],[-121.500622,38.461697],[-121.501777,38.461522],[-121.501149,38.459137],[-121.500116,38.459321],[-121.499691,38.45772],[-121.493793,38.458664],[-121.49307,38.456427],[-121.482515,38.457819],[-121.482534,38.456216],[-121.479024,38.456298],[-121.477329,38.456348],[-121.477774,38.458409],[-121.474839,38.459807],[-121.464419,38.459782],[-121.460669,38.458825],[-121.46084,38.460088],[-121.461,38.460067],[-121.461509,38.463569],[-121.460666,38.463335],[-121.460458,38.461414],[-121.457418,38.461994],[-121.457042,38.462182],[-121.450665,38.460402],[-121.450992,38.459694],[-121.44636,38.459636],[-121.445909,38.457307],[-121.452103,38.457291],[-121.454348,38.452311],[-121.448651,38.452395],[-121.4487,38.455311],[-121.44547,38.455105],[-121.444876,38.452227],[-121.444667,38.449458],[-121.444659,38.444607],[-121.444991,38.441479],[-121.436194,38.441462],[-121.436154,38.437935],[-121.407283,38.438055],[-121.403482,38.437894],[-121.403601,38.439707],[-121.403139,38.440248],[-121.404018,38.442659],[-121.407591,38.450536],[-121.41536,38.466497],[-121.415495,38.46723],[-121.416682,38.468931],[-121.416764,38.469329],[-121.4166,38.469711],[-121.417013,38.470023],[-121.420443,38.477505],[-121.426435,38.477527],[-121.430761,38.481616],[-121.440706,38.481563],[-121.440733,38.484912],[-121.447213,38.483761],[-121.447233,38.485167],[-121.454097,38.485173],[-121.455532,38.488878],[-121.461545,38.500278],[-121.464502,38.500257],[-121.464515,38.503171],[-121.465836,38.503166],[-121.465888,38.5016],[-121.466717,38.501594],[-121.466731,38.501104],[-121.467765,38.501104],[-121.467775,38.500605],[-121.472231,38.50059],[-121.477548,38.517691],[-121.465923,38.517639],[-121.465925,38.518654],[-121.465321,38.518713],[-121.465368,38.519064],[-121.466408,38.519152],[-121.466805,38.519597],[-121.466719,38.520059],[-121.46585,38.52053],[-121.466366,38.521501],[-121.470937,38.521503],[-121.471747,38.52489],[-121.470148,38.524903],[-121.469412,38.524668],[-121.468803,38.523844],[-121.468776,38.522477],[-121.466501,38.522513],[-121.466901,38.523265],[-121.465316,38.523949],[-121.465249,38.524304],[-121.465441,38.524681],[-121.465853,38.524943],[-121.461643,38.52491],[-121.461634,38.525694],[-121.462323,38.525685],[-121.462318,38.532136],[-121.4647,38.532137],[-121.464712,38.533461],[-121.461223,38.533513],[-121.461229,38.534006],[-121.460086,38.534025],[-121.460094,38.539446],[-121.449713,38.539418],[-121.445939,38.532197],[-121.453365,38.532185],[-121.453368,38.533697],[-121.455454,38.533697],[-121.455443,38.532192],[-121.453623,38.532182],[-121.453622,38.53138],[-121.452819,38.53138],[-121.452808,38.530563],[-121.455717,38.530594],[-121.455717,38.529765],[-121.453333,38.52976],[-121.453322,38.528975],[-121.452801,38.528955],[-121.452774,38.524919],[-121.444403,38.524958],[-121.444382,38.523623],[-121.44197,38.523625],[-121.439229,38.517704],[-121.441562,38.517675],[-121.441457,38.512141],[-121.445203,38.512087],[-121.445145,38.510459],[-121.436855,38.510495],[-121.436812,38.507355],[-121.436998,38.507014],[-121.436919,38.504109],[-121.43704,38.503212],[-121.432453,38.503237],[-121.433196,38.504782],[-121.432279,38.504889],[-121.429708,38.503996],[-121.429363,38.504011],[-121.427724,38.504701],[-121.42528,38.504661],[-121.424671,38.504215],[-121.422903,38.504212],[-121.422812,38.503287],[-121.415953,38.503236],[-121.415963,38.501132],[-121.415447,38.501129],[-121.415351,38.499648],[-121.408979,38.499678],[-121.40904,38.503477],[-121.395207,38.503376],[-121.395153,38.500672],[-121.390554,38.500695],[-121.390552,38.503393],[-121.378927,38.503405],[-121.378922,38.50401],[-121.375481,38.504027],[-121.375483,38.503422],[-121.372198,38.503437],[-121.372029,38.506752],[-121.370125,38.510708],[-121.368479,38.510716],[-121.368704,38.511606],[-121.369928,38.511602],[-121.36994,38.513932],[-121.36274,38.513947],[-121.362772,38.518149],[-121.367905,38.518137],[-121.367904,38.519238],[-121.369894,38.519235],[-121.369864,38.522089],[-121.367361,38.522097],[-121.367415,38.523956],[-121.368395,38.523935],[-121.36842,38.525253],[-121.370294,38.525245],[-121.370354,38.52966],[-121.371,38.535138],[-121.370952,38.538759],[-121.386309,38.543097],[-121.386347,38.547038],[-121.378863,38.547067],[-121.378791,38.550995],[-121.378455,38.551137],[-121.37846,38.551525],[-121.375124,38.553093],[-121.378395,38.557308],[-121.382027,38.562546],[-121.382613,38.563974],[-121.382848,38.566761],[-121.39836,38.562805],[-121.398836,38.563606],[-121.398722,38.563871],[-121.400217,38.563536],[-121.400456,38.564246],[-121.399798,38.566406],[-121.399308,38.567089],[-121.40011,38.567509],[-121.39929,38.568388],[-121.397466,38.567985],[-121.396574,38.570683],[-121.405197,38.572045],[-121.405235,38.570699],[-121.411448,38.573682],[-121.411226,38.574323],[-121.413287,38.574342],[-121.413132,38.574537],[-121.413627,38.574541],[-121.414753,38.574948],[-121.41534,38.57487],[-121.415338,38.575348],[-121.416345,38.575395],[-121.421688,38.577442],[-121.421369,38.578278],[-121.419928,38.580593],[-121.420059,38.581383],[-121.41992,38.582553],[-121.419928,38.585247],[-121.420056,38.585126],[-121.419944,38.585765],[-121.419919,38.617849],[-121.419697,38.618605],[-121.419687,38.620097],[-121.415282,38.618168],[-121.415281,38.624541],[-121.41116,38.626121],[-121.410516,38.626555],[-121.376873,38.639449],[-121.367674,38.642272],[-121.365909,38.641729],[-121.364735,38.641935],[-121.364328,38.642181],[-121.362872,38.644005],[-121.363668,38.644555],[-121.364173,38.644574],[-121.365164,38.64377],[-121.366304,38.644756],[-121.366631,38.644643],[-121.367119,38.643998],[-121.370274,38.643607],[-121.371512,38.644547],[-121.372018,38.644691],[-121.372431,38.64457],[-121.372976,38.644125],[-121.376914,38.642592],[-121.378957,38.640758],[-121.380598,38.640516],[-121.382008,38.64102],[-121.383201,38.63989],[-121.383262,38.642191],[-121.384862,38.64243],[-121.386417,38.643207],[-121.3887,38.643682],[-121.399131,38.641233],[-121.400743,38.641093],[-121.402459,38.640608],[-121.403146,38.64061],[-121.405313,38.63862],[-121.405613,38.639186],[-121.405611,38.639803],[-121.410573,38.639894],[-121.410683,38.647132],[-121.417602,38.647201],[-121.417591,38.649954],[-121.41992,38.649968],[-121.419896,38.650971],[-121.423497,38.651085],[-121.423464,38.65171],[-121.422222,38.651739],[-121.422191,38.65272],[-121.421638,38.652718],[-121.421623,38.657299],[-121.422206,38.657341],[-121.422228,38.658033],[-121.42112,38.658434],[-121.419935,38.660044],[-121.41735,38.660051],[-121.415934,38.658325],[-121.415027,38.658316],[-121.415204,38.659551],[-121.415264,38.668976],[-121.438882,38.669225],[-121.456346,38.669116],[-121.456865,38.669433],[-121.466104,38.669553],[-121.466103,38.669899],[-121.477105,38.669996],[-121.47819,38.670152],[-121.478398,38.670974],[-121.479072,38.671756],[-121.484434,38.674187],[-121.48532,38.675035],[-121.485528,38.675756],[-121.485623,38.685189],[-121.520719,38.685198],[-121.52654,38.685504],[-121.557876,38.685603],[-121.557897,38.671057],[-121.550091,38.671059],[-121.550055,38.665435],[-121.550224,38.664381],[-121.549967,38.662011],[-121.550058,38.661128],[-121.550512,38.661139],[-121.550488,38.655623],[-121.557342,38.655554],[-121.55848,38.656055],[-121.55983,38.656344]],[[-121.50272,38.641965],[-121.502702,38.649312],[-121.493137,38.649434],[-121.493267,38.656229],[-121.484065,38.656303],[-121.482123,38.656488],[-121.476392,38.656552],[-121.475014,38.649568],[-121.475492,38.649568],[-121.475548,38.645539],[-121.475912,38.644877],[-121.477169,38.643694],[-121.477562,38.643094],[-121.477749,38.642456],[-121.47781,38.640786],[-121.488316,38.639426],[-121.491328,38.638545],[-121.493202,38.637727],[-121.493233,38.641979],[-121.50272,38.641965]]],"type":"Polygon"},"id":"REF-CONTEXT-PLACES-5","properties":{"AREALAND":255503990,"AREAWATER":5413138,"BASENAME":"Sacramento","CBSAPCI":"Y","CENTLAT":"+38.5676011","CENTLON":"-121.4684797","DISP_CLR":1,"FUNCSTAT":"A","GEOID":"0664000","INTPTLAT":"+38.5676936","INTPTLON":"-121.4681605","LSADC":"25","MTFCC":"G4110","NAME":"Sacramento city","NECTAPCI":"N","OBJECTID":32184,"OID":"27890753043869","PLACE":"64000","PLACECC":"C1","PLACENS":"02411751","STATE":"06","canon_status":"REAL_REFERENCE","fictionality":"REAL","real_world_relation":"REFERENCE_ONLY","source_id":"REF-CONTEXT-PLACES"},"type":"Feature"}],"type":"FeatureCollection"}
