{"features":[{"geometry":{"coordinates":[[-80.148279,39.464937],[-80.148213,39.464998],[-80.148003,39.465288],[-80.147892,39.465761],[-80.147547,39.467569],[-80.147263,39.468378]],"type":"LineString"},"id":"REF-FAIRMONT-RAIL-1","properties":{"canon_status":"REAL_REFERENCE","fcode":20200,"fictionality":"REAL","globalid":"{A59D6F79-E794-4010-9B57-6235756F9BE0}","lengthkm":0.41667654000000004,"loaddate":1758113402000,"name":null,"objectid":926364,"permanent_identifier":"240448b0-480f-4f06-9195-0f13f7d2718f","railclassification":null,"railowner":null,"railownercode":"CSXT","railsubdivision":"FAIRMONT","railusage":"M","real_world_relation":"REFERENCE_ONLY","shape_Length":513.02400239294,"source_datadesc":"FRA Rail Lines 07/2025","source_datasetid":"{14EEFC21-039C-4AB1-8866-0FA5FC6A7AEB}","source_featureid":"403871","source_id":"REF-FAIRMONT-RAIL","source_originator":"Federal Railroad Administration"},"type":"Feature"},{"geometry":{"coordinates":[[-80.123664,39.529392],[-80.123413,39.529479],[-80.122612,39.529757],[-80.121906,39.529894],[-80.121583,39.529932],[-80.121141,39.529984],[-80.120184,39.530013]],"type":"LineString"},"id":"REF-FAIRMONT-RAIL-2","properties":{"canon_status":"REAL_REFERENCE","fcode":20200,"fictionality":"REAL","globalid":"{9BF33433-112C-4FA2-94A6-3881FB3BDD9C}","lengthkm":0.29527682,"loaddate":1758113402000,"name":null,"objectid":926409,"permanent_identifier":"c3b9c1b2-c32c-4858-a594-32624c0e1950","railclassification":null,"railowner":null,"railownercode":"CSXT","railsubdivision":"FAIRMONT","railusage":"M","real_world_relation":"REFERENCE_ONLY","shape_Length":402.28273975216734,"source_datadesc":"FRA Rail Lines 07/2025","source_datasetid":"{14EEFC21-039C-4AB1-8866-0FA5FC6A7AEB}","source_featureid":"404659","source_id":"REF-FAIRMONT-RAIL","source_originator":"Federal Railroad Administration"},"type":"Feature"},{"geometry":{"coordinates":[[-80.123088,39.531259],[-80.12269,39.530891],[-80.122047,39.530297],[-80.121697,39.530127],[-80.121242,39.530062],[-80.120184,39.530013]],"type":"LineString"},"id":"REF-FAIRMONT-RAIL-3","properties":{"canon_status":"REAL_REFERENCE","fcode":20200,"fictionality":"REAL","globalid":"{7F979AB4-EA16-45C6-8F6A-32F3567B1314}","lengthkm":0.2994873,"loaddate":1758113402000,"name":null,"objectid":926410,"permanent_identifier":"024ca8ec-6cb7-47c1-a416-1579414dfca3","railclassification":null,"railowner":"Norfolk Southern Railway Company","railownercode":"NS","railsubdivision":"LOVERIDGE SECONDARY","railusage":"M","real_world_relation":"REFERENCE_ONLY","shape_Length":396.39029459063056,"source_datadesc":"FRA Rail Lines 07/2025","source_datasetid":"{14EEFC21-039C-4AB1-8866-0FA5FC6A7AEB}","source_featureid":"404661","source_id":"REF-FAIRMONT-RAIL","source_originator":"Federal Railroad Administration"},"type":"Feature"},{"geometry":{"coordinates":[[-80.126708,39.527837],[-80.12632,39.528148],[-80.125817,39.528471],[-80.125195,39.528752],[-80.124126,39.529223],[-80.123896,39.529305],[-80.123664,39.529392]],"type":"LineString"},"id":"REF-FAIRMONT-RAIL-4","properties":{"canon_status":"REAL_REFERENCE","fcode":20200,"fictionality":"REAL","globalid":"{773C7986-B6CA-45EA-AEC0-BA5A0D2B5BF2}","lengthkm":0.30951353,"loaddate":1758113402000,"name":null,"objectid":940723,"permanent_identifier":"c7099591-0a96-4728-b439-88b3d23c508b","railclassification":null,"railowner":null,"railownercode":"CSXT","railsubdivision":"FAIRMONT","railusage":"M","real_world_relation":"REFERENCE_ONLY","shape_Length":409.33272332809275,"source_datadesc":"FRA Rail Lines 07/2025","source_datasetid":"{14EEFC21-039C-4AB1-8866-0FA5FC6A7AEB}","source_featureid":"404658","source_id":"REF-FAIRMONT-RAIL","source_originator":"Federal Railroad Administration"},"type":"Feature"},{"geometry":{"coordinates":[[-80.126708,39.527837],[-80.127674,39.527082],[-80.127886,39.526937],[-80.12815,39.526756],[-80.133239,39.522939],[-80.133499,39.522622],[-80.133739,39.52233],[-80.134158,39.521818],[-80.13481,39.520286],[-80.135019,39.519187],[-80.135108,39.518808],[-80.135094,39.518472],[-80.135065,39.517987],[-80.135001,39.517344],[-80.134809,39.516238],[-80.134659,39.515324],[-80.134452,39.514439],[-80.13418,39.513747],[-80.133731,39.513061],[-80.132838,39.511955],[-80.132195,39.51107],[-80.131646,39.509871],[-80.131415,39.509176],[-80.131261,39.508714],[-80.131129,39.508028],[-80.131061,39.507672],[-80.130882,39.506544],[-80.130811,39.505873],[-80.130753,39.505268]],"type":"LineString"},"id":"REF-FAIRMONT-RAIL-5","properties":{"canon_status":"REAL_REFERENCE","fcode":20200,"fictionality":"REAL","globalid":"{7BA7A980-92E5-415E-BF34-1B1D37D4A407}","lengthkm":2.95265482,"loaddate":1758113402000,"name":null,"objectid":955291,"permanent_identifier":"e32efeb0-6bd3-4c3a-abab-0e7ef2b6738b","railclassification":null,"railowner":null,"railownercode":"CSXT","railsubdivision":"FAIRMONT","railusage":"M","real_world_relation":"REFERENCE_ONLY","shape_Length":3695.5474160658214,"source_datadesc":"FRA Rail Lines 07/2025","source_datasetid":"{14EEFC21-039C-4AB1-8866-0FA5FC6A7AEB}","source_featureid":"405098","source_id":"REF-FAIRMONT-RAIL","source_originator":"Federal Railroad Administration"},"type":"Feature"},{"geometry":{"coordinates":[[-80.125557,39.407499],[-80.126773,39.410088],[-80.127223,39.410858],[-80.127453,39.411138],[-80.128043,39.411618],[-80.128373,39.411828],[-80.128753,39.412038],[-80.129163,39.412218],[-80.130083,39.412468],[-80.130553,39.412538],[-80.131063,39.412568],[-80.131803,39.412558],[-80.131878,39.412556],[-80.132813,39.412528],[-80.133952,39.412443],[-80.134283,39.412418],[-80.134903,39.412438],[-80.135483,39.412498],[-80.136033,39.412598],[-80.136593,39.412758],[-80.137448,39.413057],[-80.138133,39.413298],[-80.13934,39.413627],[-80.140403,39.413918],[-80.141163,39.414178],[-80.141873,39.414488],[-80.142973,39.415068],[-80.143373,39.415358],[-80.143763,39.415698],[-80.144103,39.416078],[-80.144483,39.416548],[-80.144863,39.417078],[-80.146453,39.419308],[-80.146733,39.419818],[-80.146883,39.420198],[-80.147003,39.420638],[-80.147083,39.421128],[-80.147143,39.421618],[-80.147153,39.422098],[-80.147093,39.422438],[-80.146973,39.422818],[-80.146823,39.423118],[-80.146553,39.423478],[-80.146263,39.423748],[-80.145883,39.424038],[-80.145483,39.424248],[-80.145343,39.424299],[-80.145067,39.424401],[-80.144993,39.424428],[-80.144503,39.424558],[-80.142573,39.424908],[-80.142128,39.425033],[-80.141933,39.425088],[-80.140773,39.425518],[-80.139773,39.426148],[-80.138763,39.426958],[-80.137603,39.427978],[-80.136179,39.429224],[-80.134822,39.430473],[-80.134204,39.431175],[-80.133773,39.431718],[-80.133283,39.432338],[-80.133185,39.432492],[-80.132893,39.432948],[-80.13201,39.434254],[-80.131639,39.434975],[-80.131443,39.435468]],"type":"LineString"},"id":"REF-FAIRMONT-RAIL-6","properties":{"canon_status":"REAL_REFERENCE","fcode":20200,"fictionality":"REAL","globalid":"{BEF72B8B-2E31-4C27-AEC8-991B957DFCE7}","lengthkm":4.8834165,"loaddate":1758113402000,"name":null,"objectid":969500,"permanent_identifier":"c66fa8d2-c4de-425a-827b-1c47b29cb308","railclassification":null,"railowner":null,"railownercode":"CSXT","railsubdivision":"FAIRMONT","railusage":"M","real_world_relation":"REFERENCE_ONLY","shape_Length":6308.634494919599,"source_datadesc":"FRA Rail Lines 07/2025","source_datasetid":"{14EEFC21-039C-4AB1-8866-0FA5FC6A7AEB}","source_featureid":"404526","source_id":"REF-FAIRMONT-RAIL","source_originator":"Federal Railroad Administration"},"type":"Feature"},{"geometry":{"coordinates":[[-80.124072,39.493966],[-80.124255,39.494153],[-80.125236,39.495151],[-80.126863,39.496638],[-80.127713,39.497364],[-80.12837,39.498042],[-80.128834,39.498606],[-80.129262,39.499206],[-80.129345,39.499362],[-80.129505,39.499663],[-80.129683,39.500184],[-80.129724,39.500297],[-80.130462,39.502357],[-80.130652,39.503047],[-80.130736,39.504582],[-80.130753,39.505268]],"type":"LineString"},"id":"REF-FAIRMONT-RAIL-7","properties":{"canon_status":"REAL_REFERENCE","fcode":20200,"fictionality":"REAL","globalid":"{4DBC0782-EED4-4270-A085-AC8B41E7D412}","lengthkm":1.47791232,"loaddate":1758113402000,"name":null,"objectid":969501,"permanent_identifier":"8929af08-6375-45f0-b59a-1452cdada760","railclassification":null,"railowner":null,"railownercode":"CSXT","railsubdivision":"FAIRMONT","railusage":"M","real_world_relation":"REFERENCE_ONLY","shape_Length":1850.3026776834772,"source_datadesc":"FRA Rail Lines 07/2025","source_datasetid":"{14EEFC21-039C-4AB1-8866-0FA5FC6A7AEB}","source_featureid":"404534","source_id":"REF-FAIRMONT-RAIL","source_originator":"Federal Railroad Administration"},"type":"Feature"},{"geometry":{"coordinates":[[-80.129919,39.485771],[-80.128684,39.48585]],"type":"LineString"},"id":"REF-FAIRMONT-RAIL-8","properties":{"canon_status":"REAL_REFERENCE","fcode":20201,"fictionality":"REAL","globalid":"{1C26FF97-1733-49DB-89FE-B52ED12C8858}","lengthkm":0.10048106,"loaddate":1758113402000,"name":"FAIRMONT YARD","objectid":969531,"permanent_identifier":"1964fbe2-a66e-407d-862b-532782aa5315","railclassification":null,"railowner":null,"railownercode":"CSXT","railsubdivision":null,"railusage":"O","real_world_relation":"REFERENCE_ONLY","shape_Length":137.93874441145223,"source_datadesc":"FRA Rail Lines 07/2025","source_datasetid":"{14EEFC21-039C-4AB1-8866-0FA5FC6A7AEB}","source_featureid":"405092","source_id":"REF-FAIRMONT-RAIL","source_originator":"Federal Railroad Administration"},"type":"Feature"},{"geometry":{"coordinates":[[-80.128684,39.48585],[-80.127642,39.486164],[-80.125707,39.487028],[-80.124858,39.487477],[-80.124044,39.488077],[-80.123616,39.488513],[-80.12313,39.489291],[-80.122802,39.489983],[-80.122709,39.490583],[-80.122716,39.491339]],"type":"LineString"},"id":"REF-FAIRMONT-RAIL-9","properties":{"canon_status":"REAL_REFERENCE","fcode":20201,"fictionality":"REAL","globalid":"{21DC7132-A6C1-417A-9E0F-7CE8D725206E}","lengthkm":0.8705688300000001,"loaddate":1758113402000,"name":"FAIRMONT YARD","objectid":969532,"permanent_identifier":"174ae869-53d7-46eb-b002-872d2da000bc","railclassification":null,"railowner":null,"railownercode":"CSXT","railsubdivision":null,"railusage":"O","real_world_relation":"REFERENCE_ONLY","shape_Length":1119.294784890129,"source_datadesc":"FRA Rail Lines 07/2025","source_datasetid":"{14EEFC21-039C-4AB1-8866-0FA5FC6A7AEB}","source_featureid":"405094","source_id":"REF-FAIRMONT-RAIL","source_originator":"Federal Railroad Administration"},"type":"Feature"},{"geometry":{"coordinates":[[-80.123344,39.49286],[-80.122952,39.492217],[-80.12288,39.492025],[-80.12278,39.491689],[-80.122747,39.491506],[-80.122716,39.491339]],"type":"LineString"},"id":"REF-FAIRMONT-RAIL-10","properties":{"canon_status":"REAL_REFERENCE","fcode":20201,"fictionality":"REAL","globalid":"{2D63CE21-D08C-456C-AD69-B5925F9CF674}","lengthkm":0.18753291,"loaddate":1758113402000,"name":"FAIRMONT YARD","objectid":983845,"permanent_identifier":"67f8b98e-3019-48d7-84f3-b6ea604f7007","railclassification":null,"railowner":null,"railownercode":"CSXT","railsubdivision":null,"railusage":"O","real_world_relation":"REFERENCE_ONLY","shape_Length":231.9970919466612,"source_datadesc":"FRA Rail Lines 07/2025","source_datasetid":"{14EEFC21-039C-4AB1-8866-0FA5FC6A7AEB}","source_featureid":"405095","source_id":"REF-FAIRMONT-RAIL","source_originator":"Federal Railroad Administration"},"type":"Feature"},{"geometry":{"coordinates":[[-80.110957,39.532143],[-80.109994,39.532173],[-80.109519,39.532135],[-80.108852,39.532083],[-80.108072,39.531992]],"type":"LineString"},"id":"REF-FAIRMONT-RAIL-11","properties":{"canon_status":"REAL_REFERENCE","fcode":20200,"fictionality":"REAL","globalid":"{A6330B50-CAE0-4F9C-97B7-C19921E05EF3}","lengthkm":0.23511542,"loaddate":1758113402000,"name":null,"objectid":998214,"permanent_identifier":"0151af7a-6d20-45e0-a7d9-c1da983b32f9","railclassification":null,"railowner":"Norfolk Southern Railway Company","railownercode":"NS","railsubdivision":"LOVERIDGE SECONDARY","railusage":"M","real_world_relation":"REFERENCE_ONLY","shape_Length":322.8288388723639,"source_datadesc":"FRA Rail Lines 07/2025","source_datasetid":"{14EEFC21-039C-4AB1-8866-0FA5FC6A7AEB}","source_featureid":"405638","source_id":"REF-FAIRMONT-RAIL","source_originator":"Federal Railroad Administration"},"type":"Feature"},{"geometry":{"coordinates":[[-80.171829,39.433602],[-80.171888,39.434233],[-80.171948,39.434851],[-80.172031,39.435244],[-80.172173,39.435918],[-80.172864,39.438254],[-80.173033,39.438758],[-80.173243,39.439098],[-80.173923,39.440018],[-80.174023,39.440118],[-80.174323,39.440408],[-80.174529,39.440584],[-80.174743,39.440768],[-80.174988,39.440955],[-80.175648,39.441463],[-80.175693,39.441498],[-80.175804,39.44156],[-80.178403,39.443008],[-80.179163,39.443598],[-80.179943,39.444288],[-80.180253,39.444658],[-80.180473,39.445048],[-80.180633,39.445438],[-80.180713,39.445748],[-80.180723,39.446058],[-80.180653,39.446428],[-80.180523,39.446808],[-80.180303,39.447228],[-80.180023,39.447558],[-80.179673,39.447848],[-80.179283,39.448098],[-80.178853,39.448278],[-80.178842,39.448282],[-80.178303,39.448468]],"type":"LineString"},"id":"REF-FAIRMONT-RAIL-12","properties":{"canon_status":"REAL_REFERENCE","fcode":20200,"fictionality":"REAL","globalid":"{AFEFF38C-50F7-4AB8-8EF6-6151DFB7C5CC}","lengthkm":2.07382124,"loaddate":1758113402000,"name":null,"objectid":998536,"permanent_identifier":"76a47309-fa66-47a3-accd-ea7e28378f5b","railclassification":null,"railowner":null,"railownercode":"CSXT","railsubdivision":"FAIRMONT","railusage":"M","real_world_relation":"REFERENCE_ONLY","shape_Length":2620.3440556519263,"source_datadesc":"FRA Rail Lines 07/2025","source_datasetid":"{14EEFC21-039C-4AB1-8866-0FA5FC6A7AEB}","source_featureid":"411314","source_id":"REF-FAIRMONT-RAIL","source_originator":"Federal Railroad Administration"},"type":"Feature"},{"geometry":{"coordinates":[[-80.142586,39.544659],[-80.142897,39.544743],[-80.143173,39.544796],[-80.143644,39.544815],[-80.144128,39.544809],[-80.145073,39.544587],[-80.146959,39.544143],[-80.147256,39.544073],[-80.148123,39.544001],[-80.149224,39.544079],[-80.149869,39.544217],[-80.1503,39.54445],[-80.150581,39.544665],[-80.150784,39.544946],[-80.150868,39.545287],[-80.150796,39.545759],[-80.150348,39.54732],[-80.1503,39.547793],[-80.150432,39.548187],[-80.150745,39.548456],[-80.151129,39.548664],[-80.151472,39.548779],[-80.152145,39.548862],[-80.152716,39.548911],[-80.153153,39.549019],[-80.153481,39.549204],[-80.153721,39.549419],[-80.153966,39.549862],[-80.154229,39.55107],[-80.154681,39.552114],[-80.155272,39.552595],[-80.155879,39.5529],[-80.156364,39.553019],[-80.157803,39.553254],[-80.158122,39.553306],[-80.15881,39.553336],[-80.159205,39.553239],[-80.159572,39.553149],[-80.160155,39.552852],[-80.160496,39.552571],[-80.160793,39.552158],[-80.161091,39.551384],[-80.161176,39.551131],[-80.16118,39.55112],[-80.161256,39.550896],[-80.161483,39.550621],[-80.161758,39.550424],[-80.162165,39.550251],[-80.162613,39.550149],[-80.163127,39.550197],[-80.163642,39.550358],[-80.164036,39.550621],[-80.164553,39.551134],[-80.164921,39.5515],[-80.165262,39.551752],[-80.165741,39.551943],[-80.167337,39.552397],[-80.16772,39.552565]],"type":"LineString"},"id":"REF-FAIRMONT-RAIL-13","properties":{"canon_status":"REAL_REFERENCE","fcode":20200,"fictionality":"REAL","globalid":"{30FF922F-7B72-4954-B9B5-F6ED5796B4AF}","lengthkm":3.17938013,"loaddate":1758113402000,"name":null,"objectid":1013512,"permanent_identifier":"3d3e66e4-45da-4df9-828a-5ddac0d2b274","railclassification":null,"railowner":"Norfolk Southern Railway Company","railownercode":"NS","railsubdivision":"LOVERIDGE SECONDARY","railusage":"M","real_world_relation":"REFERENCE_ONLY","shape_Length":4159.2199772336,"source_datadesc":"FRA Rail Lines 07/2025","source_datasetid":"{14EEFC21-039C-4AB1-8866-0FA5FC6A7AEB}","source_featureid":"420983","source_id":"REF-FAIRMONT-RAIL","source_originator":"Federal Railroad Administration"},"type":"Feature"},{"geometry":{"coordinates":[[-80.081761,39.551762],[-80.080879,39.552127],[-80.080022,39.552356],[-80.078588,39.552664],[-80.077452,39.552864],[-80.076237,39.552943],[-80.075221,39.552814],[-80.07418,39.552546],[-80.07322,39.552166],[-80.073078,39.552086],[-80.069953,39.550304],[-80.068276,39.54963],[-80.066799,39.549216],[-80.065232,39.549259],[-80.064057,39.549696],[-80.063784,39.549823],[-80.063575,39.54992],[-80.063101,39.550304],[-80.062762,39.550692],[-80.062384,39.55126],[-80.0609,39.555134],[-80.060541,39.555941],[-80.060282,39.556409],[-80.059919,39.556872],[-80.059148,39.557809],[-80.057576,39.559376],[-80.057214,39.559736],[-80.056151,39.560403],[-80.055183,39.56101]],"type":"LineString"},"id":"REF-FAIRMONT-RAIL-14","properties":{"canon_status":"REAL_REFERENCE","fcode":20200,"fictionality":"REAL","globalid":"{11E21C5D-0DFA-4563-BE9D-FB0FF2B09B38}","lengthkm":3.1533092700000003,"loaddate":1758113402000,"name":null,"objectid":1013584,"permanent_identifier":"2d896b63-7662-4259-b5ca-3dee7fcd5400","railclassification":null,"railowner":"Norfolk Southern Railway Company","railownercode":"NS","railsubdivision":"LOVERIDGE SECONDARY","railusage":"M","real_world_relation":"REFERENCE_ONLY","shape_Length":4118.424228991397,"source_datadesc":"FRA Rail Lines 07/2025","source_datasetid":"{14EEFC21-039C-4AB1-8866-0FA5FC6A7AEB}","source_featureid":"422731","source_id":"REF-FAIRMONT-RAIL","source_originator":"Federal Railroad Administration"},"type":"Feature"},{"geometry":{"coordinates":[[-80.087573,39.388368],[-80.088053,39.388718],[-80.088453,39.389068],[-80.088713,39.389378],[-80.088893,39.389658],[-80.089453,39.391228],[-80.089763,39.391908],[-80.092363,39.395848],[-80.094033,39.398298],[-80.094503,39.399018],[-80.095713,39.400868],[-80.096064,39.401384],[-80.096643,39.402238],[-80.096797,39.402399],[-80.097323,39.402948],[-80.097723,39.403258],[-80.098173,39.403568],[-80.098663,39.403868],[-80.099223,39.404118],[-80.099783,39.404378],[-80.100323,39.404668],[-80.100723,39.404948],[-80.101023,39.405238],[-80.101243,39.405518],[-80.101469,39.405902]],"type":"LineString"},"id":"REF-FAIRMONT-RAIL-15","properties":{"canon_status":"REAL_REFERENCE","fcode":20200,"fictionality":"REAL","globalid":"{A74E2EB6-1B6B-41C2-A63D-EECEF5D67D67}","lengthkm":2.3947665099999997,"loaddate":1758113402000,"name":null,"objectid":1027192,"permanent_identifier":"f2bf5d9d-8dfb-495a-bdb6-b16f9878fd86","railclassification":null,"railowner":null,"railownercode":"CSXT","railsubdivision":"FAIRMONT","railusage":"M","real_world_relation":"REFERENCE_ONLY","shape_Length":3017.535503096833,"source_datadesc":"FRA Rail Lines 07/2025","source_datasetid":"{14EEFC21-039C-4AB1-8866-0FA5FC6A7AEB}","source_featureid":"404117","source_id":"REF-FAIRMONT-RAIL","source_originator":"Federal Railroad Administration"},"type":"Feature"},{"geometry":{"coordinates":[[-80.139613,39.484018],[-80.139301,39.484176],[-80.138433,39.484618],[-80.137313,39.485098],[-80.136753,39.485298],[-80.136203,39.485448],[-80.136149,39.485459],[-80.135715,39.485549],[-80.135673,39.485558],[-80.135153,39.485608],[-80.134955,39.485606],[-80.133363,39.485588],[-80.131818,39.485457],[-80.131691,39.48545],[-80.130012,39.48535],[-80.12982,39.485359],[-80.12973,39.485363],[-80.129369,39.485379],[-80.128683,39.485468],[-80.128003,39.485608],[-80.127363,39.485798],[-80.125923,39.486378],[-80.125143,39.486738],[-80.124432,39.487107],[-80.124353,39.487148],[-80.123923,39.487408],[-80.123463,39.487798],[-80.123063,39.488278],[-80.122763,39.488768],[-80.122553,39.489248],[-80.122472,39.489537],[-80.122403,39.489778],[-80.122399,39.48982],[-80.122389,39.489934],[-80.122385,39.489967],[-80.122353,39.490308],[-80.122363,39.490808],[-80.12272,39.491902],[-80.12272,39.491902],[-80.12272,39.491903],[-80.122721,39.491905],[-80.12293,39.492389],[-80.123259,39.492917],[-80.123333,39.493022],[-80.123708,39.493552]],"type":"LineString"},"id":"REF-FAIRMONT-RAIL-16","properties":{"canon_status":"REAL_REFERENCE","fcode":20200,"fictionality":"REAL","globalid":"{25F5D52C-3CED-4F9D-864D-0F57427B1A5C}","lengthkm":2.16552494,"loaddate":1758113402000,"name":null,"objectid":1027204,"permanent_identifier":"e8be3ba0-35d3-4a47-945c-20e337600cfc","railclassification":null,"railowner":null,"railownercode":"CSXT","railsubdivision":"FAIRMONT","railusage":"M","real_world_relation":"REFERENCE_ONLY","shape_Length":2841.8615691630685,"source_datadesc":"FRA Rail Lines 07/2025","source_datasetid":"{14EEFC21-039C-4AB1-8866-0FA5FC6A7AEB}","source_featureid":"404462","source_id":"REF-FAIRMONT-RAIL","source_originator":"Federal Railroad Administration"},"type":"Feature"},{"geometry":{"coordinates":[[-80.129919,39.485771],[-80.129148,39.485914],[-80.128248,39.486157],[-80.125764,39.487135],[-80.124858,39.487684],[-80.124108,39.488291],[-80.123733,39.488758],[-80.123558,39.488977],[-80.123369,39.489286],[-80.123244,39.48949],[-80.123142,39.489745],[-80.123137,39.489759],[-80.122895,39.490361],[-80.122872,39.490673],[-80.122859,39.490861],[-80.122902,39.491418],[-80.122994,39.492017],[-80.123344,39.49286]],"type":"LineString"},"id":"REF-FAIRMONT-RAIL-17","properties":{"canon_status":"REAL_REFERENCE","fcode":20201,"fictionality":"REAL","globalid":"{E67250F2-21ED-4C3C-A772-8D1D856C695B}","lengthkm":1.1302554,"loaddate":1758113402000,"name":"FAIRMONT YARD","objectid":1027234,"permanent_identifier":"7dc911fe-073c-44cb-b466-0f4243891d1f","railclassification":null,"railowner":null,"railownercode":"CSXT","railsubdivision":null,"railusage":"O","real_world_relation":"REFERENCE_ONLY","shape_Length":1451.1029004128372,"source_datadesc":"FRA Rail Lines 07/2025","source_datasetid":"{14EEFC21-039C-4AB1-8866-0FA5FC6A7AEB}","source_featureid":"405093","source_id":"REF-FAIRMONT-RAIL","source_originator":"Federal Railroad Administration"},"type":"Feature"},{"geometry":{"coordinates":[[-80.178303,39.448468],[-80.177943,39.448548],[-80.177488,39.448597],[-80.177483,39.448598],[-80.176263,39.448688],[-80.175893,39.448707],[-80.175683,39.448718],[-80.175173,39.448778],[-80.173403,39.449178],[-80.172931,39.449325],[-80.172763,39.449378],[-80.172114,39.449591],[-80.172063,39.449608],[-80.171323,39.449888],[-80.170372,39.450309],[-80.16954,39.450678],[-80.168343,39.451208],[-80.167503,39.451528],[-80.165803,39.452088],[-80.164296,39.452534],[-80.162952,39.452933],[-80.162293,39.453128],[-80.160893,39.453698],[-80.159699,39.454282],[-80.159463,39.454398],[-80.158743,39.454778],[-80.158213,39.455138],[-80.157753,39.455528],[-80.156583,39.457038],[-80.156006,39.457821],[-80.155683,39.458258],[-80.155323,39.459178],[-80.155062,39.460145],[-80.154983,39.460438],[-80.154763,39.461098],[-80.154662,39.461313],[-80.154524,39.461607],[-80.154523,39.461608],[-80.15452,39.461613],[-80.154193,39.462118],[-80.153763,39.462648],[-80.153435,39.463012],[-80.153303,39.463158],[-80.152913,39.463478],[-80.152463,39.463778],[-80.152196,39.463905],[-80.152043,39.463978],[-80.1519,39.464027],[-80.151603,39.464128],[-80.151508,39.464148],[-80.151497,39.46415],[-80.151133,39.464228],[-80.150593,39.464308],[-80.150258,39.46432],[-80.149793,39.464338],[-80.149203,39.464418],[-80.148963,39.464498],[-80.148703,39.464618],[-80.148624,39.464669],[-80.148443,39.464788],[-80.148279,39.464937]],"type":"LineString"},"id":"REF-FAIRMONT-RAIL-18","properties":{"canon_status":"REAL_REFERENCE","fcode":20200,"fictionality":"REAL","globalid":"{70996D6D-CDCB-403D-89A4-5D79555759D8}","lengthkm":3.3466538,"loaddate":1758113402000,"name":null,"objectid":1041553,"permanent_identifier":"3212bca9-f20e-4b89-8175-1e6653e0f75a","railclassification":null,"railowner":null,"railownercode":"CSXT","railsubdivision":"FAIRMONT","railusage":"M","real_world_relation":"REFERENCE_ONLY","shape_Length":4394.972573311717,"source_datadesc":"FRA Rail Lines 07/2025","source_datasetid":"{14EEFC21-039C-4AB1-8866-0FA5FC6A7AEB}","source_featureid":"402968","source_id":"REF-FAIRMONT-RAIL","source_originator":"Federal Railroad Administration"},"type":"Feature"},{"geometry":{"coordinates":[[-80.120184,39.530013],[-80.119502,39.530026],[-80.118671,39.530062],[-80.11828,39.530085],[-80.118276,39.530086],[-80.117745,39.530205],[-80.117003,39.530438],[-80.116554,39.530582],[-80.115406,39.530965],[-80.114362,39.531335],[-80.113977,39.531452],[-80.112796,39.53181],[-80.112039,39.531969],[-80.110957,39.532143]],"type":"LineString"},"id":"REF-FAIRMONT-RAIL-19","properties":{"canon_status":"REAL_REFERENCE","fcode":20200,"fictionality":"REAL","globalid":"{6ADA399D-DB88-4EF1-8FBE-02FEB7318279}","lengthkm":0.79730298,"loaddate":1758113402000,"name":null,"objectid":1055790,"permanent_identifier":"928599e2-596c-4c95-a99b-de2acad3ae9a","railclassification":null,"railowner":"Norfolk Southern Railway Company","railownercode":"NS","railsubdivision":"LOVERIDGE SECONDARY","railusage":"M","real_world_relation":"REFERENCE_ONLY","shape_Length":1082.4368045044557,"source_datadesc":"FRA Rail Lines 07/2025","source_datasetid":"{14EEFC21-039C-4AB1-8866-0FA5FC6A7AEB}","source_featureid":"404662","source_id":"REF-FAIRMONT-RAIL","source_originator":"Federal Railroad Administration"},"type":"Feature"},{"geometry":{"coordinates":[[-80.131443,39.435468],[-80.131343,39.435618],[-80.131013,39.436448],[-80.130703,39.437548],[-80.130453,39.438808],[-80.130423,39.439348],[-80.130453,39.439858],[-80.130563,39.440318],[-80.130753,39.440728],[-80.130983,39.441038],[-80.131273,39.441348],[-80.131527,39.441526],[-80.132027,39.441835],[-80.132526,39.442085],[-80.133026,39.442263],[-80.133643,39.442408],[-80.134713,39.442498],[-80.135153,39.442478],[-80.135573,39.442428],[-80.136353,39.442258],[-80.136733,39.442138],[-80.138676,39.441198],[-80.139173,39.440958],[-80.140849,39.439943],[-80.141583,39.439498],[-80.142233,39.439148],[-80.142733,39.438958],[-80.143183,39.438828],[-80.144113,39.438658],[-80.145354,39.438495],[-80.145483,39.438478],[-80.146843,39.438278],[-80.147343,39.438158],[-80.147385,39.438145],[-80.147689,39.438047],[-80.147843,39.437998],[-80.148383,39.437768],[-80.14845,39.437736],[-80.149383,39.437288],[-80.150373,39.436738],[-80.150913,39.436388],[-80.152543,39.435248],[-80.153174,39.434783],[-80.153683,39.434408],[-80.154863,39.433478],[-80.155533,39.433008],[-80.156043,39.432668],[-80.157273,39.431968],[-80.157873,39.431688],[-80.158453,39.431458],[-80.159633,39.431048],[-80.160812,39.43071],[-80.160993,39.430658],[-80.161773,39.430488],[-80.162573,39.430348],[-80.163303,39.430248],[-80.163549,39.430237],[-80.16391,39.43022],[-80.163963,39.430218],[-80.164603,39.430218],[-80.164877,39.430218],[-80.165233,39.430218],[-80.165863,39.430258],[-80.166938,39.430441],[-80.167213,39.430488],[-80.168563,39.430798],[-80.169293,39.430988],[-80.169664,39.43113],[-80.169734,39.431156],[-80.170103,39.431298],[-80.170637,39.431618],[-80.170703,39.431658],[-80.170904,39.431802],[-80.170953,39.431838],[-80.171163,39.432058],[-80.171413,39.432294],[-80.171662,39.432639],[-80.171793,39.433079],[-80.171829,39.433602]],"type":"LineString"},"id":"REF-FAIRMONT-RAIL-20","properties":{"canon_status":"REAL_REFERENCE","fcode":20200,"fictionality":"REAL","globalid":"{8956D03E-7E98-4C01-91F7-7C76EE11A763}","lengthkm":4.72915737,"loaddate":1758113402000,"name":null,"objectid":1070110,"permanent_identifier":"7e545ce7-46f5-4024-be2d-24199118744b","railclassification":null,"railowner":null,"railownercode":"CSXT","railsubdivision":"FAIRMONT","railusage":"M","real_world_relation":"REFERENCE_ONLY","shape_Length":6217.3542209911475,"source_datadesc":"FRA Rail Lines 07/2025","source_datasetid":"{14EEFC21-039C-4AB1-8866-0FA5FC6A7AEB}","source_featureid":"404527","source_id":"REF-FAIRMONT-RAIL","source_originator":"Federal Railroad Administration"},"type":"Feature"},{"geometry":{"coordinates":[[-80.123664,39.529392],[-80.123324,39.529584],[-80.123127,39.529818],[-80.123032,39.529931],[-80.122861,39.530326],[-80.122839,39.53063],[-80.122905,39.530971],[-80.123088,39.531259]],"type":"LineString"},"id":"REF-FAIRMONT-RAIL-21","properties":{"canon_status":"REAL_REFERENCE","fcode":20200,"fictionality":"REAL","globalid":"{04EEC64F-AA59-4B3D-8533-93AA12EC44CC}","lengthkm":0.24496432,"loaddate":1758113402000,"name":null,"objectid":1070120,"permanent_identifier":"52b7c182-b299-478d-9ab8-e34a2c300935","railclassification":null,"railowner":null,"railownercode":"CSXT","railsubdivision":"FAIRMONT","railusage":"M","real_world_relation":"REFERENCE_ONLY","shape_Length":306.71905678525843,"source_datadesc":"FRA Rail Lines 07/2025","source_datasetid":"{14EEFC21-039C-4AB1-8866-0FA5FC6A7AEB}","source_featureid":"404660","source_id":"REF-FAIRMONT-RAIL","source_originator":"Federal Railroad Administration"},"type":"Feature"},{"geometry":{"coordinates":[[-80.130753,39.505268],[-80.130696,39.505562],[-80.130688,39.505602],[-80.130675,39.505666],[-80.130518,39.505952],[-80.130204,39.50638],[-80.129133,39.507436],[-80.128878,39.507642],[-80.128833,39.507678],[-80.128623,39.508018],[-80.12862,39.508028],[-80.128536,39.508261],[-80.128483,39.508408],[-80.128423,39.508958],[-80.128513,39.509292],[-80.128563,39.509478],[-80.128603,39.509574]],"type":"LineString"},"id":"REF-FAIRMONT-RAIL-22","properties":{"canon_status":"REAL_REFERENCE","fcode":20200,"fictionality":"REAL","globalid":"{2DCA1216-E864-4CD1-9C01-7E578E0A70AF}","lengthkm":0.55919978,"loaddate":1758113402000,"name":null,"objectid":1070140,"permanent_identifier":"253d8e61-1fe3-42b9-9c18-0ca6363f5f0b","railclassification":null,"railowner":null,"railownercode":"CSXT","railsubdivision":"AMERICAN FIBERS IT","railusage":"O","real_world_relation":"REFERENCE_ONLY","shape_Length":699.2418396408339,"source_datadesc":"FRA Rail Lines 07/2025","source_datasetid":"{14EEFC21-039C-4AB1-8866-0FA5FC6A7AEB}","source_featureid":"405097","source_id":"REF-FAIRMONT-RAIL","source_originator":"Federal Railroad Administration"},"type":"Feature"},{"geometry":{"coordinates":[[-80.107357,39.531909],[-80.106431,39.531742],[-80.106077,39.531682],[-80.106005,39.53167],[-80.105581,39.531563],[-80.105525,39.531545],[-80.104707,39.531284],[-80.10457,39.53124],[-80.104212,39.531091],[-80.103864,39.530947],[-80.103159,39.530616],[-80.103099,39.530588],[-80.102995,39.530517],[-80.102142,39.529936],[-80.101616,39.529499],[-80.101048,39.528985],[-80.100354,39.528501],[-80.098518,39.527251],[-80.09764,39.526672],[-80.096443,39.525839],[-80.095592,39.525132],[-80.094988,39.524561],[-80.094791,39.524336],[-80.09374,39.523144],[-80.092458,39.521641],[-80.09202,39.521219],[-80.091164,39.520783],[-80.090603,39.5206],[-80.089978,39.520529],[-80.089524,39.520529],[-80.08877,39.520601],[-80.087993,39.520846],[-80.087479,39.521127],[-80.087192,39.521337],[-80.086994,39.52157],[-80.086677,39.521899],[-80.086169,39.522778],[-80.085631,39.523797],[-80.085279,39.524587],[-80.084796,39.525456],[-80.08441,39.525959],[-80.083941,39.526472]],"type":"LineString"},"id":"REF-FAIRMONT-RAIL-23","properties":{"canon_status":"REAL_REFERENCE","fcode":20200,"fictionality":"REAL","globalid":"{4F23B27A-7A28-4A2E-B205-F0A1D147D09A}","lengthkm":2.9185439499999997,"loaddate":1758113402000,"name":null,"objectid":1070144,"permanent_identifier":"18182518-bb8f-4ad7-9c65-c8565ba31f5e","railclassification":null,"railowner":"Norfolk Southern Railway Company","railownercode":"NS","railsubdivision":"LOVERIDGE SECONDARY","railusage":"M","real_world_relation":"REFERENCE_ONLY","shape_Length":3779.778430034084,"source_datadesc":"FRA Rail Lines 07/2025","source_datasetid":"{14EEFC21-039C-4AB1-8866-0FA5FC6A7AEB}","source_featureid":"405156","source_id":"REF-FAIRMONT-RAIL","source_originator":"Federal Railroad Administration"},"type":"Feature"},{"geometry":{"coordinates":[[-80.083941,39.526472],[-80.083619,39.526709],[-80.08308,39.527106]],"type":"LineString"},"id":"REF-FAIRMONT-RAIL-24","properties":{"canon_status":"REAL_REFERENCE","fcode":20200,"fictionality":"REAL","globalid":"{1416C2DD-D69A-4B4A-A8CF-DCE3E74081EB}","lengthkm":0.10224342,"loaddate":1758113402000,"name":null,"objectid":1084377,"permanent_identifier":"37edc48e-4834-4647-b122-9734bbeaa69e","railclassification":null,"railowner":"Norfolk Southern Railway Company","railownercode":"NS","railsubdivision":"LOVERIDGE SECONDARY","railusage":"M","real_world_relation":"REFERENCE_ONLY","shape_Length":132.55191140924526,"source_datadesc":"FRA Rail Lines 07/2025","source_datasetid":"{14EEFC21-039C-4AB1-8866-0FA5FC6A7AEB}","source_featureid":"405154","source_id":"REF-FAIRMONT-RAIL","source_originator":"Federal Railroad Administration"},"type":"Feature"},{"geometry":{"coordinates":[[-80.147263,39.468378],[-80.147191,39.46848],[-80.146563,39.469368],[-80.146283,39.469828],[-80.146133,39.470208],[-80.146033,39.470668],[-80.145983,39.471168],[-80.14598,39.471382],[-80.145977,39.471517],[-80.145973,39.471768],[-80.146133,39.474068],[-80.146153,39.474928],[-80.146143,39.475748],[-80.146073,39.476428],[-80.145943,39.477098],[-80.145723,39.477828],[-80.145453,39.478578],[-80.145093,39.479308],[-80.144873,39.479678],[-80.144553,39.480148],[-80.144123,39.480668],[-80.143603,39.481218],[-80.143103,39.481678],[-80.141923,39.482628],[-80.141898,39.482645],[-80.141513,39.482908],[-80.141223,39.483068],[-80.140243,39.483648],[-80.139613,39.484018]],"type":"LineString"},"id":"REF-FAIRMONT-RAIL-25","properties":{"canon_status":"REAL_REFERENCE","fcode":20200,"fictionality":"REAL","globalid":"{58D5C432-0C98-4A0F-BCE7-89F374EB1E0E}","lengthkm":2.03903223,"loaddate":1758113402000,"name":null,"objectid":1098733,"permanent_identifier":"bf64dc19-8c7a-4569-895c-44d81ff0f5fe","railclassification":null,"railowner":null,"railownercode":"CSXT","railsubdivision":"FAIRMONT","railusage":"M","real_world_relation":"REFERENCE_ONLY","shape_Length":2547.9854019741288,"source_datadesc":"FRA Rail Lines 07/2025","source_datasetid":"{14EEFC21-039C-4AB1-8866-0FA5FC6A7AEB}","source_featureid":"404461","source_id":"REF-FAIRMONT-RAIL","source_originator":"Federal Railroad Administration"},"type":"Feature"},{"geometry":{"coordinates":[[-80.086426,39.547189],[-80.086289,39.547416],[-80.086217,39.547541],[-80.0859,39.548098],[-80.085511,39.548714],[-80.085065,39.549283],[-80.084967,39.549407],[-80.084694,39.549678],[-80.084345,39.550023],[-80.083831,39.550484],[-80.083112,39.550973],[-80.082551,39.551329],[-80.081771,39.551757],[-80.081761,39.551762]],"type":"LineString"},"id":"REF-FAIRMONT-RAIL-26","properties":{"canon_status":"REAL_REFERENCE","fcode":20200,"fictionality":"REAL","globalid":"{BC062890-28DF-482C-9A9E-39652670A957}","lengthkm":0.6697065000000001,"loaddate":1758113402000,"name":null,"objectid":1098767,"permanent_identifier":"9ee62655-db42-4898-8a5e-e661716358a1","railclassification":null,"railowner":"Norfolk Southern Railway Company","railownercode":"NS","railsubdivision":"LOVERIDGE SECONDARY","railusage":"M","real_world_relation":"REFERENCE_ONLY","shape_Length":855.5652069698182,"source_datadesc":"FRA Rail Lines 07/2025","source_datasetid":"{14EEFC21-039C-4AB1-8866-0FA5FC6A7AEB}","source_featureid":"405152","source_id":"REF-FAIRMONT-RAIL","source_originator":"Federal Railroad Administration"},"type":"Feature"},{"geometry":{"coordinates":[[-80.086426,39.547189],[-80.08694,39.54634],[-80.087269,39.545688],[-80.087485,39.544856],[-80.087586,39.543936],[-80.087532,39.542901],[-80.087311,39.542034],[-80.086934,39.541227],[-80.086378,39.540371],[-80.085732,39.539666],[-80.084472,39.538693],[-80.082583,39.537501],[-80.081225,39.536972],[-80.080069,39.536628],[-80.078568,39.536131],[-80.077934,39.535856],[-80.077384,39.53548],[-80.077013,39.535055],[-80.076798,39.534609],[-80.076618,39.534045],[-80.076565,39.533603],[-80.07669,39.533117],[-80.076967,39.532519],[-80.077773,39.531443],[-80.078315,39.530812],[-80.080105,39.529302],[-80.08308,39.527106]],"type":"LineString"},"id":"REF-FAIRMONT-RAIL-27","properties":{"canon_status":"REAL_REFERENCE","fcode":20200,"fictionality":"REAL","globalid":"{F250D194-27E3-482C-B057-0E03146AD610}","lengthkm":2.95926263,"loaddate":1758113402000,"name":null,"objectid":1098768,"permanent_identifier":"74aa1291-217c-4b14-98a7-f61c3b471b65","railclassification":null,"railowner":"Norfolk Southern Railway Company","railownercode":"NS","railsubdivision":"LOVERIDGE SECONDARY","railusage":"M","real_world_relation":"REFERENCE_ONLY","shape_Length":3773.8674345799523,"source_datadesc":"FRA Rail Lines 07/2025","source_datasetid":"{14EEFC21-039C-4AB1-8866-0FA5FC6A7AEB}","source_featureid":"405153","source_id":"REF-FAIRMONT-RAIL","source_originator":"Federal Railroad Administration"},"type":"Feature"},{"geometry":{"coordinates":[[-80.108072,39.531992],[-80.107357,39.531909]],"type":"LineString"},"id":"REF-FAIRMONT-RAIL-28","properties":{"canon_status":"REAL_REFERENCE","fcode":20200,"fictionality":"REAL","globalid":"{941D560F-32E6-4277-A903-D6F751F7628F}","lengthkm":0.05874672,"loaddate":1758113402000,"name":null,"objectid":1099758,"permanent_identifier":"5cff0528-9583-46ed-a965-e5fa58e372fc","railclassification":null,"railowner":"Norfolk Southern Railway Company","railownercode":"NS","railsubdivision":"LOVERIDGE SECONDARY","railusage":"M","real_world_relation":"REFERENCE_ONLY","shape_Length":80.54209796507122,"source_datadesc":"FRA Rail Lines 07/2025","source_datasetid":"{14EEFC21-039C-4AB1-8866-0FA5FC6A7AEB}","source_featureid":"423268","source_id":"REF-FAIRMONT-RAIL","source_originator":"Federal Railroad Administration"},"type":"Feature"},{"geometry":{"coordinates":[[-80.142586,39.544659],[-80.142197,39.544498],[-80.141834,39.544291],[-80.141557,39.543876],[-80.141204,39.543068],[-80.140827,39.541394],[-80.140636,39.539773],[-80.140463,39.539193],[-80.140373,39.538978],[-80.139859,39.538045],[-80.139482,39.537423],[-80.139275,39.537097],[-80.139183,39.536618],[-80.139098,39.536172],[-80.139123,39.535826],[-80.139206,39.535495],[-80.139619,39.534296],[-80.139722,39.533838],[-80.139694,39.533266],[-80.139311,39.532579],[-80.138543,39.531694],[-80.138492,39.531644],[-80.137897,39.53106],[-80.137335,39.53069],[-80.136665,39.530361],[-80.135822,39.530217],[-80.134835,39.530187],[-80.133526,39.530205],[-80.132659,39.53042],[-80.131827,39.530845],[-80.131062,39.531359],[-80.130368,39.531862],[-80.129633,39.532496],[-80.128975,39.533141],[-80.12855,39.533351],[-80.12809,39.53347],[-80.127623,39.533524],[-80.127157,39.533458],[-80.12672,39.533276],[-80.124801,39.53221],[-80.123952,39.531856],[-80.123467,39.53161],[-80.123088,39.531259]],"type":"LineString"},"id":"REF-FAIRMONT-RAIL-29","properties":{"canon_status":"REAL_REFERENCE","fcode":20200,"fictionality":"REAL","globalid":"{2E391F5E-D334-4688-9DF1-7AC003B79763}","lengthkm":3.1945205700000003,"loaddate":1758113402000,"name":null,"objectid":1113192,"permanent_identifier":"f8dd0437-f7e1-4c10-8c47-01aba8f59948","railclassification":null,"railowner":"Norfolk Southern Railway Company","railownercode":"NS","railsubdivision":"LOVERIDGE SECONDARY","railusage":"M","real_world_relation":"REFERENCE_ONLY","shape_Length":4094.118408411382,"source_datadesc":"FRA Rail Lines 07/2025","source_datasetid":"{14EEFC21-039C-4AB1-8866-0FA5FC6A7AEB}","source_featureid":"404394","source_id":"REF-FAIRMONT-RAIL","source_originator":"Federal Railroad Administration"},"type":"Feature"},{"geometry":{"coordinates":[[-80.123708,39.493552],[-80.123482,39.493121],[-80.123344,39.49286]],"type":"LineString"},"id":"REF-FAIRMONT-RAIL-30","properties":{"canon_status":"REAL_REFERENCE","fcode":20201,"fictionality":"REAL","globalid":"{82A08131-F0DC-4E73-A06C-9C2105F5110B}","lengthkm":0.08679651,"loaddate":1758113402000,"name":"FAIRMONT YARD","objectid":1113227,"permanent_identifier":"fdca8ad4-f93c-47db-80f1-d529008d865e","railclassification":null,"railowner":null,"railownercode":"CSXT","railsubdivision":null,"railusage":"O","real_world_relation":"REFERENCE_ONLY","shape_Length":107.79210943198275,"source_datadesc":"FRA Rail Lines 07/2025","source_datasetid":"{14EEFC21-039C-4AB1-8866-0FA5FC6A7AEB}","source_featureid":"405096","source_id":"REF-FAIRMONT-RAIL","source_originator":"Federal Railroad Administration"},"type":"Feature"},{"geometry":{"coordinates":[[-80.128603,39.509574],[-80.128713,39.509838],[-80.129593,39.511478],[-80.130123,39.512278],[-80.132133,39.515788],[-80.132363,39.516318],[-80.132513,39.516938],[-80.132593,39.517608],[-80.132554,39.51798],[-80.132543,39.518078],[-80.132383,39.518708],[-80.132073,39.519638],[-80.131793,39.520158],[-80.131503,39.520608],[-80.130043,39.522118],[-80.128322,39.523661],[-80.128303,39.523678],[-80.127213,39.524588],[-80.126044,39.525482]],"type":"LineString"},"id":"REF-FAIRMONT-RAIL-31","properties":{"canon_status":"REAL_REFERENCE","fcode":20200,"fictionality":"REAL","globalid":"{6BE99407-386A-4EEC-A785-FAB520ECCC5E}","lengthkm":2.09808387,"loaddate":1758113402000,"name":null,"objectid":1113587,"permanent_identifier":"64669fad-31c4-4d58-b662-58815081a592","railclassification":null,"railowner":null,"railownercode":"CSXT","railsubdivision":"AMERICAN FIBERS IT","railusage":"O","real_world_relation":"REFERENCE_ONLY","shape_Length":2632.1095162087813,"source_datadesc":"FRA Rail Lines 07/2025","source_datasetid":"{14EEFC21-039C-4AB1-8866-0FA5FC6A7AEB}","source_featureid":"411313","source_id":"REF-FAIRMONT-RAIL","source_originator":"Federal Railroad Administration"},"type":"Feature"},{"geometry":{"coordinates":[[-80.123708,39.493552],[-80.124072,39.493966]],"type":"LineString"},"id":"REF-FAIRMONT-RAIL-32","properties":{"canon_status":"REAL_REFERENCE","fcode":20200,"fictionality":"REAL","globalid":"{AA315EC0-AD29-436B-8469-73EB454AEA67}","lengthkm":0.057029,"loaddate":1758113402000,"name":null,"objectid":1127530,"permanent_identifier":"25197f5a-3752-47b3-81bf-c6a8db49b572","railclassification":null,"railowner":null,"railownercode":"CSXT","railsubdivision":"FAIRMONT","railusage":"M","real_world_relation":"REFERENCE_ONLY","shape_Length":72.1767635621749,"source_datadesc":"FRA Rail Lines 07/2025","source_datasetid":"{14EEFC21-039C-4AB1-8866-0FA5FC6A7AEB}","source_featureid":"404463","source_id":"REF-FAIRMONT-RAIL","source_originator":"Federal Railroad Administration"},"type":"Feature"},{"geometry":{"coordinates":[[-80.139613,39.484018],[-80.138964,39.484421],[-80.138756,39.484551],[-80.138028,39.484915],[-80.137264,39.485257],[-80.136572,39.485514],[-80.135801,39.485671],[-80.135023,39.485743],[-80.13246,39.485729],[-80.13026,39.485766],[-80.129919,39.485771]],"type":"LineString"},"id":"REF-FAIRMONT-RAIL-33","properties":{"canon_status":"REAL_REFERENCE","fcode":20201,"fictionality":"REAL","globalid":"{85FB730E-04EE-4445-B01B-1CB9249657D3}","lengthkm":0.84660132,"loaddate":1758113402000,"name":"FAIRMONT YARD","objectid":1127567,"permanent_identifier":"19234c15-f613-4a6e-9431-453108e04f52","railclassification":null,"railowner":null,"railownercode":"CSXT","railsubdivision":null,"railusage":"O","real_world_relation":"REFERENCE_ONLY","shape_Length":1147.2179225495656,"source_datadesc":"FRA Rail Lines 07/2025","source_datasetid":"{14EEFC21-039C-4AB1-8866-0FA5FC6A7AEB}","source_featureid":"405091","source_id":"REF-FAIRMONT-RAIL","source_originator":"Federal Railroad Administration"},"type":"Feature"},{"geometry":{"coordinates":[[-80.101469,39.405902],[-80.101923,39.406678],[-80.102183,39.407028],[-80.102493,39.407358],[-80.103623,39.408378],[-80.104573,39.409088],[-80.105103,39.409448],[-80.105673,39.409808],[-80.106303,39.410158],[-80.106928,39.410484],[-80.106953,39.410498],[-80.107633,39.410788],[-80.108293,39.411008],[-80.108893,39.411138],[-80.109493,39.411218],[-80.110043,39.411258],[-80.110463,39.411238],[-80.110933,39.411158],[-80.111863,39.410808],[-80.112007,39.410734],[-80.112373,39.410548],[-80.112813,39.410248],[-80.113801,39.409353],[-80.114093,39.409088],[-80.114543,39.408598],[-80.114963,39.408078],[-80.115253,39.407598],[-80.115743,39.406548],[-80.116186,39.405671],[-80.116263,39.405518],[-80.116423,39.405268],[-80.116837,39.404832],[-80.116983,39.404678],[-80.117243,39.404488],[-80.117633,39.404278],[-80.118493,39.403958],[-80.119443,39.403758],[-80.120413,39.403618],[-80.120419,39.403617],[-80.120903,39.403578],[-80.121383,39.403568],[-80.121973,39.403608],[-80.122423,39.403718],[-80.122883,39.403858],[-80.123313,39.404048],[-80.123683,39.404278],[-80.124033,39.404578],[-80.124353,39.404938],[-80.124603,39.405358],[-80.125103,39.406658],[-80.125557,39.407499]],"type":"LineString"},"id":"REF-FAIRMONT-RAIL-34","properties":{"canon_status":"REAL_REFERENCE","fcode":20200,"fictionality":"REAL","globalid":"{D25371FD-A2A6-4EEF-A4D7-57DE86674FEE}","lengthkm":3.00013881,"loaddate":1758113402000,"name":null,"objectid":1127952,"permanent_identifier":"d9229189-4d22-4b3f-a338-9e6897eaa98c","railclassification":null,"railowner":null,"railownercode":"CSXT","railsubdivision":"FAIRMONT","railusage":"M","real_world_relation":"REFERENCE_ONLY","shape_Length":3887.6554792820616,"source_datadesc":"FRA Rail Lines 07/2025","source_datasetid":"{14EEFC21-039C-4AB1-8866-0FA5FC6A7AEB}","source_featureid":"411315","source_id":"REF-FAIRMONT-RAIL","source_originator":"Federal Railroad Administration"},"type":"Feature"},{"geometry":{"coordinates":[[-80.107357,39.531909],[-80.106902,39.531778],[-80.105945,39.531606],[-80.105174,39.531389],[-80.104229,39.531048],[-80.103326,39.530642],[-80.102477,39.530133],[-80.101167,39.529027],[-80.100539,39.528555],[-80.097712,39.526651],[-80.097105,39.526233],[-80.096521,39.525827],[-80.095806,39.525252],[-80.095421,39.524895],[-80.094973,39.524449],[-80.094921,39.524392],[-80.094836,39.524296],[-80.094791,39.524246],[-80.094579,39.524007],[-80.092437,39.521526],[-80.092018,39.521163],[-80.091599,39.520924],[-80.091043,39.520673],[-80.090594,39.520535],[-80.090406,39.520519],[-80.089907,39.520475],[-80.089195,39.520487],[-80.088633,39.520571],[-80.088119,39.520727],[-80.08755,39.521014],[-80.087272,39.521206],[-80.087144,39.521295],[-80.086938,39.521517],[-80.086683,39.521791],[-80.08658,39.521943],[-80.086492,39.522072],[-80.08631,39.522404],[-80.086081,39.522818],[-80.085577,39.523735],[-80.085363,39.524215],[-80.085199,39.524585],[-80.084741,39.525429],[-80.084368,39.525937],[-80.084088,39.526229],[-80.083905,39.52642],[-80.083627,39.526638],[-80.083491,39.526745],[-80.08308,39.527106]],"type":"LineString"},"id":"REF-FAIRMONT-RAIL-35","properties":{"canon_status":"REAL_REFERENCE","fcode":20201,"fictionality":"REAL","globalid":"{66CFC47B-E391-47E5-807F-D5F4A4266C2F}","lengthkm":3.02885189,"loaddate":1758113402000,"name":null,"objectid":1141999,"permanent_identifier":"3b6c484a-18f8-46a9-99b6-630785f8053f","railclassification":null,"railowner":"Norfolk Southern Railway Company","railownercode":"NS","railsubdivision":null,"railusage":"O","real_world_relation":"REFERENCE_ONLY","shape_Length":3921.587819083852,"source_datadesc":"FRA Rail Lines 07/2025","source_datasetid":"{14EEFC21-039C-4AB1-8866-0FA5FC6A7AEB}","source_featureid":"405155","source_id":"REF-FAIRMONT-RAIL","source_originator":"Federal Railroad Administration"},"type":"Feature"},{"geometry":{"coordinates":[[-80.108072,39.531992],[-80.108433,39.531993],[-80.108597,39.532003],[-80.109213,39.532057],[-80.109885,39.532109],[-80.110631,39.5321]],"type":"LineString"},"id":"REF-FAIRMONT-RAIL-36","properties":{"canon_status":"REAL_REFERENCE","fcode":20201,"fictionality":"REAL","globalid":"{10F3FAD4-4A00-4699-9B2B-F44B4A692DB6}","lengthkm":0.20797321,"loaddate":1758113402000,"name":null,"objectid":1143074,"permanent_identifier":"ceb0408f-6aea-4947-942f-2cea726d3b61","railclassification":null,"railowner":"Norfolk Southern Railway Company","railownercode":"NS","railsubdivision":"LOVERIDGE SECONDARY","railusage":"O","real_world_relation":"REFERENCE_ONLY","shape_Length":285.72773324069544,"source_datadesc":"FRA Rail Lines 07/2025","source_datasetid":"{14EEFC21-039C-4AB1-8866-0FA5FC6A7AEB}","source_featureid":"423269","source_id":"REF-FAIRMONT-RAIL","source_originator":"Federal Railroad Administration"},"type":"Feature"}],"type":"FeatureCollection"}
