{"features":[{"geometry":{"coordinates":[[-80.166175,39.444132],[-80.165531,39.444504],[-80.165057,39.444801],[-80.164529,39.445141],[-80.164055,39.445438],[-80.163499,39.445765],[-80.162867,39.446113],[-80.162542,39.446279],[-80.162275,39.446416],[-80.161674,39.446717],[-80.161154,39.446986],[-80.159362,39.447824],[-80.156762,39.449007],[-80.156241,39.449254],[-80.154948,39.449846],[-80.154538,39.450025],[-80.15389,39.450318],[-80.153175,39.450651],[-80.152389,39.451043],[-80.15186,39.451312],[-80.151265,39.451642],[-80.150785,39.451921],[-80.150265,39.452259],[-80.149512,39.452789],[-80.149141,39.45307],[-80.148819,39.453329],[-80.148529,39.453551],[-80.148291,39.453756],[-80.147855,39.454167],[-80.147396,39.454607],[-80.146978,39.455031]],"type":"LineString"},"id":"REF-FAIRMONT-HIGHWAYS-1","properties":{"canon_status":"REAL_REFERENCE","county_route":null,"federal_lands_route":null,"fictionality":"REAL","globalid":"{2C7204DD-EBB2-4E98-BA95-1EE69C9A5EAF}","interstate":"79","interstate_a":"79","interstate_b":null,"interstate_c":null,"loaddate":1474004334000,"mtfcc_code":"S1100","name":"I- 79","objectid":667650,"permanent_identifier":"fe2ba61d-0f9e-4022-9a2a-e724ff9f1580","real_world_relation":"REFERENCE_ONLY","shape_Length":2669.9830277770056,"source_datadesc":"2016 January MAFTIGER","source_datasetid":"{9298FF95-0FA8-4712-9AA5-9292C907CA63}","source_featureid":"110803586675","source_id":"REF-FAIRMONT-HIGHWAYS","source_originator":"U.S. Department of Commerce, U.S. Census Bureau, Geography Division","state_route":null,"state_route_a":null,"state_route_b":null,"state_route_c":null,"stco_fipscode":"54049","tnmfrc":1,"us_route":null,"us_route_a":null,"us_route_b":null,"us_route_c":null},"type":"Feature"},{"geometry":{"coordinates":[[-80.18724,39.432422],[-80.187102,39.432474]],"type":"LineString"},"id":"REF-FAIRMONT-HIGHWAYS-2","properties":{"canon_status":"REAL_REFERENCE","county_route":null,"federal_lands_route":null,"fictionality":"REAL","globalid":"{9CEFD6B5-C43E-40A3-893E-ECBECC8F7CC8}","interstate":"79","interstate_a":"79","interstate_b":null,"interstate_c":null,"loaddate":1474004334000,"mtfcc_code":"S1100","name":"I- 79","objectid":1557860,"permanent_identifier":"558155d6-7f3c-4c42-adf0-4ba1aa26e85b","real_world_relation":"REFERENCE_ONLY","shape_Length":17.092780508931856,"source_datadesc":"2016 January MAFTIGER","source_datasetid":"{9298FF95-0FA8-4712-9AA5-9292C907CA63}","source_featureid":"110803586676","source_id":"REF-FAIRMONT-HIGHWAYS","source_originator":"U.S. Department of Commerce, U.S. Census Bureau, Geography Division","state_route":null,"state_route_a":null,"state_route_b":null,"state_route_c":null,"stco_fipscode":"54049","tnmfrc":1,"us_route":null,"us_route_a":null,"us_route_b":null,"us_route_c":null},"type":"Feature"},{"geometry":{"coordinates":[[-80.198243,39.422675],[-80.197998,39.423971],[-80.197887,39.424451],[-80.197758,39.424882],[-80.197654,39.425162],[-80.197531,39.425473],[-80.197488,39.425585],[-80.197341,39.425877],[-80.197336,39.425886],[-80.197325,39.425908],[-80.197299,39.425957],[-80.19708,39.426363],[-80.196747,39.426887],[-80.196431,39.427318],[-80.196114,39.427691],[-80.195812,39.428026],[-80.195422,39.428408],[-80.195087,39.42872],[-80.194672,39.429048],[-80.194203,39.429392],[-80.193734,39.429701],[-80.193271,39.429978],[-80.192765,39.430244],[-80.192362,39.43044],[-80.1919,39.430634],[-80.190125,39.431322],[-80.189304,39.43163],[-80.188797,39.431827],[-80.188345,39.432003],[-80.187804,39.432208],[-80.187473,39.432334],[-80.18724,39.432422]],"type":"LineString"},"id":"REF-FAIRMONT-HIGHWAYS-3","properties":{"canon_status":"REAL_REFERENCE","county_route":null,"federal_lands_route":null,"fictionality":"REAL","globalid":"{420B6B55-50B3-47A8-B88A-96C937E9DFC5}","interstate":"79","interstate_a":"79","interstate_b":null,"interstate_c":null,"loaddate":1474004334000,"mtfcc_code":"S1100","name":"I- 79","objectid":2448588,"permanent_identifier":"65564c80-bc9f-4959-8cac-2cba30c0b4c3","real_world_relation":"REFERENCE_ONLY","shape_Length":1987.4250312785489,"source_datadesc":"2016 January MAFTIGER","source_datasetid":"{9298FF95-0FA8-4712-9AA5-9292C907CA63}","source_featureid":"110803586676","source_id":"REF-FAIRMONT-HIGHWAYS","source_originator":"U.S. Department of Commerce, U.S. Census Bureau, Geography Division","state_route":null,"state_route_a":null,"state_route_b":null,"state_route_c":null,"stco_fipscode":"54049","tnmfrc":1,"us_route":null,"us_route_a":null,"us_route_b":null,"us_route_c":null},"type":"Feature"},{"geometry":{"coordinates":[[-80.084327,39.489661],[-80.083679,39.489809],[-80.083386,39.489886],[-80.083079,39.489987],[-80.082367,39.490245],[-80.081898,39.490455],[-80.08162,39.49057],[-80.081024,39.490885],[-80.080532,39.49119],[-80.080232,39.491385],[-80.079956,39.491577],[-80.079756,39.491722],[-80.079219,39.492185],[-80.079016,39.492374],[-80.078819,39.49257],[-80.078477,39.492955],[-80.078206,39.493292],[-80.078042,39.493519],[-80.077888,39.49372],[-80.077354,39.494494],[-80.076652,39.495469],[-80.07658,39.495568],[-80.074851,39.497995],[-80.074603,39.498356],[-80.074371,39.498668],[-80.074114,39.499025],[-80.07403,39.499142],[-80.073747,39.499545],[-80.073485,39.499909],[-80.073202,39.50029],[-80.072732,39.500962],[-80.072496,39.501277],[-80.072294,39.501575],[-80.072082,39.501866],[-80.071691,39.502445],[-80.07137,39.502996],[-80.071208,39.503293],[-80.0711,39.503489],[-80.070862,39.503981],[-80.0706,39.504581]],"type":"LineString"},"id":"REF-FAIRMONT-HIGHWAYS-4","properties":{"canon_status":"REAL_REFERENCE","county_route":null,"federal_lands_route":null,"fictionality":"REAL","globalid":"{833936F9-47BA-4D39-AFDC-7E955BE17B50}","interstate":"79","interstate_a":"79","interstate_b":null,"interstate_c":null,"loaddate":1474004334000,"mtfcc_code":"S1100","name":"I- 79","objectid":2448596,"permanent_identifier":"578bee63-ccc6-42ef-83b8-1a6cba0cea0e","real_world_relation":"REFERENCE_ONLY","shape_Length":2719.5689227225325,"source_datadesc":"2016 January MAFTIGER","source_datasetid":"{9298FF95-0FA8-4712-9AA5-9292C907CA63}","source_featureid":"110803586675","source_id":"REF-FAIRMONT-HIGHWAYS","source_originator":"U.S. Department of Commerce, U.S. Census Bureau, Geography Division","state_route":null,"state_route_a":null,"state_route_b":null,"state_route_c":null,"stco_fipscode":"54049","tnmfrc":1,"us_route":null,"us_route_a":null,"us_route_b":null,"us_route_c":null},"type":"Feature"},{"geometry":{"coordinates":[[-80.181862,39.435917],[-80.181734,39.436023],[-80.180923,39.436604],[-80.180601,39.436798],[-80.18034,39.436945],[-80.178965,39.437655],[-80.178269,39.437987],[-80.177161,39.438552],[-80.176304,39.438969],[-80.176017,39.439113]],"type":"LineString"},"id":"REF-FAIRMONT-HIGHWAYS-5","properties":{"canon_status":"REAL_REFERENCE","county_route":null,"federal_lands_route":null,"fictionality":"REAL","globalid":"{1027EE1C-B59D-4F37-93C0-4EE9DA97AFE8}","interstate":"79","interstate_a":"79","interstate_b":null,"interstate_c":null,"loaddate":1474004334000,"mtfcc_code":"S1100","name":"I- 79","objectid":3466681,"permanent_identifier":"ab435bdf-0d96-437e-ae49-7727d775e256","real_world_relation":"REFERENCE_ONLY","shape_Length":799.2982939763282,"source_datadesc":"2016 January MAFTIGER","source_datasetid":"{9298FF95-0FA8-4712-9AA5-9292C907CA63}","source_featureid":"110803586676","source_id":"REF-FAIRMONT-HIGHWAYS","source_originator":"U.S. Department of Commerce, U.S. Census Bureau, Geography Division","state_route":null,"state_route_a":null,"state_route_b":null,"state_route_c":null,"stco_fipscode":"54049","tnmfrc":1,"us_route":null,"us_route_a":null,"us_route_b":null,"us_route_c":null},"type":"Feature"},{"geometry":{"coordinates":[[-80.131295,39.468208],[-80.131227,39.468249],[-80.130862,39.468443],[-80.130438,39.468668],[-80.130296,39.468735],[-80.130129,39.468812],[-80.129449,39.469131],[-80.129282,39.469209],[-80.128991,39.469331],[-80.128249,39.46961],[-80.125703,39.470452],[-80.123619,39.471123]],"type":"LineString"},"id":"REF-FAIRMONT-HIGHWAYS-6","properties":{"canon_status":"REAL_REFERENCE","county_route":null,"federal_lands_route":null,"fictionality":"REAL","globalid":"{11CD22B0-A675-4220-B277-9594D7F6A0AF}","interstate":"79","interstate_a":"79","interstate_b":null,"interstate_c":null,"loaddate":1568201756000,"mtfcc_code":"S1100","name":"I- 79","objectid":3935307,"permanent_identifier":"2f6e9425-933c-4bd7-938a-15fb5b47b127","real_world_relation":"REFERENCE_ONLY","shape_Length":955.1310886831036,"source_datadesc":"2018 May MAF/TIGER","source_datasetid":"{75C4AE26-EEFC-4063-A106-98980856821E}","source_featureid":"110803586675","source_id":"REF-FAIRMONT-HIGHWAYS","source_originator":"U.S. Department of Commerce, U.S. Census Bureau, Geography Division","state_route":null,"state_route_a":null,"state_route_b":null,"state_route_c":null,"stco_fipscode":"54049","tnmfrc":1,"us_route":null,"us_route_a":null,"us_route_b":null,"us_route_c":null},"type":"Feature"},{"geometry":{"coordinates":[[-80.131572,39.468279],[-80.131433,39.468357]],"type":"LineString"},"id":"REF-FAIRMONT-HIGHWAYS-7","properties":{"canon_status":"REAL_REFERENCE","county_route":null,"federal_lands_route":null,"fictionality":"REAL","globalid":"{73204D79-EF3D-4BFE-ADBF-F7D9B9674D40}","interstate":"79","interstate_a":"79","interstate_b":null,"interstate_c":null,"loaddate":1568201756000,"mtfcc_code":"S1100","name":"I- 79","objectid":4828506,"permanent_identifier":"965a1409-5eaf-46aa-b374-74a47cae72eb","real_world_relation":"REFERENCE_ONLY","shape_Length":19.122127336641825,"source_datadesc":"2018 May MAF/TIGER","source_datasetid":"{75C4AE26-EEFC-4063-A106-98980856821E}","source_featureid":"110803586676","source_id":"REF-FAIRMONT-HIGHWAYS","source_originator":"U.S. Department of Commerce, U.S. Census Bureau, Geography Division","state_route":null,"state_route_a":null,"state_route_b":null,"state_route_c":null,"stco_fipscode":"54049","tnmfrc":1,"us_route":null,"us_route_a":null,"us_route_b":null,"us_route_c":null},"type":"Feature"},{"geometry":{"coordinates":[[-80.175883,39.439029],[-80.175645,39.439148]],"type":"LineString"},"id":"REF-FAIRMONT-HIGHWAYS-8","properties":{"canon_status":"REAL_REFERENCE","county_route":null,"federal_lands_route":null,"fictionality":"REAL","globalid":"{2A20F24A-DD99-4028-ABBF-6370D0DA55BC}","interstate":"79","interstate_a":"79","interstate_b":null,"interstate_c":null,"loaddate":1474004334000,"mtfcc_code":"S1100","name":"I- 79","objectid":4869391,"permanent_identifier":"91f33c03-04ff-4c29-9c97-cf1419d77f71","real_world_relation":"REFERENCE_ONLY","shape_Length":31.56188289885154,"source_datadesc":"2016 January MAFTIGER","source_datasetid":"{9298FF95-0FA8-4712-9AA5-9292C907CA63}","source_featureid":"110803586675","source_id":"REF-FAIRMONT-HIGHWAYS","source_originator":"U.S. Department of Commerce, U.S. Census Bureau, Geography Division","state_route":null,"state_route_a":null,"state_route_b":null,"state_route_c":null,"stco_fipscode":"54049","tnmfrc":1,"us_route":null,"us_route_a":null,"us_route_b":null,"us_route_c":null},"type":"Feature"},{"geometry":{"coordinates":[[-80.14385,39.458555],[-80.143744,39.458673],[-80.143137,39.459292],[-80.142703,39.459735],[-80.142192,39.460248],[-80.141881,39.460546],[-80.141503,39.460884],[-80.141126,39.461203],[-80.140747,39.461517],[-80.140427,39.46177],[-80.139626,39.462375],[-80.139501,39.462467],[-80.139318,39.4626],[-80.139304,39.46261],[-80.139001,39.462843],[-80.138166,39.463465],[-80.137728,39.463804],[-80.136943,39.464395],[-80.136748,39.464529],[-80.136676,39.464586]],"type":"LineString"},"id":"REF-FAIRMONT-HIGHWAYS-9","properties":{"canon_status":"REAL_REFERENCE","county_route":null,"federal_lands_route":null,"fictionality":"REAL","globalid":"{9E1D22DD-F0AF-40D1-B9C8-8752534820BD}","interstate":"79","interstate_a":"79","interstate_b":null,"interstate_c":null,"loaddate":1474004334000,"mtfcc_code":"S1100","name":"I- 79","objectid":5380482,"permanent_identifier":"7134613a-fad3-4848-82f9-a9332721816d","real_world_relation":"REFERENCE_ONLY","shape_Length":1183.226335953215,"source_datadesc":"2016 January MAFTIGER","source_datasetid":"{9298FF95-0FA8-4712-9AA5-9292C907CA63}","source_featureid":"110803586676","source_id":"REF-FAIRMONT-HIGHWAYS","source_originator":"U.S. Department of Commerce, U.S. Census Bureau, Geography Division","state_route":null,"state_route_a":null,"state_route_b":null,"state_route_c":null,"stco_fipscode":"54049","tnmfrc":1,"us_route":null,"us_route_a":null,"us_route_b":null,"us_route_c":null},"type":"Feature"},{"geometry":{"coordinates":[[-80.12104,39.471982],[-80.120799,39.472075]],"type":"LineString"},"id":"REF-FAIRMONT-HIGHWAYS-10","properties":{"canon_status":"REAL_REFERENCE","county_route":null,"federal_lands_route":null,"fictionality":"REAL","globalid":"{A35CB8F5-2FB2-4565-A1D9-A56D05616F47}","interstate":"79","interstate_a":"79","interstate_b":null,"interstate_c":null,"loaddate":1474004334000,"mtfcc_code":"S1100","name":"I- 79","objectid":6657971,"permanent_identifier":"8d0915a7-78a9-49e7-826f-9dc3b23b8911","real_world_relation":"REFERENCE_ONLY","shape_Length":29.99345318376352,"source_datadesc":"2016 January MAFTIGER","source_datasetid":"{9298FF95-0FA8-4712-9AA5-9292C907CA63}","source_featureid":"110803586675","source_id":"REF-FAIRMONT-HIGHWAYS","source_originator":"U.S. Department of Commerce, U.S. Census Bureau, Geography Division","state_route":null,"state_route_a":null,"state_route_b":null,"state_route_c":null,"stco_fipscode":"54049","tnmfrc":1,"us_route":null,"us_route_a":null,"us_route_b":null,"us_route_c":null},"type":"Feature"},{"geometry":{"coordinates":[[-80.171037,39.441448],[-80.170159,39.441899],[-80.169602,39.442192],[-80.169036,39.442496],[-80.168806,39.442627],[-80.168493,39.442805],[-80.168189,39.442986]],"type":"LineString"},"id":"REF-FAIRMONT-HIGHWAYS-11","properties":{"canon_status":"REAL_REFERENCE","county_route":null,"federal_lands_route":null,"fictionality":"REAL","globalid":"{69B729F4-6EB7-4AD2-BF18-F1FE23C8C0E0}","interstate":"79","interstate_a":"79","interstate_b":null,"interstate_c":null,"loaddate":1474004334000,"mtfcc_code":"S1100","name":"I- 79","objectid":6658044,"permanent_identifier":"49c0e835-a583-4d18-8c3b-b009905d4834","real_world_relation":"REFERENCE_ONLY","shape_Length":386.9700233516256,"source_datadesc":"2016 January MAFTIGER","source_datasetid":"{9298FF95-0FA8-4712-9AA5-9292C907CA63}","source_featureid":"110803586675","source_id":"REF-FAIRMONT-HIGHWAYS","source_originator":"U.S. Department of Commerce, U.S. Census Bureau, Geography Division","state_route":null,"state_route_a":null,"state_route_b":null,"state_route_c":null,"stco_fipscode":"54049","tnmfrc":1,"us_route":null,"us_route_a":null,"us_route_b":null,"us_route_c":null},"type":"Feature"},{"geometry":{"coordinates":[[-80.175645,39.439148],[-80.175183,39.439379],[-80.174922,39.439509],[-80.1748,39.43957],[-80.174386,39.439777],[-80.173889,39.440026],[-80.173335,39.440303],[-80.171772,39.441075],[-80.171037,39.441448]],"type":"LineString"},"id":"REF-FAIRMONT-HIGHWAYS-12","properties":{"canon_status":"REAL_REFERENCE","county_route":null,"federal_lands_route":null,"fictionality":"REAL","globalid":"{A4A5FA28-1581-409D-B486-72FD49FDCE6F}","interstate":"79","interstate_a":"79","interstate_b":null,"interstate_c":null,"loaddate":1474004334000,"mtfcc_code":"S1100","name":"I- 79","objectid":7678705,"permanent_identifier":"8c6b8a99-c7a4-4bf9-b613-38c2b8ae6e34","real_world_relation":"REFERENCE_ONLY","shape_Length":610.7747157805152,"source_datadesc":"2016 January MAFTIGER","source_datasetid":"{9298FF95-0FA8-4712-9AA5-9292C907CA63}","source_featureid":"110803586675","source_id":"REF-FAIRMONT-HIGHWAYS","source_originator":"U.S. Department of Commerce, U.S. Census Bureau, Geography Division","state_route":null,"state_route_a":null,"state_route_b":null,"state_route_c":null,"stco_fipscode":"54049","tnmfrc":1,"us_route":null,"us_route_a":null,"us_route_b":null,"us_route_c":null},"type":"Feature"},{"geometry":{"coordinates":[[-80.148902,39.453543],[-80.148773,39.453651],[-80.148364,39.453969],[-80.147922,39.454377],[-80.147293,39.455008],[-80.145538,39.456812],[-80.145395,39.456966]],"type":"LineString"},"id":"REF-FAIRMONT-HIGHWAYS-13","properties":{"canon_status":"REAL_REFERENCE","county_route":null,"federal_lands_route":null,"fictionality":"REAL","globalid":"{27A11543-5173-45CD-BC56-38D86CC52489}","interstate":"79","interstate_a":"79","interstate_b":null,"interstate_c":null,"loaddate":1474004334000,"mtfcc_code":"S1100","name":"I- 79","objectid":8316273,"permanent_identifier":"9e521bd9-6414-4035-8af1-8319d585e645","real_world_relation":"REFERENCE_ONLY","shape_Length":629.8941569577858,"source_datadesc":"2016 January MAFTIGER","source_datasetid":"{9298FF95-0FA8-4712-9AA5-9292C907CA63}","source_featureid":"110803586676","source_id":"REF-FAIRMONT-HIGHWAYS","source_originator":"U.S. Department of Commerce, U.S. Census Bureau, Geography Division","state_route":null,"state_route_a":null,"state_route_b":null,"state_route_c":null,"stco_fipscode":"54049","tnmfrc":1,"us_route":null,"us_route_a":null,"us_route_b":null,"us_route_c":null},"type":"Feature"},{"geometry":{"coordinates":[[-80.187181,39.432303],[-80.186864,39.432424],[-80.186307,39.432638],[-80.185592,39.432921],[-80.185211,39.433097],[-80.184943,39.433246],[-80.184746,39.433368]],"type":"LineString"},"id":"REF-FAIRMONT-HIGHWAYS-14","properties":{"canon_status":"REAL_REFERENCE","county_route":null,"federal_lands_route":null,"fictionality":"REAL","globalid":"{91554CB4-31F4-4196-B398-37B1A819DBF4}","interstate":"79","interstate_a":"79","interstate_b":null,"interstate_c":null,"loaddate":1474004334000,"mtfcc_code":"S1100","name":"I- 79","objectid":8571362,"permanent_identifier":"5c590fe4-792e-4f7b-b835-83ceafb053ee","real_world_relation":"REFERENCE_ONLY","shape_Length":312.3381347755542,"source_datadesc":"2016 January MAFTIGER","source_datasetid":"{9298FF95-0FA8-4712-9AA5-9292C907CA63}","source_featureid":"110803586675","source_id":"REF-FAIRMONT-HIGHWAYS","source_originator":"U.S. Department of Commerce, U.S. Census Bureau, Geography Division","state_route":null,"state_route_a":null,"state_route_b":null,"state_route_c":null,"stco_fipscode":"54049","tnmfrc":1,"us_route":null,"us_route_a":null,"us_route_b":null,"us_route_c":null},"type":"Feature"},{"geometry":{"coordinates":[[-80.142761,39.459358],[-80.142159,39.459963],[-80.141947,39.460186],[-80.141622,39.46051],[-80.141122,39.460961],[-80.140604,39.461386],[-80.140214,39.461685],[-80.139276,39.462384],[-80.139172,39.462463],[-80.13881,39.462739],[-80.137502,39.46371],[-80.13718,39.463932],[-80.136901,39.464155],[-80.13664,39.464354]],"type":"LineString"},"id":"REF-FAIRMONT-HIGHWAYS-15","properties":{"canon_status":"REAL_REFERENCE","county_route":null,"federal_lands_route":null,"fictionality":"REAL","globalid":"{3F9C439F-2F83-49D1-8CA4-27A21B50371F}","interstate":"79","interstate_a":"79","interstate_b":null,"interstate_c":null,"loaddate":1474004334000,"mtfcc_code":"S1100","name":"I- 79","objectid":9337440,"permanent_identifier":"fdf1aabe-1094-4233-972e-34f775f6c3ea","real_world_relation":"REFERENCE_ONLY","shape_Length":993.4932952466341,"source_datadesc":"2016 January MAFTIGER","source_datasetid":"{9298FF95-0FA8-4712-9AA5-9292C907CA63}","source_featureid":"110803586675","source_id":"REF-FAIRMONT-HIGHWAYS","source_originator":"U.S. Department of Commerce, U.S. Census Bureau, Geography Division","state_route":null,"state_route_a":null,"state_route_b":null,"state_route_c":null,"stco_fipscode":"54049","tnmfrc":1,"us_route":null,"us_route_a":null,"us_route_b":null,"us_route_c":null},"type":"Feature"},{"geometry":{"coordinates":[[-80.120928,39.472241],[-80.120786,39.472297]],"type":"LineString"},"id":"REF-FAIRMONT-HIGHWAYS-16","properties":{"canon_status":"REAL_REFERENCE","county_route":null,"federal_lands_route":null,"fictionality":"REAL","globalid":"{AFE77D73-CD69-4F63-B50E-4A1A5E5EF982}","interstate":"79","interstate_a":"79","interstate_b":null,"interstate_c":null,"loaddate":1474004334000,"mtfcc_code":"S1100","name":"I- 79","objectid":9592739,"permanent_identifier":"1ba51cfa-139d-4447-8521-6c21da28eec2","real_world_relation":"REFERENCE_ONLY","shape_Length":17.750708824260386,"source_datadesc":"2016 January MAFTIGER","source_datasetid":"{9298FF95-0FA8-4712-9AA5-9292C907CA63}","source_featureid":"110803586676","source_id":"REF-FAIRMONT-HIGHWAYS","source_originator":"U.S. Department of Commerce, U.S. Census Bureau, Geography Division","state_route":null,"state_route_a":null,"state_route_b":null,"state_route_c":null,"stco_fipscode":"54049","tnmfrc":1,"us_route":null,"us_route_a":null,"us_route_b":null,"us_route_c":null},"type":"Feature"},{"geometry":{"coordinates":[[-80.171659,39.441298],[-80.170938,39.441668],[-80.169928,39.442207],[-80.169503,39.442439],[-80.168954,39.442753],[-80.168325,39.443128]],"type":"LineString"},"id":"REF-FAIRMONT-HIGHWAYS-17","properties":{"canon_status":"REAL_REFERENCE","county_route":null,"federal_lands_route":null,"fictionality":"REAL","globalid":"{7C05D126-8CA9-4C40-A4B4-D2817E0C3784}","interstate":"79","interstate_a":"79","interstate_b":null,"interstate_c":null,"loaddate":1474004334000,"mtfcc_code":"S1100","name":"I- 79","objectid":10231321,"permanent_identifier":"215cae6b-764a-4b8a-96fb-047c56b509b2","real_world_relation":"REFERENCE_ONLY","shape_Length":455.4769235435928,"source_datadesc":"2016 January MAFTIGER","source_datasetid":"{9298FF95-0FA8-4712-9AA5-9292C907CA63}","source_featureid":"110803586676","source_id":"REF-FAIRMONT-HIGHWAYS","source_originator":"U.S. Department of Commerce, U.S. Census Bureau, Geography Division","state_route":null,"state_route_a":null,"state_route_b":null,"state_route_c":null,"stco_fipscode":"54049","tnmfrc":1,"us_route":null,"us_route_a":null,"us_route_b":null,"us_route_c":null},"type":"Feature"},{"geometry":{"coordinates":[[-80.168189,39.442986],[-80.168014,39.443091],[-80.167564,39.443341],[-80.167524,39.443363],[-80.167077,39.443637],[-80.166727,39.44384],[-80.166453,39.444005],[-80.166175,39.444132]],"type":"LineString"},"id":"REF-FAIRMONT-HIGHWAYS-18","properties":{"canon_status":"REAL_REFERENCE","county_route":null,"federal_lands_route":null,"fictionality":"REAL","globalid":"{BED4DB56-DF78-4B30-A5E9-79B1232782D1}","interstate":"79","interstate_a":"79","interstate_b":null,"interstate_c":null,"loaddate":1474004334000,"mtfcc_code":"S1100","name":"I- 79","objectid":10997600,"permanent_identifier":"db0d3d14-615b-4f6a-8903-c2759334a856","real_world_relation":"REFERENCE_ONLY","shape_Length":278.7379070418796,"source_datadesc":"2016 January MAFTIGER","source_datasetid":"{9298FF95-0FA8-4712-9AA5-9292C907CA63}","source_featureid":"110803586675","source_id":"REF-FAIRMONT-HIGHWAYS","source_originator":"U.S. Department of Commerce, U.S. Census Bureau, Geography Division","state_route":null,"state_route_a":null,"state_route_b":null,"state_route_c":null,"stco_fipscode":"54049","tnmfrc":1,"us_route":null,"us_route_a":null,"us_route_b":null,"us_route_c":null},"type":"Feature"},{"geometry":{"coordinates":[[-80.068673,39.509829],[-80.0685,39.510082],[-80.068331,39.510297],[-80.067901,39.510795],[-80.067596,39.511117],[-80.067297,39.511404],[-80.067075,39.5116],[-80.066869,39.511771],[-80.066593,39.51198],[-80.066336,39.512167],[-80.066021,39.512379],[-80.065707,39.512575],[-80.065279,39.51282],[-80.064209,39.513384],[-80.063413,39.513825],[-80.063127,39.513994]],"type":"LineString"},"id":"REF-FAIRMONT-HIGHWAYS-19","properties":{"canon_status":"REAL_REFERENCE","county_route":null,"federal_lands_route":null,"fictionality":"REAL","globalid":"{9E073064-8D9E-4FEB-AFAC-567B76E4F710}","interstate":"79","interstate_a":"79","interstate_b":null,"interstate_c":null,"loaddate":1474004334000,"mtfcc_code":"S1100","name":"I- 79","objectid":10997700,"permanent_identifier":"3b1cfc4d-1ed0-4f4d-b782-1dd2acb0974c","real_world_relation":"REFERENCE_ONLY","shape_Length":872.4645077663595,"source_datadesc":"2016 January MAFTIGER","source_datasetid":"{9298FF95-0FA8-4712-9AA5-9292C907CA63}","source_featureid":"110803586676","source_id":"REF-FAIRMONT-HIGHWAYS","source_originator":"U.S. Department of Commerce, U.S. Census Bureau, Geography Division","state_route":null,"state_route_a":null,"state_route_b":null,"state_route_c":null,"stco_fipscode":"54049","tnmfrc":1,"us_route":null,"us_route_a":null,"us_route_b":null,"us_route_c":null},"type":"Feature"},{"geometry":{"coordinates":[[-80.203761,39.405327],[-80.203826,39.405445],[-80.203855,39.405496],[-80.203923,39.405616],[-80.204177,39.406112],[-80.204294,39.406394],[-80.204378,39.406643],[-80.204449,39.406949],[-80.204496,39.407231],[-80.204517,39.407513],[-80.204505,39.407775],[-80.20447,39.408059],[-80.204418,39.40828],[-80.204329,39.408561],[-80.204217,39.408838],[-80.204091,39.409072],[-80.203852,39.409455],[-80.203035,39.410633],[-80.202618,39.411223],[-80.202058,39.412028],[-80.201271,39.413173],[-80.201057,39.413502],[-80.200902,39.413765],[-80.200732,39.414041],[-80.200704,39.414087],[-80.200251,39.414906],[-80.199832,39.415775],[-80.199706,39.416065],[-80.199597,39.416315],[-80.199308,39.417072],[-80.199277,39.417157],[-80.199181,39.417422],[-80.199017,39.417935]],"type":"LineString"},"id":"REF-FAIRMONT-HIGHWAYS-20","properties":{"canon_status":"REAL_REFERENCE","county_route":null,"federal_lands_route":null,"fictionality":"REAL","globalid":"{F08EE854-8702-4B89-8AD7-F66B02CCF59C}","interstate":"79","interstate_a":"79","interstate_b":null,"interstate_c":null,"loaddate":1474004334000,"mtfcc_code":"S1100","name":"I- 79","objectid":11252590,"permanent_identifier":"ced23a1d-bfdf-4784-a5ba-dd27585dfc18","real_world_relation":"REFERENCE_ONLY","shape_Length":1961.1511533026046,"source_datadesc":"2016 January MAFTIGER","source_datasetid":"{9298FF95-0FA8-4712-9AA5-9292C907CA63}","source_featureid":"110803586675","source_id":"REF-FAIRMONT-HIGHWAYS","source_originator":"U.S. Department of Commerce, U.S. Census Bureau, Geography Division","state_route":null,"state_route_a":null,"state_route_b":null,"state_route_c":null,"stco_fipscode":"54049","tnmfrc":1,"us_route":null,"us_route_a":null,"us_route_b":null,"us_route_c":null},"type":"Feature"},{"geometry":{"coordinates":[[-80.145395,39.456966],[-80.14526,39.457112],[-80.144089,39.458289],[-80.14385,39.458555]],"type":"LineString"},"id":"REF-FAIRMONT-HIGHWAYS-21","properties":{"canon_status":"REAL_REFERENCE","county_route":null,"federal_lands_route":null,"fictionality":"REAL","globalid":"{5C09534A-66CE-42B0-B398-06539B2089B2}","interstate":"79","interstate_a":"79","interstate_b":null,"interstate_c":null,"loaddate":1474004334000,"mtfcc_code":"S1100","name":"I- 79","objectid":11508323,"permanent_identifier":"7bbcff82-f49a-4d30-afb0-99fe8fc428d9","real_world_relation":"REFERENCE_ONLY","shape_Length":286.5266063378099,"source_datadesc":"2016 January MAFTIGER","source_datasetid":"{9298FF95-0FA8-4712-9AA5-9292C907CA63}","source_featureid":"110803586676","source_id":"REF-FAIRMONT-HIGHWAYS","source_originator":"U.S. Department of Commerce, U.S. Census Bureau, Geography Division","state_route":null,"state_route_a":null,"state_route_b":null,"state_route_c":null,"stco_fipscode":"54049","tnmfrc":1,"us_route":null,"us_route_a":null,"us_route_b":null,"us_route_c":null},"type":"Feature"},{"geometry":{"coordinates":[[-80.062774,39.513849],[-80.062391,39.514084],[-80.061256,39.514752],[-80.06088,39.514967],[-80.060494,39.515171],[-80.06019,39.515332],[-80.059853,39.515495],[-80.059195,39.515757],[-80.058677,39.515938],[-80.058541,39.515985],[-80.058158,39.516092],[-80.057896,39.516161],[-80.057314,39.516286],[-80.057004,39.516344],[-80.056719,39.516391],[-80.056492,39.516422],[-80.056011,39.51647],[-80.055136,39.516531],[-80.054132,39.516579],[-80.053639,39.516613],[-80.053073,39.516642],[-80.052008,39.516704],[-80.050085,39.516809],[-80.04961,39.516845],[-80.04918,39.516886],[-80.048416,39.516999],[-80.047994,39.517086],[-80.04763,39.517168],[-80.047325,39.517248],[-80.047006,39.51734],[-80.046725,39.517428],[-80.046371,39.517551],[-80.045975,39.517698],[-80.045698,39.517816],[-80.045193,39.518057],[-80.043274,39.519006],[-80.042894,39.519199],[-80.042088,39.519579],[-80.041725,39.519722],[-80.041681,39.519738]],"type":"LineString"},"id":"REF-FAIRMONT-HIGHWAYS-22","properties":{"canon_status":"REAL_REFERENCE","county_route":null,"federal_lands_route":null,"fictionality":"REAL","globalid":"{7C0EDFA1-882B-4A6D-90E0-9A41B8C381B2}","interstate":"79","interstate_a":"79","interstate_b":null,"interstate_c":null,"loaddate":1474004334000,"mtfcc_code":"S1100","name":"I- 79","objectid":11891586,"permanent_identifier":"fed544b9-3bb5-482a-b0df-641303b20de2","real_world_relation":"REFERENCE_ONLY","shape_Length":2557.9068791603295,"source_datadesc":"2016 January MAFTIGER","source_datasetid":"{9298FF95-0FA8-4712-9AA5-9292C907CA63}","source_featureid":"110803586675","source_id":"REF-FAIRMONT-HIGHWAYS","source_originator":"U.S. Department of Commerce, U.S. Census Bureau, Geography Division","state_route":null,"state_route_a":null,"state_route_b":null,"state_route_c":null,"stco_fipscode":"54049","tnmfrc":1,"us_route":null,"us_route_a":null,"us_route_b":null,"us_route_c":null},"type":"Feature"},{"geometry":{"coordinates":[[-80.175738,39.439252],[-80.175287,39.439478],[-80.17503,39.439607],[-80.174914,39.439665],[-80.174505,39.439869],[-80.174004,39.44012],[-80.173186,39.44053],[-80.172497,39.44088],[-80.171659,39.441298]],"type":"LineString"},"id":"REF-FAIRMONT-HIGHWAYS-23","properties":{"canon_status":"REAL_REFERENCE","county_route":null,"federal_lands_route":null,"fictionality":"REAL","globalid":"{969109AB-4AC7-411C-A0FA-75682AAE369E}","interstate":"79","interstate_a":"79","interstate_b":null,"interstate_c":null,"loaddate":1474004334000,"mtfcc_code":"S1100","name":"I- 79","objectid":12018922,"permanent_identifier":"ec07867d-8305-4220-adf7-6527036ccc7c","real_world_relation":"REFERENCE_ONLY","shape_Length":541.4418518940553,"source_datadesc":"2016 January MAFTIGER","source_datasetid":"{9298FF95-0FA8-4712-9AA5-9292C907CA63}","source_featureid":"110803586676","source_id":"REF-FAIRMONT-HIGHWAYS","source_originator":"U.S. Department of Commerce, U.S. Census Bureau, Geography Division","state_route":null,"state_route_a":null,"state_route_b":null,"state_route_c":null,"stco_fipscode":"54049","tnmfrc":1,"us_route":null,"us_route_a":null,"us_route_b":null,"us_route_c":null},"type":"Feature"},{"geometry":{"coordinates":[[-80.203689,39.396563],[-80.203473,39.396831],[-80.203039,39.39744],[-80.202811,39.397835],[-80.202664,39.398128],[-80.202484,39.398535],[-80.202384,39.398834],[-80.202258,39.399291],[-80.202195,39.399632],[-80.202141,39.400121],[-80.202124,39.400637],[-80.202151,39.401002],[-80.202159,39.401064],[-80.202193,39.401334],[-80.202289,39.401787],[-80.202381,39.402137],[-80.202518,39.402503],[-80.20262,39.402754],[-80.202785,39.403089],[-80.203236,39.403908],[-80.203778,39.40491],[-80.203937,39.405198],[-80.203968,39.405255],[-80.204042,39.405389]],"type":"LineString"},"id":"REF-FAIRMONT-HIGHWAYS-24","properties":{"canon_status":"REAL_REFERENCE","county_route":null,"federal_lands_route":null,"fictionality":"REAL","globalid":"{4150ECB0-7A06-41B3-B80E-5625D0EE572D}","interstate":"79","interstate_a":"79","interstate_b":null,"interstate_c":null,"loaddate":1474004334000,"mtfcc_code":"S1100","name":"I- 79","objectid":12530478,"permanent_identifier":"489b6503-8983-434a-87cb-455169267639","real_world_relation":"REFERENCE_ONLY","shape_Length":1344.078052133789,"source_datadesc":"2016 January MAFTIGER","source_datasetid":"{9298FF95-0FA8-4712-9AA5-9292C907CA63}","source_featureid":"110803586676","source_id":"REF-FAIRMONT-HIGHWAYS","source_originator":"U.S. Department of Commerce, U.S. Census Bureau, Geography Division","state_route":null,"state_route_a":null,"state_route_b":null,"state_route_c":null,"stco_fipscode":"54049","tnmfrc":1,"us_route":null,"us_route_a":null,"us_route_b":null,"us_route_c":null},"type":"Feature"},{"geometry":{"coordinates":[[-80.146978,39.455031],[-80.146603,39.455415],[-80.145877,39.456173],[-80.145369,39.456688],[-80.145302,39.456756],[-80.145162,39.456898]],"type":"LineString"},"id":"REF-FAIRMONT-HIGHWAYS-25","properties":{"canon_status":"REAL_REFERENCE","county_route":null,"federal_lands_route":null,"fictionality":"REAL","globalid":"{BFD5F0A6-EE19-4E96-8328-E2C9E07B1BB1}","interstate":"79","interstate_a":"79","interstate_b":null,"interstate_c":null,"loaddate":1474004334000,"mtfcc_code":"S1100","name":"I- 79","objectid":12530507,"permanent_identifier":"c36d3bbf-7895-40bc-a37d-71dd358ceb56","real_world_relation":"REFERENCE_ONLY","shape_Length":336.64053271633094,"source_datadesc":"2016 January MAFTIGER","source_datasetid":"{9298FF95-0FA8-4712-9AA5-9292C907CA63}","source_featureid":"110803586675","source_id":"REF-FAIRMONT-HIGHWAYS","source_originator":"U.S. Department of Commerce, U.S. Census Bureau, Geography Division","state_route":null,"state_route_a":null,"state_route_b":null,"state_route_c":null,"stco_fipscode":"54049","tnmfrc":1,"us_route":null,"us_route_a":null,"us_route_b":null,"us_route_c":null},"type":"Feature"},{"geometry":{"coordinates":[[-80.136676,39.464586],[-80.136431,39.464778],[-80.135627,39.465367],[-80.133071,39.467267],[-80.132468,39.4677],[-80.132077,39.467968],[-80.131594,39.468267],[-80.131572,39.468279]],"type":"LineString"},"id":"REF-FAIRMONT-HIGHWAYS-26","properties":{"canon_status":"REAL_REFERENCE","county_route":null,"federal_lands_route":null,"fictionality":"REAL","globalid":"{633B45DB-3D0D-4901-A654-C52968C6F441}","interstate":"79","interstate_a":"79","interstate_b":null,"interstate_c":null,"loaddate":1568201756000,"mtfcc_code":"S1100","name":"I- 79","objectid":13638409,"permanent_identifier":"be36ba32-b604-4aa9-81a0-061627dbf848","real_world_relation":"REFERENCE_ONLY","shape_Length":779.1120360619606,"source_datadesc":"2018 May MAF/TIGER","source_datasetid":"{75C4AE26-EEFC-4063-A106-98980856821E}","source_featureid":"110803586676","source_id":"REF-FAIRMONT-HIGHWAYS","source_originator":"U.S. Department of Commerce, U.S. Census Bureau, Geography Division","state_route":null,"state_route_a":null,"state_route_b":null,"state_route_c":null,"stco_fipscode":"54049","tnmfrc":1,"us_route":null,"us_route_a":null,"us_route_b":null,"us_route_c":null},"type":"Feature"},{"geometry":{"coordinates":[[-80.067884,39.510228],[-80.067655,39.510523],[-80.067381,39.510818],[-80.066914,39.511277],[-80.066737,39.511433],[-80.066381,39.511721],[-80.066156,39.511887],[-80.065643,39.512224],[-80.06544,39.512348],[-80.064589,39.512842],[-80.063287,39.513577],[-80.062774,39.513849]],"type":"LineString"},"id":"REF-FAIRMONT-HIGHWAYS-27","properties":{"canon_status":"REAL_REFERENCE","county_route":null,"federal_lands_route":null,"fictionality":"REAL","globalid":"{B7ECE8E3-14BF-41E5-BCD5-18057DA23640}","interstate":"79","interstate_a":"79","interstate_b":null,"interstate_c":null,"loaddate":1474004334000,"mtfcc_code":"S1100","name":"I- 79","objectid":13934655,"permanent_identifier":"32962d6d-3572-49ad-ac32-e37b15700853","real_world_relation":"REFERENCE_ONLY","shape_Length":779.4425791105258,"source_datadesc":"2016 January MAFTIGER","source_datasetid":"{9298FF95-0FA8-4712-9AA5-9292C907CA63}","source_featureid":"110803586675","source_id":"REF-FAIRMONT-HIGHWAYS","source_originator":"U.S. Department of Commerce, U.S. Census Bureau, Geography Division","state_route":null,"state_route_a":null,"state_route_b":null,"state_route_c":null,"stco_fipscode":"54049","tnmfrc":1,"us_route":null,"us_route_a":null,"us_route_b":null,"us_route_c":null},"type":"Feature"},{"geometry":{"coordinates":[[-80.0706,39.504581],[-80.07042,39.504991],[-80.070285,39.5053],[-80.069681,39.506704],[-80.069588,39.506942],[-80.069126,39.50798],[-80.068975,39.508357],[-80.068825,39.508712],[-80.068691,39.508988],[-80.068447,39.509451],[-80.068266,39.509714],[-80.067954,39.510129],[-80.067884,39.510228]],"type":"LineString"},"id":"REF-FAIRMONT-HIGHWAYS-28","properties":{"canon_status":"REAL_REFERENCE","county_route":null,"federal_lands_route":null,"fictionality":"REAL","globalid":"{0E727675-997C-48A4-967B-3D272208502F}","interstate":"79","interstate_a":"79","interstate_b":null,"interstate_c":null,"loaddate":1474004334000,"mtfcc_code":"S1100","name":"I- 79","objectid":14190207,"permanent_identifier":"b7eca003-9331-4cb9-95cd-68a90b1a325f","real_world_relation":"REFERENCE_ONLY","shape_Length":871.0564987077366,"source_datadesc":"2016 January MAFTIGER","source_datasetid":"{9298FF95-0FA8-4712-9AA5-9292C907CA63}","source_featureid":"110803586675","source_id":"REF-FAIRMONT-HIGHWAYS","source_originator":"U.S. Department of Commerce, U.S. Census Bureau, Geography Division","state_route":null,"state_route_a":null,"state_route_b":null,"state_route_c":null,"stco_fipscode":"54049","tnmfrc":1,"us_route":null,"us_route_a":null,"us_route_b":null,"us_route_c":null},"type":"Feature"},{"geometry":{"coordinates":[[-80.203504,39.396465],[-80.203413,39.39658],[-80.203192,39.396845],[-80.202966,39.397145],[-80.202735,39.397513],[-80.20261,39.397732],[-80.202483,39.397979],[-80.202244,39.398548],[-80.202094,39.399014],[-80.202004,39.399403],[-80.201963,39.399653],[-80.201923,39.40001],[-80.201899,39.400496],[-80.201915,39.40089],[-80.201955,39.401247],[-80.201975,39.401427],[-80.202048,39.401766],[-80.202126,39.402046],[-80.202241,39.402395],[-80.202397,39.402778],[-80.202517,39.403036],[-80.20306,39.404054],[-80.203334,39.404531],[-80.203492,39.404846],[-80.203646,39.405122],[-80.203693,39.405205],[-80.203761,39.405327]],"type":"LineString"},"id":"REF-FAIRMONT-HIGHWAYS-29","properties":{"canon_status":"REAL_REFERENCE","county_route":null,"federal_lands_route":null,"fictionality":"REAL","globalid":"{E9B36838-CAB4-4B60-A5BE-614EE2885989}","interstate":"79","interstate_a":"79","interstate_b":null,"interstate_c":null,"loaddate":1474004334000,"mtfcc_code":"S1100","name":"I- 79","objectid":14573621,"permanent_identifier":"06371db1-6961-4080-82b7-a761d2e54191","real_world_relation":"REFERENCE_ONLY","shape_Length":1349.2006223600492,"source_datadesc":"2016 January MAFTIGER","source_datasetid":"{9298FF95-0FA8-4712-9AA5-9292C907CA63}","source_featureid":"110803586675","source_id":"REF-FAIRMONT-HIGHWAYS","source_originator":"U.S. Department of Commerce, U.S. Census Bureau, Geography Division","state_route":null,"state_route_a":null,"state_route_b":null,"state_route_c":null,"stco_fipscode":"54049","tnmfrc":1,"us_route":null,"us_route_a":null,"us_route_b":null,"us_route_c":null},"type":"Feature"},{"geometry":{"coordinates":[[-80.096554,39.485224],[-80.096128,39.48588],[-80.096093,39.485937],[-80.095664,39.486617],[-80.095546,39.486798],[-80.095333,39.487078],[-80.09503,39.487442],[-80.094889,39.48759],[-80.094448,39.487956],[-80.094415,39.48798],[-80.09431,39.488056],[-80.094132,39.488178],[-80.093982,39.488271],[-80.093788,39.488384],[-80.093732,39.48841],[-80.093342,39.488593],[-80.0931,39.488689]],"type":"LineString"},"id":"REF-FAIRMONT-HIGHWAYS-30","properties":{"canon_status":"REAL_REFERENCE","county_route":null,"federal_lands_route":null,"fictionality":"REAL","globalid":"{B6815D4B-A8C1-4F95-9C9E-DBBCAEB2B038}","interstate":"79","interstate_a":"79","interstate_b":null,"interstate_c":null,"loaddate":1474004334000,"mtfcc_code":"S1100","name":"I- 79","objectid":15340382,"permanent_identifier":"e08e64fc-5caa-4c68-870f-3813e79a1b1d","real_world_relation":"REFERENCE_ONLY","shape_Length":645.4995701571754,"source_datadesc":"2016 January MAFTIGER","source_datasetid":"{9298FF95-0FA8-4712-9AA5-9292C907CA63}","source_featureid":"110803586676","source_id":"REF-FAIRMONT-HIGHWAYS","source_originator":"U.S. Department of Commerce, U.S. Census Bureau, Geography Division","state_route":null,"state_route_a":null,"state_route_b":null,"state_route_c":null,"stco_fipscode":"54049","tnmfrc":1,"us_route":null,"us_route_a":null,"us_route_b":null,"us_route_c":null},"type":"Feature"},{"geometry":{"coordinates":[[-80.131433,39.468357],[-80.130968,39.468618],[-80.130869,39.468674],[-80.130435,39.468892],[-80.130402,39.468909],[-80.130338,39.468941],[-80.130284,39.468967],[-80.130169,39.469021],[-80.130135,39.469037],[-80.129535,39.46932],[-80.129451,39.469357],[-80.12916,39.469487],[-80.128694,39.469655],[-80.1277,39.469989],[-80.125791,39.470638],[-80.123814,39.471279],[-80.123558,39.471362],[-80.122754,39.47163],[-80.122496,39.471705]],"type":"LineString"},"id":"REF-FAIRMONT-HIGHWAYS-31","properties":{"canon_status":"REAL_REFERENCE","county_route":null,"federal_lands_route":null,"fictionality":"REAL","globalid":"{AB45FCD5-389E-447A-AA20-B70AE55CB00C}","interstate":"79","interstate_a":"79","interstate_b":null,"interstate_c":null,"loaddate":1568201756000,"mtfcc_code":"S1100","name":"I- 79","objectid":15810153,"permanent_identifier":"b68085ac-57e9-4367-bef0-53ed3c6c8e81","real_world_relation":"REFERENCE_ONLY","shape_Length":1109.0362704322697,"source_datadesc":"2018 May MAF/TIGER","source_datasetid":"{75C4AE26-EEFC-4063-A106-98980856821E}","source_featureid":"110803586676","source_id":"REF-FAIRMONT-HIGHWAYS","source_originator":"U.S. Department of Commerce, U.S. Census Bureau, Geography Division","state_route":null,"state_route_a":null,"state_route_b":null,"state_route_c":null,"stco_fipscode":"54049","tnmfrc":1,"us_route":null,"us_route_a":null,"us_route_b":null,"us_route_c":null},"type":"Feature"},{"geometry":{"coordinates":[[-80.165592,39.444776],[-80.165399,39.444885],[-80.164437,39.44546],[-80.163387,39.446058],[-80.162823,39.446365],[-80.162441,39.446573],[-80.162244,39.446672],[-80.161629,39.446983],[-80.161036,39.447272],[-80.159926,39.447783],[-80.15948,39.447999],[-80.158948,39.448234],[-80.157457,39.448917],[-80.1569,39.449164],[-80.156299,39.449438],[-80.155928,39.449614],[-80.155155,39.449953],[-80.153964,39.450499],[-80.1537,39.450611],[-80.153389,39.450759],[-80.153016,39.450928],[-80.152571,39.451151],[-80.151621,39.451665],[-80.151283,39.451865],[-80.150919,39.452093],[-80.150458,39.45239],[-80.150074,39.452659],[-80.149763,39.452871],[-80.149212,39.453283],[-80.148902,39.453543]],"type":"LineString"},"id":"REF-FAIRMONT-HIGHWAYS-32","properties":{"canon_status":"REAL_REFERENCE","county_route":null,"federal_lands_route":null,"fictionality":"REAL","globalid":"{F64636A6-7471-4884-8384-151B0F096677}","interstate":"79","interstate_a":"79","interstate_b":null,"interstate_c":null,"loaddate":1474004334000,"mtfcc_code":"S1100","name":"I- 79","objectid":16616855,"permanent_identifier":"c4919909-8605-42ea-85a3-063341d7c684","real_world_relation":"REFERENCE_ONLY","shape_Length":2253.837634922513,"source_datadesc":"2016 January MAFTIGER","source_datasetid":"{9298FF95-0FA8-4712-9AA5-9292C907CA63}","source_featureid":"110803586676","source_id":"REF-FAIRMONT-HIGHWAYS","source_originator":"U.S. Department of Commerce, U.S. Census Bureau, Geography Division","state_route":null,"state_route_a":null,"state_route_b":null,"state_route_c":null,"stco_fipscode":"54049","tnmfrc":1,"us_route":null,"us_route_a":null,"us_route_b":null,"us_route_c":null},"type":"Feature"},{"geometry":{"coordinates":[[-80.176017,39.439113],[-80.175738,39.439252]],"type":"LineString"},"id":"REF-FAIRMONT-HIGHWAYS-33","properties":{"canon_status":"REAL_REFERENCE","county_route":null,"federal_lands_route":null,"fictionality":"REAL","globalid":"{9A27518B-9413-4765-A5CD-37BB331DFDDD}","interstate":"79","interstate_a":"79","interstate_b":null,"interstate_c":null,"loaddate":1474004334000,"mtfcc_code":"S1100","name":"I- 79","objectid":17000244,"permanent_identifier":"d6834f72-25a0-41b4-a36d-209d85f1fd56","real_world_relation":"REFERENCE_ONLY","shape_Length":36.95988429876678,"source_datadesc":"2016 January MAFTIGER","source_datasetid":"{9298FF95-0FA8-4712-9AA5-9292C907CA63}","source_featureid":"110803586676","source_id":"REF-FAIRMONT-HIGHWAYS","source_originator":"U.S. Department of Commerce, U.S. Census Bureau, Geography Division","state_route":null,"state_route_a":null,"state_route_b":null,"state_route_c":null,"stco_fipscode":"54049","tnmfrc":1,"us_route":null,"us_route_a":null,"us_route_b":null,"us_route_c":null},"type":"Feature"},{"geometry":{"coordinates":[[-80.199248,39.417952],[-80.199094,39.418465],[-80.198897,39.419258],[-80.198773,39.419898],[-80.198626,39.420655],[-80.198243,39.422675]],"type":"LineString"},"id":"REF-FAIRMONT-HIGHWAYS-34","properties":{"canon_status":"REAL_REFERENCE","county_route":null,"federal_lands_route":null,"fictionality":"REAL","globalid":"{A09C15E8-14E2-490A-85C1-7F033904FE3F}","interstate":"79","interstate_a":"79","interstate_b":null,"interstate_c":null,"loaddate":1474004334000,"mtfcc_code":"S1100","name":"I- 79","objectid":17769809,"permanent_identifier":"50b5fa94-3c92-4435-8457-05b23b90f6bf","real_world_relation":"REFERENCE_ONLY","shape_Length":689.9913632737212,"source_datadesc":"2016 January MAFTIGER","source_datasetid":"{9298FF95-0FA8-4712-9AA5-9292C907CA63}","source_featureid":"110803586676","source_id":"REF-FAIRMONT-HIGHWAYS","source_originator":"U.S. Department of Commerce, U.S. Census Bureau, Geography Division","state_route":null,"state_route_a":null,"state_route_b":null,"state_route_c":null,"stco_fipscode":"54049","tnmfrc":1,"us_route":null,"us_route_a":null,"us_route_b":null,"us_route_c":null},"type":"Feature"},{"geometry":{"coordinates":[[-80.089531,39.489051],[-80.089022,39.489101],[-80.088374,39.489181],[-80.087755,39.489234],[-80.087423,39.489273],[-80.08644,39.489368],[-80.086253,39.489389],[-80.085928,39.489418],[-80.085599,39.489454],[-80.084733,39.489576],[-80.084478,39.489626],[-80.084327,39.489661]],"type":"LineString"},"id":"REF-FAIRMONT-HIGHWAYS-35","properties":{"canon_status":"REAL_REFERENCE","county_route":null,"federal_lands_route":null,"fictionality":"REAL","globalid":"{737E45AE-7DDC-427A-86BF-C35033A45548}","interstate":"79","interstate_a":"79","interstate_b":null,"interstate_c":null,"loaddate":1474004334000,"mtfcc_code":"S1100","name":"I- 79","objectid":17769813,"permanent_identifier":"09b7eddc-28e9-4bb2-93f8-2cd0ca533809","real_world_relation":"REFERENCE_ONLY","shape_Length":586.447567259298,"source_datadesc":"2016 January MAFTIGER","source_datasetid":"{9298FF95-0FA8-4712-9AA5-9292C907CA63}","source_featureid":"110803586675","source_id":"REF-FAIRMONT-HIGHWAYS","source_originator":"U.S. Department of Commerce, U.S. Census Bureau, Geography Division","state_route":null,"state_route_a":null,"state_route_b":null,"state_route_c":null,"stco_fipscode":"54049","tnmfrc":1,"us_route":null,"us_route_a":null,"us_route_b":null,"us_route_c":null},"type":"Feature"},{"geometry":{"coordinates":[[-80.119102,39.473094],[-80.118895,39.47321],[-80.117998,39.473747],[-80.11725,39.474255]],"type":"LineString"},"id":"REF-FAIRMONT-HIGHWAYS-36","properties":{"canon_status":"REAL_REFERENCE","county_route":null,"federal_lands_route":null,"fictionality":"REAL","globalid":"{C73F5183-EC65-4827-BB84-93DE42EB923C}","interstate":"79","interstate_a":"79","interstate_b":null,"interstate_c":null,"loaddate":1474004334000,"mtfcc_code":"S1100","name":"I- 79","objectid":18026296,"permanent_identifier":"b1d30198-adba-4958-902e-368e96f25599","real_world_relation":"REFERENCE_ONLY","shape_Length":265.7464881813267,"source_datadesc":"2016 January MAFTIGER","source_datasetid":"{9298FF95-0FA8-4712-9AA5-9292C907CA63}","source_featureid":"110803586676","source_id":"REF-FAIRMONT-HIGHWAYS","source_originator":"U.S. Department of Commerce, U.S. Census Bureau, Geography Division","state_route":null,"state_route_a":null,"state_route_b":null,"state_route_c":null,"stco_fipscode":"54049","tnmfrc":1,"us_route":null,"us_route_a":null,"us_route_b":null,"us_route_c":null},"type":"Feature"},{"geometry":{"coordinates":[[-80.120786,39.472297],[-80.120002,39.472617],[-80.119553,39.472829],[-80.119102,39.473094]],"type":"LineString"},"id":"REF-FAIRMONT-HIGHWAYS-37","properties":{"canon_status":"REAL_REFERENCE","county_route":null,"federal_lands_route":null,"fictionality":"REAL","globalid":"{36771113-C098-4E9A-BF65-701B737DD3F8}","interstate":"79","interstate_a":"79","interstate_b":null,"interstate_c":null,"loaddate":1474004334000,"mtfcc_code":"S1100","name":"I- 79","objectid":18026303,"permanent_identifier":"7edfa651-169a-4461-a10a-8def0348028f","real_world_relation":"REFERENCE_ONLY","shape_Length":220.41007164627092,"source_datadesc":"2016 January MAFTIGER","source_datasetid":"{9298FF95-0FA8-4712-9AA5-9292C907CA63}","source_featureid":"110803586676","source_id":"REF-FAIRMONT-HIGHWAYS","source_originator":"U.S. Department of Commerce, U.S. Census Bureau, Geography Division","state_route":null,"state_route_a":null,"state_route_b":null,"state_route_c":null,"stco_fipscode":"54049","tnmfrc":1,"us_route":null,"us_route_a":null,"us_route_b":null,"us_route_c":null},"type":"Feature"},{"geometry":{"coordinates":[[-80.131427,39.468128],[-80.131295,39.468208]],"type":"LineString"},"id":"REF-FAIRMONT-HIGHWAYS-38","properties":{"canon_status":"REAL_REFERENCE","county_route":null,"federal_lands_route":null,"fictionality":"REAL","globalid":"{EF005132-BB49-4BB9-9171-B5B6146E0D27}","interstate":"79","interstate_a":"79","interstate_b":null,"interstate_c":null,"loaddate":1568201756000,"mtfcc_code":"S1100","name":"I- 79","objectid":18498669,"permanent_identifier":"27b8179c-f454-4a2c-aa9b-df4c3d6ebdf7","real_world_relation":"REFERENCE_ONLY","shape_Length":18.588652277177268,"source_datadesc":"2018 May MAF/TIGER","source_datasetid":"{75C4AE26-EEFC-4063-A106-98980856821E}","source_featureid":"110803586675","source_id":"REF-FAIRMONT-HIGHWAYS","source_originator":"U.S. Department of Commerce, U.S. Census Bureau, Geography Division","state_route":null,"state_route_a":null,"state_route_b":null,"state_route_c":null,"stco_fipscode":"54049","tnmfrc":1,"us_route":null,"us_route_a":null,"us_route_b":null,"us_route_c":null},"type":"Feature"},{"geometry":{"coordinates":[[-80.187102,39.432474],[-80.187015,39.432507],[-80.186269,39.432788],[-80.185835,39.43296],[-80.18538,39.433165],[-80.185103,39.433328],[-80.184849,39.433484],[-80.18459,39.433654],[-80.184523,39.433705]],"type":"LineString"},"id":"REF-FAIRMONT-HIGHWAYS-39","properties":{"canon_status":"REAL_REFERENCE","county_route":null,"federal_lands_route":null,"fictionality":"REAL","globalid":"{BC82D8F3-AB3C-419F-9DF6-C09F9F2C1C98}","interstate":"79","interstate_a":"79","interstate_b":null,"interstate_c":null,"loaddate":1474004334000,"mtfcc_code":"S1100","name":"I- 79","objectid":19180846,"permanent_identifier":"b0c8a8e1-aa20-4956-a4cb-656d3637cc05","real_world_relation":"REFERENCE_ONLY","shape_Length":339.32178512543334,"source_datadesc":"2016 January MAFTIGER","source_datasetid":"{9298FF95-0FA8-4712-9AA5-9292C907CA63}","source_featureid":"110803586676","source_id":"REF-FAIRMONT-HIGHWAYS","source_originator":"U.S. Department of Commerce, U.S. Census Bureau, Geography Division","state_route":null,"state_route_a":null,"state_route_b":null,"state_route_c":null,"stco_fipscode":"54049","tnmfrc":1,"us_route":null,"us_route_a":null,"us_route_b":null,"us_route_c":null},"type":"Feature"},{"geometry":{"coordinates":[[-80.063127,39.513994],[-80.062983,39.514079],[-80.062557,39.51429],[-80.062447,39.514347],[-80.062175,39.514488],[-80.061733,39.514725],[-80.061292,39.51497],[-80.060437,39.515425],[-80.06011,39.515579],[-80.059784,39.51572],[-80.059471,39.515844],[-80.059121,39.515976],[-80.059042,39.516002],[-80.058536,39.516167],[-80.05826,39.516241],[-80.057721,39.516374],[-80.057427,39.516437],[-80.05718,39.516482],[-80.056651,39.516566],[-80.056195,39.51662],[-80.055825,39.51665],[-80.055028,39.516703],[-80.054737,39.516717],[-80.054449,39.516737],[-80.054008,39.516754],[-80.052005,39.516865],[-80.051598,39.516895],[-80.051532,39.516899],[-80.050707,39.51695],[-80.04995,39.516987],[-80.049613,39.51701],[-80.049116,39.517067],[-80.048479,39.517166],[-80.04823,39.517213],[-80.047795,39.517312],[-80.047344,39.517427],[-80.047121,39.517491],[-80.046468,39.51771],[-80.046296,39.517775],[-80.04585,39.517953],[-80.045527,39.518102],[-80.04508,39.518317],[-80.044561,39.518581],[-80.044227,39.518745],[-80.043869,39.51893],[-80.042901,39.519393],[-80.042607,39.519538],[-80.042539,39.519576],[-80.042205,39.519723],[-80.041949,39.519827],[-80.041749,39.5199]],"type":"LineString"},"id":"REF-FAIRMONT-HIGHWAYS-40","properties":{"canon_status":"REAL_REFERENCE","county_route":null,"federal_lands_route":null,"fictionality":"REAL","globalid":"{F1783061-9735-4269-A3DF-9EAE55AED7C9}","interstate":"79","interstate_a":"79","interstate_b":null,"interstate_c":null,"loaddate":1474004334000,"mtfcc_code":"S1100","name":"I- 79","objectid":20975820,"permanent_identifier":"2e7d25ea-48cf-481c-af02-27811cc8bbcd","real_world_relation":"REFERENCE_ONLY","shape_Length":2585.0154179729507,"source_datadesc":"2016 January MAFTIGER","source_datasetid":"{9298FF95-0FA8-4712-9AA5-9292C907CA63}","source_featureid":"110803586676","source_id":"REF-FAIRMONT-HIGHWAYS","source_originator":"U.S. Department of Commerce, U.S. Census Bureau, Geography Division","state_route":null,"state_route_a":null,"state_route_b":null,"state_route_c":null,"stco_fipscode":"54049","tnmfrc":1,"us_route":null,"us_route_a":null,"us_route_b":null,"us_route_c":null},"type":"Feature"},{"geometry":{"coordinates":[[-80.13664,39.464354],[-80.136352,39.464574],[-80.136026,39.464802],[-80.135235,39.465391],[-80.134513,39.465942],[-80.133961,39.466349],[-80.13344,39.466742],[-80.132873,39.467163],[-80.132493,39.467436],[-80.131881,39.467854],[-80.131427,39.468128]],"type":"LineString"},"id":"REF-FAIRMONT-HIGHWAYS-41","properties":{"canon_status":"REAL_REFERENCE","county_route":null,"federal_lands_route":null,"fictionality":"REAL","globalid":"{5B3969DF-6A87-45CD-9F86-252931B019F4}","interstate":"79","interstate_a":"79","interstate_b":null,"interstate_c":null,"loaddate":1568201756000,"mtfcc_code":"S1100","name":"I- 79","objectid":21574605,"permanent_identifier":"8b5a2d8f-c7cc-42dc-9583-8243b1a7fc25","real_world_relation":"REFERENCE_ONLY","shape_Length":796.0477242733701,"source_datadesc":"2018 May MAF/TIGER","source_datasetid":"{75C4AE26-EEFC-4063-A106-98980856821E}","source_featureid":"110803586675","source_id":"REF-FAIRMONT-HIGHWAYS","source_originator":"U.S. Department of Commerce, U.S. Census Bureau, Geography Division","state_route":null,"state_route_a":null,"state_route_b":null,"state_route_c":null,"stco_fipscode":"54049","tnmfrc":1,"us_route":null,"us_route_a":null,"us_route_b":null,"us_route_c":null},"type":"Feature"},{"geometry":{"coordinates":[[-80.204042,39.405389],[-80.204113,39.405517],[-80.20414,39.405566],[-80.204242,39.405752],[-80.204451,39.406185],[-80.204558,39.406427],[-80.204619,39.406617],[-80.20468,39.406853],[-80.204718,39.407085],[-80.204744,39.40743],[-80.204741,39.407817],[-80.204667,39.408227],[-80.204587,39.408498],[-80.204503,39.408755],[-80.204391,39.408981],[-80.204224,39.409299],[-80.203926,39.409745],[-80.20193,39.412598],[-80.201524,39.4132],[-80.201055,39.413924],[-80.20094,39.414123],[-80.200623,39.414671],[-80.200361,39.415186],[-80.20015,39.415613],[-80.199961,39.416052],[-80.199651,39.41677],[-80.199557,39.417039],[-80.199297,39.417786],[-80.199248,39.417952]],"type":"LineString"},"id":"REF-FAIRMONT-HIGHWAYS-42","properties":{"canon_status":"REAL_REFERENCE","county_route":null,"federal_lands_route":null,"fictionality":"REAL","globalid":"{CB4E0BE5-A4F6-4BDE-827F-21E705FC51BE}","interstate":"79","interstate_a":"79","interstate_b":null,"interstate_c":null,"loaddate":1474004334000,"mtfcc_code":"S1100","name":"I- 79","objectid":22127909,"permanent_identifier":"9b67f7de-7afc-483a-bb64-2b7328f9d258","real_world_relation":"REFERENCE_ONLY","shape_Length":1953.977968589513,"source_datadesc":"2016 January MAFTIGER","source_datasetid":"{9298FF95-0FA8-4712-9AA5-9292C907CA63}","source_featureid":"110803586676","source_id":"REF-FAIRMONT-HIGHWAYS","source_originator":"U.S. Department of Commerce, U.S. Census Bureau, Geography Division","state_route":null,"state_route_a":null,"state_route_b":null,"state_route_c":null,"stco_fipscode":"54049","tnmfrc":1,"us_route":null,"us_route_a":null,"us_route_b":null,"us_route_c":null},"type":"Feature"},{"geometry":{"coordinates":[[-80.184523,39.433705],[-80.184047,39.434075],[-80.183574,39.43448],[-80.181862,39.435917]],"type":"LineString"},"id":"REF-FAIRMONT-HIGHWAYS-43","properties":{"canon_status":"REAL_REFERENCE","county_route":null,"federal_lands_route":null,"fictionality":"REAL","globalid":"{6FD96B90-9B04-4C42-8873-DC717626A3DD}","interstate":"79","interstate_a":"79","interstate_b":null,"interstate_c":null,"loaddate":1474004334000,"mtfcc_code":"S1100","name":"I- 79","objectid":22768197,"permanent_identifier":"6696f57d-f170-4a98-8145-2980922d6424","real_world_relation":"REFERENCE_ONLY","shape_Length":435.24626327859664,"source_datadesc":"2016 January MAFTIGER","source_datasetid":"{9298FF95-0FA8-4712-9AA5-9292C907CA63}","source_featureid":"110803586676","source_id":"REF-FAIRMONT-HIGHWAYS","source_originator":"U.S. Department of Commerce, U.S. Census Bureau, Geography Division","state_route":null,"state_route_a":null,"state_route_b":null,"state_route_c":null,"stco_fipscode":"54049","tnmfrc":1,"us_route":null,"us_route_a":null,"us_route_b":null,"us_route_c":null},"type":"Feature"},{"geometry":{"coordinates":[[-80.117152,39.474089],[-80.116776,39.474379],[-80.115539,39.47545],[-80.115156,39.475767],[-80.11468,39.476112],[-80.114317,39.476342],[-80.114016,39.476499],[-80.113555,39.476706],[-80.113058,39.476881],[-80.112505,39.477022],[-80.112212,39.47708],[-80.111667,39.47716],[-80.110999,39.477228],[-80.109366,39.477375],[-80.108918,39.477421],[-80.10827,39.47754],[-80.108161,39.47756],[-80.107883,39.477642],[-80.107581,39.477741],[-80.107366,39.477819],[-80.107133,39.477904],[-80.106598,39.478154],[-80.106427,39.478242],[-80.10588,39.478526],[-80.105654,39.478643],[-80.104791,39.479104],[-80.10365,39.4797],[-80.102364,39.480385],[-80.101135,39.48103],[-80.100058,39.481594],[-80.099528,39.481877],[-80.098999,39.482192],[-80.098552,39.482506],[-80.098149,39.482824],[-80.097579,39.483371],[-80.097339,39.483646],[-80.097184,39.483841],[-80.096317,39.485122]],"type":"LineString"},"id":"REF-FAIRMONT-HIGHWAYS-44","properties":{"canon_status":"REAL_REFERENCE","county_route":null,"federal_lands_route":null,"fictionality":"REAL","globalid":"{A52AB2C8-C7E3-471B-9CAB-7B6E513CA35E}","interstate":"79","interstate_a":"79","interstate_b":null,"interstate_c":null,"loaddate":1474004334000,"mtfcc_code":"S1100","name":"I- 79","objectid":22768320,"permanent_identifier":"19376a01-8cd1-4b84-b3ff-07d5eb834fdb","real_world_relation":"REFERENCE_ONLY","shape_Length":2912.9077940770885,"source_datadesc":"2016 January MAFTIGER","source_datasetid":"{9298FF95-0FA8-4712-9AA5-9292C907CA63}","source_featureid":"110803586675","source_id":"REF-FAIRMONT-HIGHWAYS","source_originator":"U.S. Department of Commerce, U.S. Census Bureau, Geography Division","state_route":null,"state_route_a":null,"state_route_b":null,"state_route_c":null,"stco_fipscode":"54049","tnmfrc":1,"us_route":null,"us_route_a":null,"us_route_b":null,"us_route_c":null},"type":"Feature"},{"geometry":{"coordinates":[[-80.123619,39.471123],[-80.122985,39.47134],[-80.121746,39.471753],[-80.121234,39.471919],[-80.12104,39.471982]],"type":"LineString"},"id":"REF-FAIRMONT-HIGHWAYS-45","properties":{"canon_status":"REAL_REFERENCE","county_route":null,"federal_lands_route":null,"fictionality":"REAL","globalid":"{B53982EA-E045-49D0-BF27-881F333F536F}","interstate":"79","interstate_a":"79","interstate_b":null,"interstate_c":null,"loaddate":1474004334000,"mtfcc_code":"S1100","name":"I- 79","objectid":23281498,"permanent_identifier":"aa7d0a41-75d3-4486-b287-9a08c81a508f","real_world_relation":"REFERENCE_ONLY","shape_Length":312.6853307468252,"source_datadesc":"2016 January MAFTIGER","source_datasetid":"{9298FF95-0FA8-4712-9AA5-9292C907CA63}","source_featureid":"110803586675","source_id":"REF-FAIRMONT-HIGHWAYS","source_originator":"U.S. Department of Commerce, U.S. Census Bureau, Geography Division","state_route":null,"state_route_a":null,"state_route_b":null,"state_route_c":null,"stco_fipscode":"54049","tnmfrc":1,"us_route":null,"us_route_a":null,"us_route_b":null,"us_route_c":null},"type":"Feature"},{"geometry":{"coordinates":[[-80.122496,39.471705],[-80.122005,39.471847],[-80.121347,39.472083],[-80.121131,39.47216],[-80.120928,39.472241]],"type":"LineString"},"id":"REF-FAIRMONT-HIGHWAYS-46","properties":{"canon_status":"REAL_REFERENCE","county_route":null,"federal_lands_route":null,"fictionality":"REAL","globalid":"{1B72D504-8366-48FF-916E-1C44123B946C}","interstate":"79","interstate_a":"79","interstate_b":null,"interstate_c":null,"loaddate":1474004334000,"mtfcc_code":"S1100","name":"I- 79","objectid":23665365,"permanent_identifier":"6a8511a4-3957-474f-9744-cd5def01fd32","real_world_relation":"REFERENCE_ONLY","shape_Length":191.05998646376358,"source_datadesc":"2016 January MAFTIGER","source_datasetid":"{9298FF95-0FA8-4712-9AA5-9292C907CA63}","source_featureid":"110803586676","source_id":"REF-FAIRMONT-HIGHWAYS","source_originator":"U.S. Department of Commerce, U.S. Census Bureau, Geography Division","state_route":null,"state_route_a":null,"state_route_b":null,"state_route_c":null,"stco_fipscode":"54049","tnmfrc":1,"us_route":null,"us_route_a":null,"us_route_b":null,"us_route_c":null},"type":"Feature"},{"geometry":{"coordinates":[[-80.0931,39.488689],[-80.092615,39.488819],[-80.092297,39.488897],[-80.09215,39.488922],[-80.091545,39.489026],[-80.091132,39.489071],[-80.090934,39.489093],[-80.090178,39.489164],[-80.089489,39.489237]],"type":"LineString"},"id":"REF-FAIRMONT-HIGHWAYS-47","properties":{"canon_status":"REAL_REFERENCE","county_route":null,"federal_lands_route":null,"fictionality":"REAL","globalid":"{09299AC4-A200-4B73-97DC-50F1F6777AE1}","interstate":"79","interstate_a":"79","interstate_b":null,"interstate_c":null,"loaddate":1474004334000,"mtfcc_code":"S1100","name":"I- 79","objectid":23793927,"permanent_identifier":"2d5769bd-cc40-46f0-a04d-2e278f404785","real_world_relation":"REFERENCE_ONLY","shape_Length":410.95002600094233,"source_datadesc":"2016 January MAFTIGER","source_datasetid":"{9298FF95-0FA8-4712-9AA5-9292C907CA63}","source_featureid":"110803586676","source_id":"REF-FAIRMONT-HIGHWAYS","source_originator":"U.S. Department of Commerce, U.S. Census Bureau, Geography Division","state_route":null,"state_route_a":null,"state_route_b":null,"state_route_c":null,"stco_fipscode":"54049","tnmfrc":1,"us_route":null,"us_route_a":null,"us_route_b":null,"us_route_c":null},"type":"Feature"},{"geometry":{"coordinates":[[-80.199017,39.417935],[-80.198931,39.418204],[-80.198768,39.418822],[-80.198608,39.419574],[-80.19829,39.421177],[-80.197979,39.422813]],"type":"LineString"},"id":"REF-FAIRMONT-HIGHWAYS-48","properties":{"canon_status":"REAL_REFERENCE","county_route":null,"federal_lands_route":null,"fictionality":"REAL","globalid":"{1CBFBC63-180F-4AB9-9B9E-E9AAE8CFF13E}","interstate":"79","interstate_a":"79","interstate_b":null,"interstate_c":null,"loaddate":1474004334000,"mtfcc_code":"S1100","name":"I- 79","objectid":25588511,"permanent_identifier":"c9d0701a-6a51-4a9c-a968-4455c8706754","real_world_relation":"REFERENCE_ONLY","shape_Length":712.6006909103678,"source_datadesc":"2016 January MAFTIGER","source_datasetid":"{9298FF95-0FA8-4712-9AA5-9292C907CA63}","source_featureid":"110803586675","source_id":"REF-FAIRMONT-HIGHWAYS","source_originator":"U.S. Department of Commerce, U.S. Census Bureau, Geography Division","state_route":null,"state_route_a":null,"state_route_b":null,"state_route_c":null,"stco_fipscode":"54049","tnmfrc":1,"us_route":null,"us_route_a":null,"us_route_b":null,"us_route_c":null},"type":"Feature"},{"geometry":{"coordinates":[[-80.120649,39.472133],[-80.120466,39.472203],[-80.120221,39.472303],[-80.119589,39.472591],[-80.118992,39.472889],[-80.118294,39.473288],[-80.117567,39.473765],[-80.117152,39.474089]],"type":"LineString"},"id":"REF-FAIRMONT-HIGHWAYS-49","properties":{"canon_status":"REAL_REFERENCE","county_route":null,"federal_lands_route":null,"fictionality":"REAL","globalid":"{2F95DE65-E967-413E-B686-AAC1DA88112B}","interstate":"79","interstate_a":"79","interstate_b":null,"interstate_c":null,"loaddate":1474004334000,"mtfcc_code":"S1100","name":"I- 79","objectid":25972958,"permanent_identifier":"941dbd5e-335b-4f88-9e12-2b865bb6740b","real_world_relation":"REFERENCE_ONLY","shape_Length":483.03472305514686,"source_datadesc":"2016 January MAFTIGER","source_datasetid":"{9298FF95-0FA8-4712-9AA5-9292C907CA63}","source_featureid":"110803586675","source_id":"REF-FAIRMONT-HIGHWAYS","source_originator":"U.S. Department of Commerce, U.S. Census Bureau, Geography Division","state_route":null,"state_route_a":null,"state_route_b":null,"state_route_c":null,"stco_fipscode":"54049","tnmfrc":1,"us_route":null,"us_route_a":null,"us_route_b":null,"us_route_c":null},"type":"Feature"},{"geometry":{"coordinates":[[-80.070802,39.504633],[-80.070666,39.504997],[-80.070549,39.505308],[-80.070111,39.506417],[-80.069892,39.507001],[-80.06966,39.507602],[-80.069441,39.50819],[-80.069284,39.508572],[-80.069149,39.508931],[-80.069056,39.509142],[-80.068928,39.509393],[-80.06873,39.509747],[-80.068673,39.509829]],"type":"LineString"},"id":"REF-FAIRMONT-HIGHWAYS-50","properties":{"canon_status":"REAL_REFERENCE","county_route":null,"federal_lands_route":null,"fictionality":"REAL","globalid":"{43EB7357-96E4-4316-BA01-1F5FCE835A9B}","interstate":"79","interstate_a":"79","interstate_b":null,"interstate_c":null,"loaddate":1474004334000,"mtfcc_code":"S1100","name":"I- 79","objectid":26613119,"permanent_identifier":"35dba49f-8f61-41a5-8bee-87620cf32bda","real_world_relation":"REFERENCE_ONLY","shape_Length":786.9963474553558,"source_datadesc":"2016 January MAFTIGER","source_datasetid":"{9298FF95-0FA8-4712-9AA5-9292C907CA63}","source_featureid":"110803586676","source_id":"REF-FAIRMONT-HIGHWAYS","source_originator":"U.S. Department of Commerce, U.S. Census Bureau, Geography Division","state_route":null,"state_route_a":null,"state_route_b":null,"state_route_c":null,"stco_fipscode":"54049","tnmfrc":1,"us_route":null,"us_route_a":null,"us_route_b":null,"us_route_c":null},"type":"Feature"},{"geometry":{"coordinates":[[-80.096317,39.485122],[-80.096177,39.485338],[-80.096054,39.485528],[-80.095836,39.485807],[-80.095269,39.486638],[-80.095151,39.486792],[-80.094944,39.487033],[-80.094685,39.487306],[-80.094318,39.48761],[-80.094277,39.487641],[-80.094175,39.487719],[-80.093553,39.488093],[-80.093229,39.488257],[-80.092976,39.488367]],"type":"LineString"},"id":"REF-FAIRMONT-HIGHWAYS-51","properties":{"canon_status":"REAL_REFERENCE","county_route":null,"federal_lands_route":null,"fictionality":"REAL","globalid":"{DB840AB9-A940-49C4-BE9C-2CD53FDF09F3}","interstate":"79","interstate_a":"79","interstate_b":null,"interstate_c":null,"loaddate":1474004334000,"mtfcc_code":"S1100","name":"I- 79","objectid":26741483,"permanent_identifier":"aa0d11d1-b4e6-42ce-a04f-bb9d05be0547","real_world_relation":"REFERENCE_ONLY","shape_Length":609.7840053232876,"source_datadesc":"2016 January MAFTIGER","source_datasetid":"{9298FF95-0FA8-4712-9AA5-9292C907CA63}","source_featureid":"110803586675","source_id":"REF-FAIRMONT-HIGHWAYS","source_originator":"U.S. Department of Commerce, U.S. Census Bureau, Geography Division","state_route":null,"state_route_a":null,"state_route_b":null,"state_route_c":null,"stco_fipscode":"54049","tnmfrc":1,"us_route":null,"us_route_a":null,"us_route_b":null,"us_route_c":null},"type":"Feature"},{"geometry":{"coordinates":[[-80.089489,39.489237],[-80.089201,39.489267],[-80.089033,39.48928],[-80.088279,39.489359],[-80.087856,39.489398],[-80.087429,39.489444],[-80.087045,39.489477],[-80.085967,39.489589]],"type":"LineString"},"id":"REF-FAIRMONT-HIGHWAYS-52","properties":{"canon_status":"REAL_REFERENCE","county_route":null,"federal_lands_route":null,"fictionality":"REAL","globalid":"{EA0F5FFF-C1FC-427A-A51D-D16D0734847A}","interstate":"79","interstate_a":"79","interstate_b":null,"interstate_c":null,"loaddate":1474004334000,"mtfcc_code":"S1100","name":"I- 79","objectid":26869311,"permanent_identifier":"ed447db8-4231-40d0-8c21-bc64755107bd","real_world_relation":"REFERENCE_ONLY","shape_Length":395.36432410826757,"source_datadesc":"2016 January MAFTIGER","source_datasetid":"{9298FF95-0FA8-4712-9AA5-9292C907CA63}","source_featureid":"110803586676","source_id":"REF-FAIRMONT-HIGHWAYS","source_originator":"U.S. Department of Commerce, U.S. Census Bureau, Geography Division","state_route":null,"state_route_a":null,"state_route_b":null,"state_route_c":null,"stco_fipscode":"54049","tnmfrc":1,"us_route":null,"us_route_a":null,"us_route_b":null,"us_route_c":null},"type":"Feature"},{"geometry":{"coordinates":[[-80.092976,39.488367],[-80.092699,39.48848],[-80.092493,39.488586],[-80.092259,39.48866],[-80.091847,39.488764],[-80.091317,39.488866],[-80.091041,39.488904],[-80.090944,39.488917],[-80.090702,39.488938],[-80.090382,39.488977],[-80.089791,39.489025],[-80.089531,39.489051]],"type":"LineString"},"id":"REF-FAIRMONT-HIGHWAYS-53","properties":{"canon_status":"REAL_REFERENCE","county_route":null,"federal_lands_route":null,"fictionality":"REAL","globalid":"{E9C3F13D-C605-45F2-B551-0EFDF12F67F8}","interstate":"79","interstate_a":"79","interstate_b":null,"interstate_c":null,"loaddate":1474004334000,"mtfcc_code":"S1100","name":"I- 79","objectid":27895162,"permanent_identifier":"743c77fe-0ac6-43ec-b326-b4eafa337d74","real_world_relation":"REFERENCE_ONLY","shape_Length":400.33149628727614,"source_datadesc":"2016 January MAFTIGER","source_datasetid":"{9298FF95-0FA8-4712-9AA5-9292C907CA63}","source_featureid":"110803586675","source_id":"REF-FAIRMONT-HIGHWAYS","source_originator":"U.S. Department of Commerce, U.S. Census Bureau, Geography Division","state_route":null,"state_route_a":null,"state_route_b":null,"state_route_c":null,"stco_fipscode":"54049","tnmfrc":1,"us_route":null,"us_route_a":null,"us_route_b":null,"us_route_c":null},"type":"Feature"},{"geometry":{"coordinates":[[-80.145162,39.456898],[-80.144235,39.457863],[-80.143662,39.45845],[-80.14316,39.458964],[-80.142761,39.459358]],"type":"LineString"},"id":"REF-FAIRMONT-HIGHWAYS-54","properties":{"canon_status":"REAL_REFERENCE","county_route":null,"federal_lands_route":null,"fictionality":"REAL","globalid":"{267DACF8-3D58-42F6-8C43-E6DAED3DFE79}","interstate":"79","interstate_a":"79","interstate_b":null,"interstate_c":null,"loaddate":1474004334000,"mtfcc_code":"S1100","name":"I- 79","objectid":28152488,"permanent_identifier":"852c90d1-61c3-41e9-9527-e876e6e611c7","real_world_relation":"REFERENCE_ONLY","shape_Length":444.1299833979759,"source_datadesc":"2016 January MAFTIGER","source_datasetid":"{9298FF95-0FA8-4712-9AA5-9292C907CA63}","source_featureid":"110803586675","source_id":"REF-FAIRMONT-HIGHWAYS","source_originator":"U.S. Department of Commerce, U.S. Census Bureau, Geography Division","state_route":null,"state_route_a":null,"state_route_b":null,"state_route_c":null,"stco_fipscode":"54049","tnmfrc":1,"us_route":null,"us_route_a":null,"us_route_b":null,"us_route_c":null},"type":"Feature"},{"geometry":{"coordinates":[[-80.187306,39.432255],[-80.187181,39.432303]],"type":"LineString"},"id":"REF-FAIRMONT-HIGHWAYS-55","properties":{"canon_status":"REAL_REFERENCE","county_route":null,"federal_lands_route":null,"fictionality":"REAL","globalid":"{D5BA2DF5-E3F3-4B26-806C-412FBAA733AE}","interstate":"79","interstate_a":"79","interstate_b":null,"interstate_c":null,"loaddate":1474004334000,"mtfcc_code":"S1100","name":"I- 79","objectid":28152502,"permanent_identifier":"0d3475f2-0370-40dd-9f8a-b4084c5eee66","real_world_relation":"REFERENCE_ONLY","shape_Length":15.539818176020589,"source_datadesc":"2016 January MAFTIGER","source_datasetid":"{9298FF95-0FA8-4712-9AA5-9292C907CA63}","source_featureid":"110803586675","source_id":"REF-FAIRMONT-HIGHWAYS","source_originator":"U.S. Department of Commerce, U.S. Census Bureau, Geography Division","state_route":null,"state_route_a":null,"state_route_b":null,"state_route_c":null,"stco_fipscode":"54049","tnmfrc":1,"us_route":null,"us_route_a":null,"us_route_b":null,"us_route_c":null},"type":"Feature"},{"geometry":{"coordinates":[[-80.184746,39.433368],[-80.184479,39.433558],[-80.184233,39.433748],[-80.183857,39.434054],[-80.182295,39.435378],[-80.181772,39.435808],[-80.18127,39.43619],[-80.180851,39.436473],[-80.180428,39.436732],[-80.179933,39.437005],[-80.179437,39.437254],[-80.177865,39.43803],[-80.175883,39.439029]],"type":"LineString"},"id":"REF-FAIRMONT-HIGHWAYS-56","properties":{"canon_status":"REAL_REFERENCE","county_route":null,"federal_lands_route":null,"fictionality":"REAL","globalid":"{B5D6DBFE-CBE0-41D4-9DA0-9F9F079523CA}","interstate":"79","interstate_a":"79","interstate_b":null,"interstate_c":null,"loaddate":1474004334000,"mtfcc_code":"S1100","name":"I- 79","objectid":28409388,"permanent_identifier":"8e1a2639-9958-4993-8de9-27c8ad6a8928","real_world_relation":"REFERENCE_ONLY","shape_Length":1288.3668448429016,"source_datadesc":"2016 January MAFTIGER","source_datasetid":"{9298FF95-0FA8-4712-9AA5-9292C907CA63}","source_featureid":"110803586675","source_id":"REF-FAIRMONT-HIGHWAYS","source_originator":"U.S. Department of Commerce, U.S. Census Bureau, Geography Division","state_route":null,"state_route_a":null,"state_route_b":null,"state_route_c":null,"stco_fipscode":"54049","tnmfrc":1,"us_route":null,"us_route_a":null,"us_route_b":null,"us_route_c":null},"type":"Feature"},{"geometry":{"coordinates":[[-80.190136,39.431167],[-80.189064,39.431591],[-80.187518,39.432175],[-80.187306,39.432255]],"type":"LineString"},"id":"REF-FAIRMONT-HIGHWAYS-57","properties":{"canon_status":"REAL_REFERENCE","county_route":null,"federal_lands_route":null,"fictionality":"REAL","globalid":"{EF76EF1B-D204-45A1-9009-45409980B0AE}","interstate":"79","interstate_a":"79","interstate_b":null,"interstate_c":null,"loaddate":1474004334000,"mtfcc_code":"S1100","name":"I- 79","objectid":28537942,"permanent_identifier":"8c70ba09-6e43-4cf7-8a63-d994437871d1","real_world_relation":"REFERENCE_ONLY","shape_Length":351.9165173129702,"source_datadesc":"2016 January MAFTIGER","source_datasetid":"{9298FF95-0FA8-4712-9AA5-9292C907CA63}","source_featureid":"110803586675","source_id":"REF-FAIRMONT-HIGHWAYS","source_originator":"U.S. Department of Commerce, U.S. Census Bureau, Geography Division","state_route":null,"state_route_a":null,"state_route_b":null,"state_route_c":null,"stco_fipscode":"54049","tnmfrc":1,"us_route":null,"us_route_a":null,"us_route_b":null,"us_route_c":null},"type":"Feature"},{"geometry":{"coordinates":[[-80.085967,39.489589],[-80.085625,39.489625],[-80.085037,39.489707],[-80.084437,39.489818],[-80.08418,39.489872],[-80.083742,39.489982],[-80.083536,39.490039],[-80.083272,39.490119],[-80.083107,39.490177],[-80.082839,39.490264],[-80.082467,39.490403],[-80.082213,39.490507],[-80.081627,39.490772],[-80.080987,39.491118],[-80.080624,39.491343],[-80.080135,39.491684],[-80.079858,39.491888],[-80.079622,39.492089],[-80.079271,39.492404],[-80.078969,39.492707],[-80.078807,39.492883],[-80.078589,39.49314],[-80.078415,39.493363],[-80.078242,39.493603],[-80.077884,39.494083],[-80.076806,39.495582],[-80.076676,39.495765],[-80.076487,39.496036],[-80.076129,39.496531],[-80.075173,39.497881],[-80.074506,39.498807],[-80.074207,39.499235],[-80.074156,39.499306],[-80.073883,39.49968],[-80.073611,39.500083],[-80.073309,39.500487],[-80.07274,39.501291],[-80.072417,39.501734],[-80.071952,39.502428],[-80.071775,39.502717],[-80.071534,39.503126],[-80.071377,39.503413],[-80.071306,39.503543],[-80.071126,39.503895],[-80.071017,39.50412],[-80.070858,39.504487],[-80.070802,39.504633]],"type":"LineString"},"id":"REF-FAIRMONT-HIGHWAYS-58","properties":{"canon_status":"REAL_REFERENCE","county_route":null,"federal_lands_route":null,"fictionality":"REAL","globalid":"{BBF2166A-2DDF-4F46-B076-74A6FD392349}","interstate":"79","interstate_a":"79","interstate_b":null,"interstate_c":null,"loaddate":1474004334000,"mtfcc_code":"S1100","name":"I- 79","objectid":29309346,"permanent_identifier":"cb369ac2-4486-47dd-b366-5be4373b00ae","real_world_relation":"REFERENCE_ONLY","shape_Length":2874.6196090236294,"source_datadesc":"2016 January MAFTIGER","source_datasetid":"{9298FF95-0FA8-4712-9AA5-9292C907CA63}","source_featureid":"110803586676","source_id":"REF-FAIRMONT-HIGHWAYS","source_originator":"U.S. Department of Commerce, U.S. Census Bureau, Geography Division","state_route":null,"state_route_a":null,"state_route_b":null,"state_route_c":null,"stco_fipscode":"54049","tnmfrc":1,"us_route":null,"us_route_a":null,"us_route_b":null,"us_route_c":null},"type":"Feature"},{"geometry":{"coordinates":[[-80.197979,39.422813],[-80.197868,39.42338],[-80.19774,39.424082],[-80.197632,39.424535],[-80.197575,39.424748],[-80.19734,39.42539],[-80.197151,39.425812],[-80.196919,39.426254],[-80.19683,39.426397],[-80.196643,39.426699],[-80.196447,39.426979],[-80.196171,39.427355],[-80.19588,39.427701],[-80.195494,39.428111],[-80.19528,39.428322],[-80.19506,39.42852],[-80.194743,39.428791],[-80.194254,39.429167],[-80.193797,39.429484],[-80.193443,39.429704],[-80.193128,39.429887],[-80.192252,39.43033],[-80.191724,39.430556],[-80.191688,39.430571],[-80.190936,39.430864],[-80.190136,39.431167]],"type":"LineString"},"id":"REF-FAIRMONT-HIGHWAYS-59","properties":{"canon_status":"REAL_REFERENCE","county_route":null,"federal_lands_route":null,"fictionality":"REAL","globalid":"{31CBB441-1F5E-4F13-A4C6-F745CA1BCEBF}","interstate":"79","interstate_a":"79","interstate_b":null,"interstate_c":null,"loaddate":1474004334000,"mtfcc_code":"S1100","name":"I- 79","objectid":29566463,"permanent_identifier":"14c27158-0c1b-4156-b3ca-e0300450bd4b","real_world_relation":"REFERENCE_ONLY","shape_Length":1573.3218669231514,"source_datadesc":"2016 January MAFTIGER","source_datasetid":"{9298FF95-0FA8-4712-9AA5-9292C907CA63}","source_featureid":"110803586675","source_id":"REF-FAIRMONT-HIGHWAYS","source_originator":"U.S. Department of Commerce, U.S. Census Bureau, Geography Division","state_route":null,"state_route_a":null,"state_route_b":null,"state_route_c":null,"stco_fipscode":"54049","tnmfrc":1,"us_route":null,"us_route_a":null,"us_route_b":null,"us_route_c":null},"type":"Feature"},{"geometry":{"coordinates":[[-80.168325,39.443128],[-80.167491,39.443618],[-80.166883,39.443976],[-80.165952,39.444562],[-80.165592,39.444776]],"type":"LineString"},"id":"REF-FAIRMONT-HIGHWAYS-60","properties":{"canon_status":"REAL_REFERENCE","county_route":null,"federal_lands_route":null,"fictionality":"REAL","globalid":"{E315B3D5-D577-4185-83EA-E1382B084D70}","interstate":"79","interstate_a":"79","interstate_b":null,"interstate_c":null,"loaddate":1474004334000,"mtfcc_code":"S1100","name":"I- 79","objectid":30466861,"permanent_identifier":"e8ba3a09-41db-455a-b6ec-e209cda5cbaf","real_world_relation":"REFERENCE_ONLY","shape_Length":386.043010546659,"source_datadesc":"2016 January MAFTIGER","source_datasetid":"{9298FF95-0FA8-4712-9AA5-9292C907CA63}","source_featureid":"110803586676","source_id":"REF-FAIRMONT-HIGHWAYS","source_originator":"U.S. Department of Commerce, U.S. Census Bureau, Geography Division","state_route":null,"state_route_a":null,"state_route_b":null,"state_route_c":null,"stco_fipscode":"54049","tnmfrc":1,"us_route":null,"us_route_a":null,"us_route_b":null,"us_route_c":null},"type":"Feature"},{"geometry":{"coordinates":[[-80.11725,39.474255],[-80.116784,39.47464],[-80.115596,39.475657],[-80.115368,39.475847],[-80.115259,39.475937],[-80.114883,39.47622],[-80.114751,39.476305],[-80.114491,39.476474],[-80.114117,39.476667],[-80.113568,39.476901],[-80.113014,39.477091],[-80.112422,39.477239],[-80.112142,39.477288],[-80.111883,39.477322],[-80.110552,39.477444],[-80.109304,39.477554],[-80.108722,39.477642],[-80.108509,39.477684],[-80.108215,39.477742],[-80.107803,39.477856],[-80.107559,39.477942],[-80.107365,39.47801],[-80.10684,39.478242],[-80.106541,39.478398],[-80.106147,39.478604],[-80.105948,39.478708],[-80.105872,39.478749],[-80.104328,39.479576],[-80.102553,39.480494],[-80.101784,39.480902],[-80.101095,39.481259],[-80.1005,39.481568],[-80.099767,39.481955],[-80.099244,39.482265],[-80.098882,39.482508],[-80.098568,39.482742],[-80.098248,39.48301],[-80.097772,39.483487],[-80.097442,39.483877],[-80.097293,39.48407],[-80.097201,39.484206],[-80.096554,39.485224]],"type":"LineString"},"id":"REF-FAIRMONT-HIGHWAYS-61","properties":{"canon_status":"REAL_REFERENCE","county_route":null,"federal_lands_route":null,"fictionality":"REAL","globalid":"{6CC2161E-7689-4485-98D8-7B944F5E23F7}","interstate":"79","interstate_a":"79","interstate_b":null,"interstate_c":null,"loaddate":1474004334000,"mtfcc_code":"S1100","name":"I- 79","objectid":30723949,"permanent_identifier":"137edd98-49b3-4bd6-9a17-f72475a3c800","real_world_relation":"REFERENCE_ONLY","shape_Length":2897.130240109701,"source_datadesc":"2016 January MAFTIGER","source_datasetid":"{9298FF95-0FA8-4712-9AA5-9292C907CA63}","source_featureid":"110803586676","source_id":"REF-FAIRMONT-HIGHWAYS","source_originator":"U.S. Department of Commerce, U.S. Census Bureau, Geography Division","state_route":null,"state_route_a":null,"state_route_b":null,"state_route_c":null,"stco_fipscode":"54049","tnmfrc":1,"us_route":null,"us_route_a":null,"us_route_b":null,"us_route_c":null},"type":"Feature"},{"geometry":{"coordinates":[[-80.120799,39.472075],[-80.120649,39.472133]],"type":"LineString"},"id":"REF-FAIRMONT-HIGHWAYS-62","properties":{"canon_status":"REAL_REFERENCE","county_route":null,"federal_lands_route":null,"fictionality":"REAL","globalid":"{D2434989-1261-405F-90AC-9E5D742F0F4B}","interstate":"79","interstate_a":"79","interstate_b":null,"interstate_c":null,"loaddate":1474004334000,"mtfcc_code":"S1100","name":"I- 79","objectid":32528025,"permanent_identifier":"f817a32e-1f26-494f-ab24-389623c172c9","real_world_relation":"REFERENCE_ONLY","shape_Length":18.675599944348825,"source_datadesc":"2016 January MAFTIGER","source_datasetid":"{9298FF95-0FA8-4712-9AA5-9292C907CA63}","source_featureid":"110803586675","source_id":"REF-FAIRMONT-HIGHWAYS","source_originator":"U.S. Department of Commerce, U.S. Census Bureau, Geography Division","state_route":null,"state_route_a":null,"state_route_b":null,"state_route_c":null,"stco_fipscode":"54049","tnmfrc":1,"us_route":null,"us_route_a":null,"us_route_b":null,"us_route_c":null},"type":"Feature"}],"type":"FeatureCollection"}
