{"features":[{"geometry":{"coordinates":[[-79.957594,40.426004],[-79.958688,40.427142],[-79.962857,40.430145],[-79.96835,40.432391],[-79.976018,40.434112],[-79.978802,40.433456],[-79.980347,40.433654],[-79.981367,40.433006],[-79.990179,40.432217],[-79.99965,40.433241],[-80.000005,40.433377],[-80.01422,40.440708],[-80.0164,40.442995]],"type":"LineString"},"id":"REF-HAZELWOOD-HYDRO-1","properties":{"OBJECTID":144579,"Shape_Length":7497.551397245879,"canon_status":"REAL_REFERENCE","fcode":55800,"fdate":1362355200000,"fictionality":"REAL","flowdir":1,"ftype":558,"globalid":"{6BFD9C7F-4C76-11E1-BCF4-0021280458E6}","gnis_id":"01209053","gnis_name":"Monongahela River","innetwork":1,"lengthkm":5.68242294,"mainpath":0,"permanent_identifier":"134839848","reachcode":"05020005006051","real_world_relation":"REFERENCE_ONLY","resolution":2,"source_id":"REF-HAZELWOOD-HYDRO","visibilityfilter":5000000,"wbarea_permanent_identifier":"120007555"},"type":"Feature"},{"geometry":{"coordinates":[[-79.956793,40.426848],[-79.957594,40.426004]],"type":"LineString"},"id":"REF-HAZELWOOD-HYDRO-2","properties":{"OBJECTID":6547968,"Shape_Length":152.28617458599965,"canon_status":"REAL_REFERENCE","fcode":55800,"fdate":1332751462000,"fictionality":"REAL","flowdir":1,"ftype":558,"globalid":"{D14EF916-4C78-11E1-BCF4-0021280458E6}","gnis_id":null,"gnis_name":null,"innetwork":1,"lengthkm":0.116,"mainpath":0,"permanent_identifier":"134839843","reachcode":"05020005006019","real_world_relation":"REFERENCE_ONLY","resolution":2,"source_id":"REF-HAZELWOOD-HYDRO","visibilityfilter":1000000,"wbarea_permanent_identifier":"120007555"},"type":"Feature"},{"geometry":{"coordinates":[[-79.931566,40.398105],[-79.933245,40.398356],[-79.933684,40.398123],[-79.934059,40.398171],[-79.934497,40.397937],[-79.934872,40.397985],[-79.935311,40.397752],[-79.936061,40.397848],[-79.936938,40.397381],[-79.937688,40.397477],[-79.938127,40.397244],[-79.942156,40.39776],[-79.943296,40.398051],[-79.943647,40.398205],[-79.945568,40.398451],[-79.947122,40.400099],[-79.947527,40.40044],[-79.949991,40.403052],[-79.951088,40.407046],[-79.952425,40.411097]],"type":"LineString"},"id":"REF-HAZELWOOD-HYDRO-3","properties":{"OBJECTID":7442227,"Shape_Length":3693.6149799931973,"canon_status":"REAL_REFERENCE","fcode":55800,"fdate":1553021177000,"fictionality":"REAL","flowdir":1,"ftype":558,"globalid":"{C7CD6965-4C7A-11E1-BCF4-0021280458E6}","gnis_id":"01209053","gnis_name":"Monongahela River","innetwork":1,"lengthkm":2.81149798,"mainpath":0,"permanent_identifier":"99407742","reachcode":"05020005006051","real_world_relation":"REFERENCE_ONLY","resolution":2,"source_id":"REF-HAZELWOOD-HYDRO","visibilityfilter":5000000,"wbarea_permanent_identifier":"120007555"},"type":"Feature"},{"geometry":{"coordinates":[[-79.952425,40.411097],[-79.952582,40.411574],[-79.953384,40.412879],[-79.95319,40.413733],[-79.952541,40.414377],[-79.952174,40.415997],[-79.954697,40.422988],[-79.957594,40.426004]],"type":"LineString"},"id":"REF-HAZELWOOD-HYDRO-4","properties":{"OBJECTID":10578634,"Shape_Length":2374.6459588215803,"canon_status":"REAL_REFERENCE","fcode":55800,"fdate":1332751496000,"fictionality":"REAL","flowdir":1,"ftype":558,"globalid":"{009140F5-4C87-11E1-BCF4-0021280458E6}","gnis_id":"01209053","gnis_name":"Monongahela River","innetwork":1,"lengthkm":1.816,"mainpath":0,"permanent_identifier":"134839847","reachcode":"05020005006051","real_world_relation":"REFERENCE_ONLY","resolution":2,"source_id":"REF-HAZELWOOD-HYDRO","visibilityfilter":5000000,"wbarea_permanent_identifier":"120007555"},"type":"Feature"},{"geometry":{"coordinates":[[-79.934435,40.433744],[-79.941224,40.43563],[-79.943264,40.43575],[-79.946144,40.437135],[-79.94716,40.437463],[-79.948792,40.437559],[-79.949909,40.437109],[-79.951021,40.43536],[-79.952771,40.429968],[-79.955699,40.428],[-79.956793,40.426848]],"type":"LineString"},"id":"REF-HAZELWOOD-HYDRO-5","properties":{"OBJECTID":13721057,"Shape_Length":3596.3929752940226,"canon_status":"REAL_REFERENCE","fcode":46006,"fdate":1332751462000,"fictionality":"REAL","flowdir":1,"ftype":460,"globalid":"{C9A41642-4C73-11E1-BCF4-0021280458E6}","gnis_id":null,"gnis_name":null,"innetwork":1,"lengthkm":2.734,"mainpath":0,"permanent_identifier":"134839842","reachcode":"05020005006019","real_world_relation":"REFERENCE_ONLY","resolution":2,"source_id":"REF-HAZELWOOD-HYDRO","visibilityfilter":1000000,"wbarea_permanent_identifier":null},"type":"Feature"},{"geometry":{"coordinates":[[-79.963646,40.409428],[-79.963517,40.409413],[-79.963374,40.409421],[-79.963294,40.409452],[-79.963244,40.409483],[-79.962949,40.409611],[-79.962727,40.409681],[-79.96226,40.409731],[-79.962037,40.409778],[-79.961225,40.409929],[-79.960249,40.41006],[-79.960105,40.410081],[-79.960083,40.410094],[-79.959983,40.410102],[-79.95989,40.410088],[-79.959839,40.41006],[-79.959775,40.410001],[-79.959674,40.409852],[-79.959552,40.409738],[-79.959487,40.409688],[-79.959422,40.409656],[-79.959293,40.409605],[-79.959185,40.409595],[-79.958941,40.409629],[-79.95851,40.409711],[-79.958287,40.40979],[-79.958036,40.409941],[-79.957899,40.410038],[-79.957777,40.410181],[-79.957705,40.410248],[-79.957619,40.410297],[-79.956678,40.410523],[-79.956571,40.410553],[-79.956434,40.410566],[-79.954492,40.411094]],"type":"LineString"},"id":"REF-HAZELWOOD-HYDRO-6","properties":{"OBJECTID":17314424,"Shape_Length":1124.3334048618353,"canon_status":"REAL_REFERENCE","fcode":46006,"fdate":1332751564000,"fictionality":"REAL","flowdir":1,"ftype":460,"globalid":"{6858F720-4C8F-11E1-BCF4-0021280458E6}","gnis_id":null,"gnis_name":null,"innetwork":1,"lengthkm":0.8520000000000001,"mainpath":0,"permanent_identifier":"99407650","reachcode":"05020005001614","real_world_relation":"REFERENCE_ONLY","resolution":2,"source_id":"REF-HAZELWOOD-HYDRO","visibilityfilter":500000,"wbarea_permanent_identifier":null},"type":"Feature"},{"geometry":{"coordinates":[[-79.954492,40.411094],[-79.952425,40.411097]],"type":"LineString"},"id":"REF-HAZELWOOD-HYDRO-7","properties":{"OBJECTID":20681988,"Shape_Length":230.18707949737032,"canon_status":"REAL_REFERENCE","fcode":55800,"fdate":1332751564000,"fictionality":"REAL","flowdir":1,"ftype":558,"globalid":"{E39E8459-4C88-11E1-BCF4-0021280458E6}","gnis_id":null,"gnis_name":null,"innetwork":1,"lengthkm":0.17400000000000002,"mainpath":0,"permanent_identifier":"99407628","reachcode":"05020005001614","real_world_relation":"REFERENCE_ONLY","resolution":2,"source_id":"REF-HAZELWOOD-HYDRO","visibilityfilter":500000,"wbarea_permanent_identifier":"120007555"},"type":"Feature"},{"geometry":{"coordinates":[[-79.975827,40.404163],[-79.975719,40.404243],[-79.975332,40.404401],[-79.974872,40.404537],[-79.974722,40.404567],[-79.974211,40.404599],[-79.973565,40.404688],[-79.973328,40.404681],[-79.973227,40.404694],[-79.973127,40.40472],[-79.972997,40.404723],[-79.972919,40.404713],[-79.972803,40.404676],[-79.972702,40.40468],[-79.972502,40.404764],[-79.972236,40.404897],[-79.971892,40.404975],[-79.971553,40.405021],[-79.971345,40.405015],[-79.971259,40.405036],[-79.971116,40.405098],[-79.970936,40.405137],[-79.970649,40.405139],[-79.970476,40.40516],[-79.970369,40.405186],[-79.970167,40.405256],[-79.970088,40.405274],[-79.969377,40.405335],[-79.969026,40.405512],[-79.968724,40.405685],[-79.968407,40.405903],[-79.967898,40.406191],[-79.967675,40.406306],[-79.967596,40.406337],[-79.967223,40.406532],[-79.966706,40.406883],[-79.966684,40.406892],[-79.966468,40.407034],[-79.966196,40.407194],[-79.965643,40.407567],[-79.965434,40.407719],[-79.96532,40.407835],[-79.965248,40.408001],[-79.965226,40.408086],[-79.964997,40.408449],[-79.964953,40.408485],[-79.964953,40.408494],[-79.964832,40.408641],[-79.964523,40.408985],[-79.964314,40.409137],[-79.96392,40.409313],[-79.963804,40.409375],[-79.963646,40.409428]],"type":"LineString"},"id":"REF-HAZELWOOD-HYDRO-8","properties":{"OBJECTID":26073876,"Shape_Length":1647.8896124990088,"canon_status":"REAL_REFERENCE","fcode":46006,"fdate":1332751564000,"fictionality":"REAL","flowdir":1,"ftype":460,"globalid":"{B15939A8-4C81-11E1-BCF4-0021280458E6}","gnis_id":null,"gnis_name":null,"innetwork":1,"lengthkm":1.251,"mainpath":0,"permanent_identifier":"99407726","reachcode":"05020005001614","real_world_relation":"REFERENCE_ONLY","resolution":2,"source_id":"REF-HAZELWOOD-HYDRO","visibilityfilter":500000,"wbarea_permanent_identifier":null},"type":"Feature"},{"geometry":{"coordinates":[[-79.97745,40.414456],[-79.977328,40.414333],[-79.977248,40.414283],[-79.977162,40.414251],[-79.97681,40.414212],[-79.976551,40.414146],[-79.976415,40.4141],[-79.976336,40.41405],[-79.976285,40.414],[-79.97625,40.413919],[-79.976134,40.413791],[-79.975998,40.413709],[-79.97589,40.413668],[-79.975768,40.413653],[-79.975638,40.413616],[-79.975567,40.413561],[-79.97548,40.413439],[-79.97538,40.413352],[-79.975308,40.413329],[-79.975179,40.413314],[-79.97515,40.413314],[-79.975092,40.413336],[-79.974963,40.413353],[-79.974776,40.413347],[-79.974741,40.413351],[-79.974669,40.413337],[-79.97459,40.4133],[-79.974553,40.413268],[-79.974532,40.413169],[-79.974489,40.413128],[-79.974288,40.413117],[-79.974165,40.413062],[-79.974079,40.413007],[-79.973892,40.412911],[-79.973691,40.412891],[-79.973505,40.412777],[-79.973375,40.412753],[-79.973152,40.412783],[-79.973073,40.41276],[-79.972872,40.412659],[-79.972794,40.412645],[-79.972671,40.412675],[-79.972578,40.412688],[-79.971989,40.412574],[-79.971522,40.412525],[-79.97122,40.412414],[-79.971169,40.412387],[-79.971026,40.412341],[-79.970918,40.412331],[-79.970688,40.412275],[-79.970566,40.41221],[-79.970379,40.412168],[-79.970192,40.412149],[-79.969869,40.412159],[-79.969675,40.412157],[-79.969538,40.412129],[-79.969488,40.412129],[-79.969431,40.412155],[-79.969294,40.41228],[-79.969194,40.412311],[-79.968713,40.412356],[-79.968483,40.412359],[-79.968346,40.412348],[-79.968253,40.412284],[-79.968159,40.412189],[-79.968029,40.412134],[-79.967792,40.412118],[-79.967677,40.412036],[-79.96762,40.412035],[-79.967577,40.412062],[-79.967476,40.41207],[-79.967433,40.412056],[-79.967283,40.411974],[-79.967146,40.411833],[-79.967095,40.411801],[-79.966988,40.411778],[-79.966931,40.411782],[-79.966916,40.411795],[-79.966772,40.411785],[-79.966586,40.411661],[-79.966305,40.411515],[-79.96614,40.411441],[-79.966025,40.411377],[-79.965996,40.411323],[-79.965946,40.411268],[-79.965644,40.410986],[-79.965515,40.410818],[-79.965364,40.410696],[-79.965263,40.410641],[-79.965048,40.410549],[-79.964926,40.410475],[-79.964889,40.410439],[-79.964846,40.410362],[-79.964789,40.410307],[-79.964523,40.410202],[-79.964085,40.410067],[-79.963941,40.409976],[-79.963891,40.409935],[-79.963675,40.409694],[-79.963646,40.409428]],"type":"LineString"},"id":"REF-HAZELWOOD-HYDRO-9","properties":{"OBJECTID":27421031,"Shape_Length":1873.475157460278,"canon_status":"REAL_REFERENCE","fcode":46003,"fdate":1332751602000,"fictionality":"REAL","flowdir":1,"ftype":460,"globalid":"{68591563-4C8F-11E1-BCF4-0021280458E6}","gnis_id":null,"gnis_name":null,"innetwork":1,"lengthkm":1.4220000000000002,"mainpath":0,"permanent_identifier":"99407652","reachcode":"05020005001901","real_world_relation":"REFERENCE_ONLY","resolution":2,"source_id":"REF-HAZELWOOD-HYDRO","visibilityfilter":100000,"wbarea_permanent_identifier":null},"type":"Feature"}],"type":"FeatureCollection"}
