{"features":[{"geometry":{"coordinates":[[-79.937895,40.428581],[-79.937533,40.428532],[-79.937274,40.428509],[-79.937014,40.42849],[-79.936747,40.428478],[-79.936075,40.428502],[-79.935877,40.428512],[-79.934992,40.428608],[-79.934127,40.428729],[-79.933288,40.428853],[-79.932574,40.428902],[-79.932405,40.428906],[-79.932176,40.428907]],"type":"LineString"},"id":"REF-HAZELWOOD-HIGHWAYS-1","properties":{"canon_status":"REAL_REFERENCE","county_route":null,"federal_lands_route":null,"fictionality":"REAL","globalid":"{18996C4C-CBC7-4EDB-AB46-9B2B22AE9A96}","interstate":"376","interstate_a":"376","interstate_b":null,"interstate_c":null,"loaddate":1563078002000,"mtfcc_code":"S1100","name":"Penn Lincoln Pkwy","objectid":231057,"permanent_identifier":"6ec72118-d792-4311-893d-544fc11a239d","real_world_relation":"REFERENCE_ONLY","shape_Length":642.4632670238234,"source_datadesc":"2016 April MAFTIGER","source_datasetid":"{A3E33D4D-068F-4458-BA25-28472D2DD1C2}","source_featureid":"1104485247665","source_id":"REF-HAZELWOOD-HIGHWAYS","source_originator":"U.S. Department of Commerce, U.S. Census Bureau, Geography Division","state_route":null,"state_route_a":null,"state_route_b":null,"state_route_c":null,"stco_fipscode":"42003","tnmfrc":1,"us_route":"22,30","us_route_a":"22,30","us_route_b":null,"us_route_c":null},"type":"Feature"},{"geometry":{"coordinates":[[-79.950839,40.427426],[-79.950541,40.427491],[-79.950373,40.427528],[-79.949984,40.427616],[-79.949443,40.427757],[-79.9491,40.427838]],"type":"LineString"},"id":"REF-HAZELWOOD-HIGHWAYS-2","properties":{"canon_status":"REAL_REFERENCE","county_route":null,"federal_lands_route":null,"fictionality":"REAL","globalid":"{E3F7548F-FE70-4AFB-B23E-22E862E56B6A}","interstate":"376","interstate_a":"376","interstate_b":null,"interstate_c":null,"loaddate":1563078002000,"mtfcc_code":"S1100","name":"Penn Lincoln Pkwy","objectid":3921024,"permanent_identifier":"ed9e3bcd-9771-482f-aa61-2397d661439c","real_world_relation":"REFERENCE_ONLY","shape_Length":202.7855911040085,"source_datadesc":"2016 April MAFTIGER","source_datasetid":"{A3E33D4D-068F-4458-BA25-28472D2DD1C2}","source_featureid":"1104485247665","source_id":"REF-HAZELWOOD-HIGHWAYS","source_originator":"U.S. Department of Commerce, U.S. Census Bureau, Geography Division","state_route":null,"state_route_a":null,"state_route_b":null,"state_route_c":null,"stco_fipscode":"42003","tnmfrc":1,"us_route":"22,30","us_route_a":"22,30","us_route_b":null,"us_route_c":null},"type":"Feature"},{"geometry":{"coordinates":[[-79.94913,40.427922],[-79.94892,40.427975],[-79.948608,40.428051],[-79.948044,40.428181]],"type":"LineString"},"id":"REF-HAZELWOOD-HIGHWAYS-3","properties":{"canon_status":"REAL_REFERENCE","county_route":null,"federal_lands_route":null,"fictionality":"REAL","globalid":"{25E2E59B-29B1-49C3-8EFB-83F80D7EEA01}","interstate":"376","interstate_a":"376","interstate_b":null,"interstate_c":null,"loaddate":1563078002000,"mtfcc_code":"S1100","name":"Penn Lincoln Pkwy","objectid":4048638,"permanent_identifier":"7f73c797-7104-4083-80ac-f9c1fcdc1789","real_world_relation":"REFERENCE_ONLY","shape_Length":126.69441246375294,"source_datadesc":"2016 April MAFTIGER","source_datasetid":"{A3E33D4D-068F-4458-BA25-28472D2DD1C2}","source_featureid":"1104481838384","source_id":"REF-HAZELWOOD-HIGHWAYS","source_originator":"U.S. Department of Commerce, U.S. Census Bureau, Geography Division","state_route":null,"state_route_a":null,"state_route_b":null,"state_route_c":null,"stco_fipscode":"42003","tnmfrc":1,"us_route":"22,30","us_route_a":"22,30","us_route_b":null,"us_route_c":null},"type":"Feature"},{"geometry":{"coordinates":[[-79.955982,40.428712],[-79.955657,40.428444],[-79.955341,40.42824],[-79.955233,40.428171],[-79.954953,40.428006],[-79.954786,40.427908],[-79.954657,40.427856],[-79.954157,40.427658],[-79.953375,40.42745],[-79.952508,40.427334],[-79.951686,40.427334],[-79.951007,40.427391],[-79.950839,40.427426]],"type":"LineString"},"id":"REF-HAZELWOOD-HIGHWAYS-4","properties":{"canon_status":"REAL_REFERENCE","county_route":null,"federal_lands_route":null,"fictionality":"REAL","globalid":"{E5F7E248-66B8-49A8-9EF0-B2FF665EF9EE}","interstate":"376","interstate_a":"376","interstate_b":null,"interstate_c":null,"loaddate":1563078002000,"mtfcc_code":"S1100","name":"Penn Lincoln Pkwy","objectid":6602687,"permanent_identifier":"17ccd7e9-90f4-471c-b22b-04e1eb86995f","real_world_relation":"REFERENCE_ONLY","shape_Length":634.1832550153364,"source_datadesc":"2016 April MAFTIGER","source_datasetid":"{A3E33D4D-068F-4458-BA25-28472D2DD1C2}","source_featureid":"1104485247665","source_id":"REF-HAZELWOOD-HIGHWAYS","source_originator":"U.S. Department of Commerce, U.S. Census Bureau, Geography Division","state_route":null,"state_route_a":null,"state_route_b":null,"state_route_c":null,"stco_fipscode":"42003","tnmfrc":1,"us_route":"22,30","us_route_a":"22,30","us_route_b":null,"us_route_c":null},"type":"Feature"},{"geometry":{"coordinates":[[-79.939728,40.429005],[-79.939048,40.428858],[-79.937865,40.428635]],"type":"LineString"},"id":"REF-HAZELWOOD-HIGHWAYS-5","properties":{"canon_status":"REAL_REFERENCE","county_route":null,"federal_lands_route":null,"fictionality":"REAL","globalid":"{F60C26C9-AD4F-49A4-AD5C-686BCD881E6B}","interstate":"376","interstate_a":"376","interstate_b":null,"interstate_c":null,"loaddate":1563078002000,"mtfcc_code":"S1100","name":"Penn Lincoln Pkwy","objectid":6730445,"permanent_identifier":"95674420-697c-4b91-9d4e-440327118f6b","real_world_relation":"REFERENCE_ONLY","shape_Length":214.35942778426562,"source_datadesc":"2016 April MAFTIGER","source_datasetid":"{A3E33D4D-068F-4458-BA25-28472D2DD1C2}","source_featureid":"1104481838384","source_id":"REF-HAZELWOOD-HIGHWAYS","source_originator":"U.S. Department of Commerce, U.S. Census Bureau, Geography Division","state_route":null,"state_route_a":null,"state_route_b":null,"state_route_c":null,"stco_fipscode":"42003","tnmfrc":1,"us_route":"22,30","us_route_a":"22,30","us_route_b":null,"us_route_c":null},"type":"Feature"},{"geometry":{"coordinates":[[-79.937865,40.428635],[-79.937491,40.428598],[-79.936982,40.428559],[-79.936371,40.428559],[-79.936034,40.428573],[-79.935677,40.428606],[-79.934577,40.428747],[-79.933703,40.428874],[-79.933226,40.428939],[-79.932741,40.428985],[-79.931737,40.429017]],"type":"LineString"},"id":"REF-HAZELWOOD-HIGHWAYS-6","properties":{"canon_status":"REAL_REFERENCE","county_route":null,"federal_lands_route":null,"fictionality":"REAL","globalid":"{9BF650AD-2CBF-4763-83CD-2D8A5C46C56D}","interstate":"376","interstate_a":"376","interstate_b":null,"interstate_c":null,"loaddate":1563078002000,"mtfcc_code":"S1100","name":"Penn Lincoln Pkwy","objectid":10814539,"permanent_identifier":"86e8b6ee-86a1-45bb-9732-1374bddca2ff","real_world_relation":"REFERENCE_ONLY","shape_Length":687.9905889520228,"source_datadesc":"2016 April MAFTIGER","source_datasetid":"{A3E33D4D-068F-4458-BA25-28472D2DD1C2}","source_featureid":"1104481838384","source_id":"REF-HAZELWOOD-HIGHWAYS","source_originator":"U.S. Department of Commerce, U.S. Census Bureau, Geography Division","state_route":null,"state_route_a":null,"state_route_b":null,"state_route_c":null,"stco_fipscode":"42003","tnmfrc":1,"us_route":"22,30","us_route_a":"22,30","us_route_b":null,"us_route_c":null},"type":"Feature"},{"geometry":{"coordinates":[[-79.95693,40.429843],[-79.956538,40.429417],[-79.956275,40.429121],[-79.956125,40.42897],[-79.955783,40.428659],[-79.955431,40.428412],[-79.955259,40.428295],[-79.955079,40.428174],[-79.954893,40.428075],[-79.954848,40.428052],[-79.954794,40.428023],[-79.954717,40.427982],[-79.954629,40.427942],[-79.954574,40.427918],[-79.954415,40.427845],[-79.953976,40.427685],[-79.953922,40.427667],[-79.953877,40.427653],[-79.953754,40.427622],[-79.953536,40.427567],[-79.953061,40.427471],[-79.952564,40.427416],[-79.952374,40.427401],[-79.951828,40.427402],[-79.951471,40.427426],[-79.951081,40.427461],[-79.950787,40.427521]],"type":"LineString"},"id":"REF-HAZELWOOD-HIGHWAYS-7","properties":{"canon_status":"REAL_REFERENCE","county_route":null,"federal_lands_route":null,"fictionality":"REAL","globalid":"{8322C2A5-4BF2-4544-80A6-978CE63AA1D3}","interstate":"376","interstate_a":"376","interstate_b":null,"interstate_c":null,"loaddate":1563078002000,"mtfcc_code":"S1100","name":"Penn Lincoln Pkwy","objectid":12347650,"permanent_identifier":"51f8f300-6fe8-4c95-bca7-3c38714fb758","real_world_relation":"REFERENCE_ONLY","shape_Length":825.5727903547112,"source_datadesc":"2016 April MAFTIGER","source_datasetid":"{A3E33D4D-068F-4458-BA25-28472D2DD1C2}","source_featureid":"1104481838384","source_id":"REF-HAZELWOOD-HIGHWAYS","source_originator":"U.S. Department of Commerce, U.S. Census Bureau, Geography Division","state_route":null,"state_route_a":null,"state_route_b":null,"state_route_c":null,"stco_fipscode":"42003","tnmfrc":1,"us_route":"22,30","us_route_a":"22,30","us_route_b":null,"us_route_c":null},"type":"Feature"},{"geometry":{"coordinates":[[-79.950787,40.427521],[-79.950434,40.427606],[-79.949313,40.427876],[-79.94913,40.427922]],"type":"LineString"},"id":"REF-HAZELWOOD-HIGHWAYS-8","properties":{"canon_status":"REAL_REFERENCE","county_route":null,"federal_lands_route":null,"fictionality":"REAL","globalid":"{545E9936-0F98-4B57-BCE2-D11E2A6CDB09}","interstate":"376","interstate_a":"376","interstate_b":null,"interstate_c":null,"loaddate":1563078002000,"mtfcc_code":"S1100","name":"Penn Lincoln Pkwy","objectid":17201620,"permanent_identifier":"5e264f1a-d129-4897-a46b-73880ecbbd75","real_world_relation":"REFERENCE_ONLY","shape_Length":193.55508045259367,"source_datadesc":"2016 April MAFTIGER","source_datasetid":"{A3E33D4D-068F-4458-BA25-28472D2DD1C2}","source_featureid":"1104481838384","source_id":"REF-HAZELWOOD-HIGHWAYS","source_originator":"U.S. Department of Commerce, U.S. Census Bureau, Geography Division","state_route":null,"state_route_a":null,"state_route_b":null,"state_route_c":null,"stco_fipscode":"42003","tnmfrc":1,"us_route":"22,30","us_route_a":"22,30","us_route_b":null,"us_route_c":null},"type":"Feature"},{"geometry":{"coordinates":[[-79.942557,40.429329],[-79.942127,40.429337],[-79.941986,40.42933],[-79.941759,40.429321],[-79.941255,40.429274],[-79.940899,40.429236],[-79.940416,40.429151],[-79.940288,40.429124],[-79.940069,40.42908],[-79.939728,40.429005]],"type":"LineString"},"id":"REF-HAZELWOOD-HIGHWAYS-9","properties":{"canon_status":"REAL_REFERENCE","county_route":null,"federal_lands_route":null,"fictionality":"REAL","globalid":"{380C3CA7-8A87-4377-8A69-C935B0D9AA29}","interstate":"376","interstate_a":"376","interstate_b":null,"interstate_c":null,"loaddate":1563078002000,"mtfcc_code":"S1100","name":"Penn Lincoln Pkwy","objectid":17842450,"permanent_identifier":"40158bb2-702b-4237-b72a-9cfcd35bd2a7","real_world_relation":"REFERENCE_ONLY","shape_Length":320.15478327280624,"source_datadesc":"2016 April MAFTIGER","source_datasetid":"{A3E33D4D-068F-4458-BA25-28472D2DD1C2}","source_featureid":"1104481838384","source_id":"REF-HAZELWOOD-HIGHWAYS","source_originator":"U.S. Department of Commerce, U.S. Census Bureau, Geography Division","state_route":null,"state_route_a":null,"state_route_b":null,"state_route_c":null,"stco_fipscode":"42003","tnmfrc":1,"us_route":"22,30","us_route_a":"22,30","us_route_b":null,"us_route_c":null},"type":"Feature"},{"geometry":{"coordinates":[[-79.958275,40.431025],[-79.958258,40.431016],[-79.957951,40.43072],[-79.957163,40.429878],[-79.956639,40.429331],[-79.95637,40.42906],[-79.956169,40.428867],[-79.955982,40.428712]],"type":"LineString"},"id":"REF-HAZELWOOD-HIGHWAYS-10","properties":{"canon_status":"REAL_REFERENCE","county_route":null,"federal_lands_route":null,"fictionality":"REAL","globalid":"{FDCA73F9-B270-489B-AE75-D56964429510}","interstate":"376","interstate_a":"376","interstate_b":null,"interstate_c":null,"loaddate":1563078002000,"mtfcc_code":"S1100","name":"Penn Lincoln Pkwy","objectid":23354324,"permanent_identifier":"b496af5b-b28c-4f1c-a028-473d223e4d5f","real_world_relation":"REFERENCE_ONLY","shape_Length":424.11286562190423,"source_datadesc":"2016 April MAFTIGER","source_datasetid":"{A3E33D4D-068F-4458-BA25-28472D2DD1C2}","source_featureid":"1104485247665","source_id":"REF-HAZELWOOD-HIGHWAYS","source_originator":"U.S. Department of Commerce, U.S. Census Bureau, Geography Division","state_route":null,"state_route_a":null,"state_route_b":null,"state_route_c":null,"stco_fipscode":"42003","tnmfrc":1,"us_route":"22,30","us_route_a":"22,30","us_route_b":null,"us_route_c":null},"type":"Feature"},{"geometry":{"coordinates":[[-79.958336,40.431227],[-79.958111,40.431022],[-79.958006,40.430937],[-79.95693,40.429843]],"type":"LineString"},"id":"REF-HAZELWOOD-HIGHWAYS-11","properties":{"canon_status":"REAL_REFERENCE","county_route":null,"federal_lands_route":null,"fictionality":"REAL","globalid":"{D3FE7E68-9D6C-4DBD-9A0B-DBE23975965A}","interstate":"376","interstate_a":"376","interstate_b":null,"interstate_c":null,"loaddate":1563078002000,"mtfcc_code":"S1100","name":"Penn Lincoln Pkwy","objectid":28997302,"permanent_identifier":"848ce029-c1cb-4a14-ba91-f177add2d2af","real_world_relation":"REFERENCE_ONLY","shape_Length":255.98918068348348,"source_datadesc":"2016 April MAFTIGER","source_datasetid":"{A3E33D4D-068F-4458-BA25-28472D2DD1C2}","source_featureid":"1104481838384","source_id":"REF-HAZELWOOD-HIGHWAYS","source_originator":"U.S. Department of Commerce, U.S. Census Bureau, Geography Division","state_route":null,"state_route_a":null,"state_route_b":null,"state_route_c":null,"stco_fipscode":"42003","tnmfrc":1,"us_route":"22,30","us_route_a":"22,30","us_route_b":null,"us_route_c":null},"type":"Feature"},{"geometry":{"coordinates":[[-79.948044,40.428181],[-79.94792,40.428211],[-79.947004,40.428438],[-79.946845,40.428482],[-79.946394,40.428606],[-79.946246,40.428648],[-79.945239,40.42889],[-79.945034,40.428944],[-79.944583,40.429064],[-79.944477,40.429092],[-79.944131,40.429166],[-79.943953,40.4292],[-79.943817,40.429227],[-79.943624,40.429256],[-79.943469,40.429272],[-79.943326,40.429287],[-79.942841,40.429323],[-79.942557,40.429329]],"type":"LineString"},"id":"REF-HAZELWOOD-HIGHWAYS-12","properties":{"canon_status":"REAL_REFERENCE","county_route":null,"federal_lands_route":null,"fictionality":"REAL","globalid":"{C5BD1557-D9DD-4EA0-AAD8-21CC70D84C7E}","interstate":"376","interstate_a":"376","interstate_b":null,"interstate_c":null,"loaddate":1563078002000,"mtfcc_code":"S1100","name":"Penn Lincoln Pkwy","objectid":29254242,"permanent_identifier":"932cb927-2d97-4c53-8c9a-b4c40f704a69","real_world_relation":"REFERENCE_ONLY","shape_Length":636.2272981427576,"source_datadesc":"2016 April MAFTIGER","source_datasetid":"{A3E33D4D-068F-4458-BA25-28472D2DD1C2}","source_featureid":"1104481838384","source_id":"REF-HAZELWOOD-HIGHWAYS","source_originator":"U.S. Department of Commerce, U.S. Census Bureau, Geography Division","state_route":null,"state_route_a":null,"state_route_b":null,"state_route_c":null,"stco_fipscode":"42003","tnmfrc":1,"us_route":"22,30","us_route_a":"22,30","us_route_b":null,"us_route_c":null},"type":"Feature"},{"geometry":{"coordinates":[[-79.942839,40.429244],[-79.942263,40.42926],[-79.942081,40.429263],[-79.941765,40.429244],[-79.941076,40.429186],[-79.940059,40.428995],[-79.939731,40.428928],[-79.939329,40.428845],[-79.938174,40.428623],[-79.937895,40.428581]],"type":"LineString"},"id":"REF-HAZELWOOD-HIGHWAYS-13","properties":{"canon_status":"REAL_REFERENCE","county_route":null,"federal_lands_route":null,"fictionality":"REAL","globalid":"{5D65972E-E0DD-4C5B-BBAC-9A71E9B90033}","interstate":"376","interstate_a":"376","interstate_b":null,"interstate_c":null,"loaddate":1563078002000,"mtfcc_code":"S1100","name":"Penn Lincoln Pkwy","objectid":30153873,"permanent_identifier":"325b5e10-b336-43ea-85cf-6e3d5ae936f5","real_world_relation":"REFERENCE_ONLY","shape_Length":561.9286980868379,"source_datadesc":"2016 April MAFTIGER","source_datasetid":"{A3E33D4D-068F-4458-BA25-28472D2DD1C2}","source_featureid":"1104485247665","source_id":"REF-HAZELWOOD-HIGHWAYS","source_originator":"U.S. Department of Commerce, U.S. Census Bureau, Geography Division","state_route":null,"state_route_a":null,"state_route_b":null,"state_route_c":null,"stco_fipscode":"42003","tnmfrc":1,"us_route":"22,30","us_route_a":"22,30","us_route_b":null,"us_route_c":null},"type":"Feature"},{"geometry":{"coordinates":[[-79.9491,40.427838],[-79.948929,40.427884],[-79.948634,40.427963],[-79.947962,40.42812],[-79.947627,40.428215],[-79.946849,40.42841],[-79.944132,40.429092],[-79.943876,40.429142],[-79.943774,40.429149],[-79.943641,40.429163],[-79.94352,40.42918],[-79.943354,40.429199],[-79.943018,40.429238],[-79.942839,40.429244]],"type":"LineString"},"id":"REF-HAZELWOOD-HIGHWAYS-14","properties":{"canon_status":"REAL_REFERENCE","county_route":null,"federal_lands_route":null,"fictionality":"REAL","globalid":"{6D18C3A5-5F00-488B-8634-6CFFA5D53145}","interstate":"376","interstate_a":"376","interstate_b":null,"interstate_c":null,"loaddate":1563078002000,"mtfcc_code":"S1100","name":"Penn Lincoln Pkwy","objectid":31955569,"permanent_identifier":"ea4ce7ba-a2bc-4cb6-9bc5-48181cb7c785","real_world_relation":"REFERENCE_ONLY","shape_Length":728.6364454583688,"source_datadesc":"2016 April MAFTIGER","source_datasetid":"{A3E33D4D-068F-4458-BA25-28472D2DD1C2}","source_featureid":"1104485247665","source_id":"REF-HAZELWOOD-HIGHWAYS","source_originator":"U.S. Department of Commerce, U.S. Census Bureau, Geography Division","state_route":null,"state_route_a":null,"state_route_b":null,"state_route_c":null,"stco_fipscode":"42003","tnmfrc":1,"us_route":"22,30","us_route_a":"22,30","us_route_b":null,"us_route_c":null},"type":"Feature"}],"type":"FeatureCollection"}
