{"features":[{"geometry":{"coordinates":[[-79.952039,40.424925],[-79.952002,40.424869],[-79.951875,40.42461],[-79.951248,40.423687],[-79.950665,40.422827],[-79.949489,40.42109],[-79.94917,40.420601],[-79.94901,40.420339],[-79.948869,40.420096],[-79.94882,40.420006],[-79.948715,40.419811],[-79.948575,40.419593],[-79.948281,40.419082],[-79.948209,40.418905],[-79.948114,40.418719],[-79.947839,40.418179],[-79.947015,40.416561],[-79.946973,40.416479],[-79.946733,40.416026]],"type":"LineString"},"id":"REF-HAZELWOOD-CONNECTING-ROADS-1","properties":{"canon_status":"REAL_REFERENCE","county_route":null,"federal_lands_route":null,"fictionality":"REAL","globalid":"{75F7D98E-D7BF-4A5C-966B-6A97EEAE086F}","interstate":null,"interstate_a":null,"interstate_b":null,"interstate_c":null,"loaddate":1563078002000,"mtfcc_code":"S1200","name":"Irvine St","objectid":357875,"permanent_identifier":"77c4fce4-6e75-4176-b5a3-1b6702f47f2a","real_world_relation":"REFERENCE_ONLY","shape_Length":1430.8260483286854,"source_datadesc":"2016 April MAFTIGER","source_datasetid":"{A3E33D4D-068F-4458-BA25-28472D2DD1C2}","source_featureid":"110428559652","source_id":"REF-HAZELWOOD-CONNECTING-ROADS","source_originator":"U.S. Department of Commerce, U.S. Census Bureau, Geography Division","state_route":"885","state_route_a":"885","state_route_b":null,"state_route_c":null,"stco_fipscode":"42003","tnmfrc":3,"us_route":null,"us_route_a":null,"us_route_b":null,"us_route_c":null},"type":"Feature"},{"geometry":{"coordinates":[[-79.935646,40.399498],[-79.935667,40.399605],[-79.935689,40.399678],[-79.935722,40.399743],[-79.935774,40.399825],[-79.935854,40.399898],[-79.935968,40.399971],[-79.936085,40.400015],[-79.936173,40.400034],[-79.936262,40.400048],[-79.936812,40.400092],[-79.937553,40.400133],[-79.937686,40.400155],[-79.937785,40.400182],[-79.937867,40.400197]],"type":"LineString"},"id":"REF-HAZELWOOD-CONNECTING-ROADS-2","properties":{"canon_status":"REAL_REFERENCE","county_route":null,"federal_lands_route":null,"fictionality":"REAL","globalid":"{D388021C-0F25-4442-B83E-E6D691267A14}","interstate":null,"interstate_a":null,"interstate_b":null,"interstate_c":null,"loaddate":1563078002000,"mtfcc_code":"S1200","name":"2nd Ave","objectid":1884554,"permanent_identifier":"4eb78eef-6726-4ec6-bacc-5ce1324d9629","real_world_relation":"REFERENCE_ONLY","shape_Length":296.0774780786432,"source_datadesc":"2016 April MAFTIGER","source_datasetid":"{A3E33D4D-068F-4458-BA25-28472D2DD1C2}","source_featureid":"1104486335985","source_id":"REF-HAZELWOOD-CONNECTING-ROADS","source_originator":"U.S. Department of Commerce, U.S. Census Bureau, Geography Division","state_route":"885","state_route_a":"885","state_route_b":null,"state_route_c":null,"stco_fipscode":"42003","tnmfrc":3,"us_route":null,"us_route_a":null,"us_route_b":null,"us_route_c":null},"type":"Feature"},{"geometry":{"coordinates":[[-79.945274,40.413167],[-79.945181,40.412905],[-79.945111,40.412634],[-79.945089,40.412493]],"type":"LineString"},"id":"REF-HAZELWOOD-CONNECTING-ROADS-3","properties":{"canon_status":"REAL_REFERENCE","county_route":null,"federal_lands_route":null,"fictionality":"REAL","globalid":"{EC544E9B-0346-4594-B0B8-E8603ED6687F}","interstate":null,"interstate_a":null,"interstate_b":null,"interstate_c":null,"loaddate":1563078002000,"mtfcc_code":"S1200","name":"Irvine St","objectid":2266231,"permanent_identifier":"d0e671c9-9aef-4b01-b472-89f5483c9599","real_world_relation":"REFERENCE_ONLY","shape_Length":100.82048488055733,"source_datadesc":"2016 April MAFTIGER","source_datasetid":"{A3E33D4D-068F-4458-BA25-28472D2DD1C2}","source_featureid":"110428559652","source_id":"REF-HAZELWOOD-CONNECTING-ROADS","source_originator":"U.S. Department of Commerce, U.S. Census Bureau, Geography Division","state_route":"885","state_route_a":"885","state_route_b":null,"state_route_c":null,"stco_fipscode":"42003","tnmfrc":3,"us_route":null,"us_route_a":null,"us_route_b":null,"us_route_c":null},"type":"Feature"},{"geometry":{"coordinates":[[-79.943482,40.407876],[-79.943439,40.407721],[-79.943331,40.407331],[-79.943312,40.407255],[-79.943275,40.407099]],"type":"LineString"},"id":"REF-HAZELWOOD-CONNECTING-ROADS-4","properties":{"canon_status":"REAL_REFERENCE","county_route":null,"federal_lands_route":null,"fictionality":"REAL","globalid":"{A2BCF889-1ED4-460A-8254-78FA3A44AF1C}","interstate":null,"interstate_a":null,"interstate_b":null,"interstate_c":null,"loaddate":1563078002000,"mtfcc_code":"S1200","name":"2nd Ave","objectid":3538947,"permanent_identifier":"ed76da37-7dde-4169-807e-58bfb2f57c62","real_world_relation":"REFERENCE_ONLY","shape_Length":115.91461751894036,"source_datadesc":"2016 April MAFTIGER","source_datasetid":"{A3E33D4D-068F-4458-BA25-28472D2DD1C2}","source_featureid":"1104486364562","source_id":"REF-HAZELWOOD-CONNECTING-ROADS","source_originator":"U.S. Department of Commerce, U.S. Census Bureau, Geography Division","state_route":"885","state_route_a":"885","state_route_b":null,"state_route_c":null,"stco_fipscode":"42003","tnmfrc":3,"us_route":null,"us_route_a":null,"us_route_b":null,"us_route_c":null},"type":"Feature"},{"geometry":{"coordinates":[[-79.9388,40.40066],[-79.93862,40.400555],[-79.938509,40.400491],[-79.938216,40.400331],[-79.938069,40.400261],[-79.938025,40.40024]],"type":"LineString"},"id":"REF-HAZELWOOD-CONNECTING-ROADS-5","properties":{"canon_status":"REAL_REFERENCE","county_route":null,"federal_lands_route":null,"fictionality":"REAL","globalid":"{1997DCE6-ABD4-49C1-8A9B-37FE1441FE42}","interstate":null,"interstate_a":null,"interstate_b":null,"interstate_c":null,"loaddate":1563078002000,"mtfcc_code":"S1200","name":"2nd Ave","objectid":4558209,"permanent_identifier":"8c601413-07e3-4bab-a405-7c7d1bc4de6f","real_world_relation":"REFERENCE_ONLY","shape_Length":105.95499649632625,"source_datadesc":"2016 April MAFTIGER","source_datasetid":"{A3E33D4D-068F-4458-BA25-28472D2DD1C2}","source_featureid":"1104486364562","source_id":"REF-HAZELWOOD-CONNECTING-ROADS","source_originator":"U.S. Department of Commerce, U.S. Census Bureau, Geography Division","state_route":"885","state_route_a":"885","state_route_b":null,"state_route_c":null,"stco_fipscode":"42003","tnmfrc":3,"us_route":null,"us_route_a":null,"us_route_b":null,"us_route_c":null},"type":"Feature"},{"geometry":{"coordinates":[[-79.940536,40.401672],[-79.940313,40.401537],[-79.940247,40.401497],[-79.939639,40.401146],[-79.939415,40.401016]],"type":"LineString"},"id":"REF-HAZELWOOD-CONNECTING-ROADS-6","properties":{"canon_status":"REAL_REFERENCE","county_route":null,"federal_lands_route":null,"fictionality":"REAL","globalid":"{1A8CE7CB-1844-4E16-A453-D81ADDD9612D}","interstate":null,"interstate_a":null,"interstate_b":null,"interstate_c":null,"loaddate":1563078002000,"mtfcc_code":"S1200","name":"2nd Ave","objectid":4813669,"permanent_identifier":"4cbd859d-e714-4166-bd35-98e29daccee4","real_world_relation":"REFERENCE_ONLY","shape_Length":157.38638220673502,"source_datadesc":"2016 April MAFTIGER","source_datasetid":"{A3E33D4D-068F-4458-BA25-28472D2DD1C2}","source_featureid":"1104486364562","source_id":"REF-HAZELWOOD-CONNECTING-ROADS","source_originator":"U.S. Department of Commerce, U.S. Census Bureau, Geography Division","state_route":"885","state_route_a":"885","state_route_b":null,"state_route_c":null,"stco_fipscode":"42003","tnmfrc":3,"us_route":null,"us_route_a":null,"us_route_b":null,"us_route_c":null},"type":"Feature"},{"geometry":{"coordinates":[[-79.941824,40.402749],[-79.941584,40.402524],[-79.941372,40.402295],[-79.941333,40.402259],[-79.94104,40.402019],[-79.940822,40.401849],[-79.940536,40.401672]],"type":"LineString"},"id":"REF-HAZELWOOD-CONNECTING-ROADS-7","properties":{"canon_status":"REAL_REFERENCE","county_route":null,"federal_lands_route":null,"fictionality":"REAL","globalid":"{A77627DF-7B99-4CE9-9BDD-AD71EBBD658B}","interstate":null,"interstate_a":null,"interstate_b":null,"interstate_c":null,"loaddate":1563078002000,"mtfcc_code":"S1200","name":"2nd Ave","objectid":5197744,"permanent_identifier":"90c4547b-f01d-43b7-8ed3-076d881bc4e2","real_world_relation":"REFERENCE_ONLY","shape_Length":213.81800498512976,"source_datadesc":"2016 April MAFTIGER","source_datasetid":"{A3E33D4D-068F-4458-BA25-28472D2DD1C2}","source_featureid":"1104486364562","source_id":"REF-HAZELWOOD-CONNECTING-ROADS","source_originator":"U.S. Department of Commerce, U.S. Census Bureau, Geography Division","state_route":"885","state_route_a":"885","state_route_b":null,"state_route_c":null,"stco_fipscode":"42003","tnmfrc":3,"us_route":null,"us_route_a":null,"us_route_b":null,"us_route_c":null},"type":"Feature"},{"geometry":{"coordinates":[[-79.962786,40.424281],[-79.96251,40.4241]],"type":"LineString"},"id":"REF-HAZELWOOD-CONNECTING-ROADS-8","properties":{"canon_status":"REAL_REFERENCE","county_route":null,"federal_lands_route":null,"fictionality":"REAL","globalid":"{4F3CA2D4-5574-43E2-9596-7CA7D13165A6}","interstate":null,"interstate_a":null,"interstate_b":null,"interstate_c":null,"loaddate":1563078002000,"mtfcc_code":"S1200","name":"E Carson St","objectid":5580516,"permanent_identifier":"fe024736-ceb4-43c5-9fa7-45581c9f93e6","real_world_relation":"REFERENCE_ONLY","shape_Length":40.552562378952956,"source_datadesc":"2016 April MAFTIGER","source_datasetid":"{A3E33D4D-068F-4458-BA25-28472D2DD1C2}","source_featureid":"1103017794554","source_id":"REF-HAZELWOOD-CONNECTING-ROADS","source_originator":"U.S. Department of Commerce, U.S. Census Bureau, Geography Division","state_route":"837","state_route_a":"837","state_route_b":null,"state_route_c":null,"stco_fipscode":"42003","tnmfrc":3,"us_route":null,"us_route_a":null,"us_route_b":null,"us_route_c":null},"type":"Feature"},{"geometry":{"coordinates":[[-79.969809,40.427847],[-79.969527,40.427769],[-79.968683,40.427536],[-79.968466,40.427477],[-79.968404,40.427452]],"type":"LineString"},"id":"REF-HAZELWOOD-CONNECTING-ROADS-9","properties":{"canon_status":"REAL_REFERENCE","county_route":null,"federal_lands_route":null,"fictionality":"REAL","globalid":"{F9E63C6D-021B-48D1-B946-099D20F17821}","interstate":null,"interstate_a":null,"interstate_b":null,"interstate_c":null,"loaddate":1563078002000,"mtfcc_code":"S1200","name":"E Carson St","objectid":5708583,"permanent_identifier":"0f2810e4-bd39-4c6e-9d41-50a5f0f7df37","real_world_relation":"REFERENCE_ONLY","shape_Length":166.80280494351697,"source_datadesc":"2016 April MAFTIGER","source_datasetid":"{A3E33D4D-068F-4458-BA25-28472D2DD1C2}","source_featureid":"1103017794554","source_id":"REF-HAZELWOOD-CONNECTING-ROADS","source_originator":"U.S. Department of Commerce, U.S. Census Bureau, Geography Division","state_route":"837","state_route_a":"837","state_route_b":null,"state_route_c":null,"stco_fipscode":"42003","tnmfrc":3,"us_route":null,"us_route_a":null,"us_route_b":null,"us_route_c":null},"type":"Feature"},{"geometry":{"coordinates":[[-79.944726,40.411321],[-79.944584,40.411062],[-79.944455,40.410824],[-79.9442,40.410302],[-79.944187,40.410271],[-79.94408,40.409997]],"type":"LineString"},"id":"REF-HAZELWOOD-CONNECTING-ROADS-10","properties":{"canon_status":"REAL_REFERENCE","county_route":null,"federal_lands_route":null,"fictionality":"REAL","globalid":"{20099416-2691-4936-A9C6-15936D243095}","interstate":null,"interstate_a":null,"interstate_b":null,"interstate_c":null,"loaddate":1563078002000,"mtfcc_code":"S1200","name":"2nd Ave","objectid":5836097,"permanent_identifier":"931ff526-6f1c-46f6-bec1-4e1e177b1296","real_world_relation":"REFERENCE_ONLY","shape_Length":206.6500723317269,"source_datadesc":"2016 April MAFTIGER","source_datasetid":"{A3E33D4D-068F-4458-BA25-28472D2DD1C2}","source_featureid":"1104486364562","source_id":"REF-HAZELWOOD-CONNECTING-ROADS","source_originator":"U.S. Department of Commerce, U.S. Census Bureau, Geography Division","state_route":"885","state_route_a":"885","state_route_b":null,"state_route_c":null,"stco_fipscode":"42003","tnmfrc":3,"us_route":null,"us_route_a":null,"us_route_b":null,"us_route_c":null},"type":"Feature"},{"geometry":{"coordinates":[[-79.961965,40.423723],[-79.961,40.423069],[-79.960905,40.423005],[-79.960176,40.422515]],"type":"LineString"},"id":"REF-HAZELWOOD-CONNECTING-ROADS-11","properties":{"canon_status":"REAL_REFERENCE","county_route":null,"federal_lands_route":null,"fictionality":"REAL","globalid":"{66277351-825A-45D4-B371-49A808012DD7}","interstate":null,"interstate_a":null,"interstate_b":null,"interstate_c":null,"loaddate":1563078002000,"mtfcc_code":"S1200","name":"E Carson St","objectid":5963920,"permanent_identifier":"bc4aa35f-7e0b-440f-8b65-65e063e9438d","real_world_relation":"REFERENCE_ONLY","shape_Length":266.20271663137106,"source_datadesc":"2016 April MAFTIGER","source_datasetid":"{A3E33D4D-068F-4458-BA25-28472D2DD1C2}","source_featureid":"1103017794554","source_id":"REF-HAZELWOOD-CONNECTING-ROADS","source_originator":"U.S. Department of Commerce, U.S. Census Bureau, Geography Division","state_route":"837","state_route_a":"837","state_route_b":null,"state_route_c":null,"stco_fipscode":"42003","tnmfrc":3,"us_route":null,"us_route_a":null,"us_route_b":null,"us_route_c":null},"type":"Feature"},{"geometry":{"coordinates":[[-79.935355,40.3965],[-79.9354,40.396911],[-79.935628,40.39858],[-79.935723,40.399327]],"type":"LineString"},"id":"REF-HAZELWOOD-CONNECTING-ROADS-12","properties":{"canon_status":"REAL_REFERENCE","county_route":null,"federal_lands_route":null,"fictionality":"REAL","globalid":"{FEB1820E-C7E2-4C00-82BF-EEDF182256B4}","interstate":null,"interstate_a":null,"interstate_b":null,"interstate_c":null,"loaddate":1563078002000,"mtfcc_code":"S1200","name":"Glenwood Brg","objectid":7367800,"permanent_identifier":"b39ddbdb-6300-43df-8961-950621e8c688","real_world_relation":"REFERENCE_ONLY","shape_Length":415.2662210704584,"source_datadesc":"2016 April MAFTIGER","source_datasetid":"{A3E33D4D-068F-4458-BA25-28472D2DD1C2}","source_featureid":"110428579059","source_id":"REF-HAZELWOOD-CONNECTING-ROADS","source_originator":"U.S. Department of Commerce, U.S. Census Bureau, Geography Division","state_route":"885","state_route_a":"885","state_route_b":null,"state_route_c":null,"stco_fipscode":"42003","tnmfrc":3,"us_route":null,"us_route_a":null,"us_route_b":null,"us_route_c":null},"type":"Feature"},{"geometry":{"coordinates":[[-79.94408,40.409997],[-79.944034,40.409829],[-79.943935,40.409458],[-79.943896,40.409325],[-79.943848,40.409159]],"type":"LineString"},"id":"REF-HAZELWOOD-CONNECTING-ROADS-13","properties":{"canon_status":"REAL_REFERENCE","county_route":null,"federal_lands_route":null,"fictionality":"REAL","globalid":"{AC3F7087-834C-4F49-94F5-7F5FC50C3AE2}","interstate":null,"interstate_a":null,"interstate_b":null,"interstate_c":null,"loaddate":1563078002000,"mtfcc_code":"S1200","name":"2nd Ave","objectid":7750645,"permanent_identifier":"2875aed2-be9a-4082-86d5-cfd3b4d0cd99","real_world_relation":"REFERENCE_ONLY","shape_Length":125.21037277919014,"source_datadesc":"2016 April MAFTIGER","source_datasetid":"{A3E33D4D-068F-4458-BA25-28472D2DD1C2}","source_featureid":"1104486364562","source_id":"REF-HAZELWOOD-CONNECTING-ROADS","source_originator":"U.S. Department of Commerce, U.S. Census Bureau, Geography Division","state_route":"885","state_route_a":"885","state_route_b":null,"state_route_c":null,"stco_fipscode":"42003","tnmfrc":3,"us_route":null,"us_route_a":null,"us_route_b":null,"us_route_c":null},"type":"Feature"},{"geometry":{"coordinates":[[-79.964531,40.425424],[-79.964463,40.425378],[-79.964357,40.425305],[-79.964248,40.425231],[-79.964037,40.42509],[-79.963966,40.425042],[-79.963931,40.425019]],"type":"LineString"},"id":"REF-HAZELWOOD-CONNECTING-ROADS-14","properties":{"canon_status":"REAL_REFERENCE","county_route":null,"federal_lands_route":null,"fictionality":"REAL","globalid":"{8BEAA74E-722C-444D-AAB4-52B781143C90}","interstate":null,"interstate_a":null,"interstate_b":null,"interstate_c":null,"loaddate":1563078002000,"mtfcc_code":"S1200","name":"E Carson St","objectid":8643467,"permanent_identifier":"0d796e23-f57e-49fb-8bb5-3b3cfc7aad63","real_world_relation":"REFERENCE_ONLY","shape_Length":89.2688005128909,"source_datadesc":"2016 April MAFTIGER","source_datasetid":"{A3E33D4D-068F-4458-BA25-28472D2DD1C2}","source_featureid":"1103017794554","source_id":"REF-HAZELWOOD-CONNECTING-ROADS","source_originator":"U.S. Department of Commerce, U.S. Census Bureau, Geography Division","state_route":"837","state_route_a":"837","state_route_b":null,"state_route_c":null,"stco_fipscode":"42003","tnmfrc":3,"us_route":null,"us_route_a":null,"us_route_b":null,"us_route_c":null},"type":"Feature"},{"geometry":{"coordinates":[[-79.945598,40.413839],[-79.945533,40.413704],[-79.945338,40.413301],[-79.945274,40.413167]],"type":"LineString"},"id":"REF-HAZELWOOD-CONNECTING-ROADS-15","properties":{"canon_status":"REAL_REFERENCE","county_route":null,"federal_lands_route":null,"fictionality":"REAL","globalid":"{2FC56367-D52F-4E43-8CC4-13CD923F1C92}","interstate":null,"interstate_a":null,"interstate_b":null,"interstate_c":null,"loaddate":1563078002000,"mtfcc_code":"S1200","name":"Irvine St","objectid":10303703,"permanent_identifier":"1892845e-b158-404e-8ddc-160e637058f3","real_world_relation":"REFERENCE_ONLY","shape_Length":104.66184235530784,"source_datadesc":"2016 April MAFTIGER","source_datasetid":"{A3E33D4D-068F-4458-BA25-28472D2DD1C2}","source_featureid":"110428559652","source_id":"REF-HAZELWOOD-CONNECTING-ROADS","source_originator":"U.S. Department of Commerce, U.S. Census Bureau, Geography Division","state_route":"885","state_route_a":"885","state_route_b":null,"state_route_c":null,"stco_fipscode":"42003","tnmfrc":3,"us_route":null,"us_route_a":null,"us_route_b":null,"us_route_c":null},"type":"Feature"},{"geometry":{"coordinates":[[-79.959206,40.431144],[-79.958956,40.43097],[-79.958766,40.430818],[-79.958416,40.430538],[-79.95817,40.430338],[-79.957932,40.430132],[-79.957742,40.429958]],"type":"LineString"},"id":"REF-HAZELWOOD-CONNECTING-ROADS-16","properties":{"canon_status":"REAL_REFERENCE","county_route":null,"federal_lands_route":null,"fictionality":"REAL","globalid":"{275A6BE6-13A2-40BB-990C-3BA59DCF8BC0}","interstate":null,"interstate_a":null,"interstate_b":null,"interstate_c":null,"loaddate":1563078002000,"mtfcc_code":"S1200","name":"2nd Ave","objectid":10686889,"permanent_identifier":"48134e68-6314-470c-a69a-20fbcc3b4e56","real_world_relation":"REFERENCE_ONLY","shape_Length":238.19074391889055,"source_datadesc":"2016 April MAFTIGER","source_datasetid":"{A3E33D4D-068F-4458-BA25-28472D2DD1C2}","source_featureid":"110428545301","source_id":"REF-HAZELWOOD-CONNECTING-ROADS","source_originator":"U.S. Department of Commerce, U.S. Census Bureau, Geography Division","state_route":"885","state_route_a":"885","state_route_b":null,"state_route_c":null,"stco_fipscode":"42003","tnmfrc":3,"us_route":null,"us_route_a":null,"us_route_b":null,"us_route_c":null},"type":"Feature"},{"geometry":{"coordinates":[[-79.942563,40.404584],[-79.942526,40.404434],[-79.942492,40.404296],[-79.942413,40.404028],[-79.942401,40.403991],[-79.942354,40.403846]],"type":"LineString"},"id":"REF-HAZELWOOD-CONNECTING-ROADS-17","properties":{"canon_status":"REAL_REFERENCE","county_route":null,"federal_lands_route":null,"fictionality":"REAL","globalid":"{0CCE1BF3-CB54-406F-92CA-828F346DB90C}","interstate":null,"interstate_a":null,"interstate_b":null,"interstate_c":null,"loaddate":1563078002000,"mtfcc_code":"S1200","name":"2nd Ave","objectid":12091465,"permanent_identifier":"b7aa9842-9265-49de-8b56-10add9455f8d","real_world_relation":"REFERENCE_ONLY","shape_Length":110.39451853292266,"source_datadesc":"2016 April MAFTIGER","source_datasetid":"{A3E33D4D-068F-4458-BA25-28472D2DD1C2}","source_featureid":"1104486364562","source_id":"REF-HAZELWOOD-CONNECTING-ROADS","source_originator":"U.S. Department of Commerce, U.S. Census Bureau, Geography Division","state_route":"885","state_route_a":"885","state_route_b":null,"state_route_c":null,"stco_fipscode":"42003","tnmfrc":3,"us_route":null,"us_route_a":null,"us_route_b":null,"us_route_c":null},"type":"Feature"},{"geometry":{"coordinates":[[-79.937867,40.400197],[-79.938025,40.40024]],"type":"LineString"},"id":"REF-HAZELWOOD-CONNECTING-ROADS-18","properties":{"canon_status":"REAL_REFERENCE","county_route":null,"federal_lands_route":null,"fictionality":"REAL","globalid":"{D5B5DB3D-CE5E-403B-80A7-E3C2718A499C}","interstate":null,"interstate_a":null,"interstate_b":null,"interstate_c":null,"loaddate":1563078002000,"mtfcc_code":"S1200","name":"2nd Ave","objectid":12602867,"permanent_identifier":"560f63a6-89ee-4305-874d-acabc7e066ca","real_world_relation":"REFERENCE_ONLY","shape_Length":18.677904047776096,"source_datadesc":"2016 April MAFTIGER","source_datasetid":"{A3E33D4D-068F-4458-BA25-28472D2DD1C2}","source_featureid":"1104486335985","source_id":"REF-HAZELWOOD-CONNECTING-ROADS","source_originator":"U.S. Department of Commerce, U.S. Census Bureau, Geography Division","state_route":"885","state_route_a":"885","state_route_b":null,"state_route_c":null,"stco_fipscode":"42003","tnmfrc":3,"us_route":null,"us_route_a":null,"us_route_b":null,"us_route_c":null},"type":"Feature"},{"geometry":{"coordinates":[[-79.968404,40.427452],[-79.968136,40.427384],[-79.968078,40.42737],[-79.967337,40.427164],[-79.967072,40.42709]],"type":"LineString"},"id":"REF-HAZELWOOD-CONNECTING-ROADS-19","properties":{"canon_status":"REAL_REFERENCE","county_route":null,"federal_lands_route":null,"fictionality":"REAL","globalid":"{C23A48C4-CF74-4EF0-9C89-58FD088AE288}","interstate":null,"interstate_a":null,"interstate_b":null,"interstate_c":null,"loaddate":1563078002000,"mtfcc_code":"S1200","name":"E Carson St","objectid":12730570,"permanent_identifier":"d6bbf222-a17d-4079-b781-b9770be9a5d2","real_world_relation":"REFERENCE_ONLY","shape_Length":157.45902122496696,"source_datadesc":"2016 April MAFTIGER","source_datasetid":"{A3E33D4D-068F-4458-BA25-28472D2DD1C2}","source_featureid":"1103017794554","source_id":"REF-HAZELWOOD-CONNECTING-ROADS","source_originator":"U.S. Department of Commerce, U.S. Census Bureau, Geography Division","state_route":"837","state_route_a":"837","state_route_b":null,"state_route_c":null,"stco_fipscode":"42003","tnmfrc":3,"us_route":null,"us_route_a":null,"us_route_b":null,"us_route_c":null},"type":"Feature"},{"geometry":{"coordinates":[[-79.938025,40.40024],[-79.937922,40.400139],[-79.937691,40.400068],[-79.93694,40.399997],[-79.936254,40.399961],[-79.936111,40.399928],[-79.93602,40.399887],[-79.935935,40.399832],[-79.935876,40.399768],[-79.935811,40.399664],[-79.935759,40.399489]],"type":"LineString"},"id":"REF-HAZELWOOD-CONNECTING-ROADS-20","properties":{"canon_status":"REAL_REFERENCE","county_route":null,"federal_lands_route":null,"fictionality":"REAL","globalid":"{5DBB901B-A71E-41A3-85A2-33F34BAE5646}","interstate":null,"interstate_a":null,"interstate_b":null,"interstate_c":null,"loaddate":1563078002000,"mtfcc_code":"S1200","name":"2nd Ave","objectid":12986510,"permanent_identifier":"4814c855-d08c-477d-867e-0a0130be5df2","real_world_relation":"REFERENCE_ONLY","shape_Length":302.52755750941674,"source_datadesc":"2016 April MAFTIGER","source_datasetid":"{A3E33D4D-068F-4458-BA25-28472D2DD1C2}","source_featureid":"1104486364561","source_id":"REF-HAZELWOOD-CONNECTING-ROADS","source_originator":"U.S. Department of Commerce, U.S. Census Bureau, Geography Division","state_route":"885","state_route_a":"885","state_route_b":null,"state_route_c":null,"stco_fipscode":"42003","tnmfrc":3,"us_route":null,"us_route_a":null,"us_route_b":null,"us_route_c":null},"type":"Feature"},{"geometry":{"coordinates":[[-79.953783,40.425921],[-79.953741,40.425872],[-79.953616,40.425726],[-79.953589,40.425695],[-79.953575,40.425678],[-79.953448,40.425519],[-79.953402,40.425461],[-79.953222,40.425223],[-79.953077,40.425039],[-79.952952,40.42488]],"type":"LineString"},"id":"REF-HAZELWOOD-CONNECTING-ROADS-21","properties":{"canon_status":"REAL_REFERENCE","county_route":null,"federal_lands_route":null,"fictionality":"REAL","globalid":"{D6A48A59-7B29-4C30-9716-196FEBF95CA1}","interstate":null,"interstate_a":null,"interstate_b":null,"interstate_c":null,"loaddate":1563078002000,"mtfcc_code":"S1200","name":"2nd Ave","objectid":14007483,"permanent_identifier":"c3ec0b3d-2359-4a27-938e-06949fefcaa0","real_world_relation":"REFERENCE_ONLY","shape_Length":178.16543747164462,"source_datadesc":"2016 April MAFTIGER","source_datasetid":"{A3E33D4D-068F-4458-BA25-28472D2DD1C2}","source_featureid":"110428545301","source_id":"REF-HAZELWOOD-CONNECTING-ROADS","source_originator":"U.S. Department of Commerce, U.S. Census Bureau, Geography Division","state_route":"885","state_route_a":"885","state_route_b":null,"state_route_c":null,"stco_fipscode":"42003","tnmfrc":3,"us_route":null,"us_route_a":null,"us_route_b":null,"us_route_c":null},"type":"Feature"},{"geometry":{"coordinates":[[-79.942313,40.40372],[-79.942251,40.403505],[-79.942159,40.40328],[-79.942052,40.403055],[-79.941946,40.402918]],"type":"LineString"},"id":"REF-HAZELWOOD-CONNECTING-ROADS-22","properties":{"canon_status":"REAL_REFERENCE","county_route":null,"federal_lands_route":null,"fictionality":"REAL","globalid":"{6F1EBF2F-551E-41D1-8206-E63782D625AA}","interstate":null,"interstate_a":null,"interstate_b":null,"interstate_c":null,"loaddate":1563078002000,"mtfcc_code":"S1200","name":"2nd Ave","objectid":14773489,"permanent_identifier":"7d19f172-417a-4d2f-a438-5f9b2601c300","real_world_relation":"REFERENCE_ONLY","shape_Length":124.85431863367951,"source_datadesc":"2016 April MAFTIGER","source_datasetid":"{A3E33D4D-068F-4458-BA25-28472D2DD1C2}","source_featureid":"1104486364562","source_id":"REF-HAZELWOOD-CONNECTING-ROADS","source_originator":"U.S. Department of Commerce, U.S. Census Bureau, Geography Division","state_route":"885","state_route_a":"885","state_route_b":null,"state_route_c":null,"stco_fipscode":"42003","tnmfrc":3,"us_route":null,"us_route_a":null,"us_route_b":null,"us_route_c":null},"type":"Feature"},{"geometry":{"coordinates":[[-79.935759,40.399489],[-79.935723,40.399327]],"type":"LineString"},"id":"REF-HAZELWOOD-CONNECTING-ROADS-23","properties":{"canon_status":"REAL_REFERENCE","county_route":null,"federal_lands_route":null,"fictionality":"REAL","globalid":"{214B3AEA-60E9-42EF-8463-DF95F385E650}","interstate":null,"interstate_a":null,"interstate_b":null,"interstate_c":null,"loaddate":1563078002000,"mtfcc_code":"S1200","name":"2nd Ave","objectid":15412880,"permanent_identifier":"6a3b98b4-3d89-4edd-b6ee-c342c6f66dc7","real_world_relation":"REFERENCE_ONLY","shape_Length":24.01720501091382,"source_datadesc":"2016 April MAFTIGER","source_datasetid":"{A3E33D4D-068F-4458-BA25-28472D2DD1C2}","source_featureid":"1104486364561","source_id":"REF-HAZELWOOD-CONNECTING-ROADS","source_originator":"U.S. Department of Commerce, U.S. Census Bureau, Geography Division","state_route":"885","state_route_a":"885","state_route_b":null,"state_route_c":null,"stco_fipscode":"42003","tnmfrc":3,"us_route":null,"us_route_a":null,"us_route_b":null,"us_route_c":null},"type":"Feature"},{"geometry":{"coordinates":[[-79.960176,40.422515],[-79.959273,40.421906],[-79.959024,40.421729],[-79.958795,40.421537],[-79.958637,40.421354],[-79.958578,40.421257],[-79.958347,40.420865],[-79.957758,40.41986],[-79.957722,40.419799],[-79.957326,40.419119],[-79.957094,40.418718],[-79.956793,40.41822],[-79.956485,40.41767],[-79.956388,40.417416],[-79.956058,40.416431],[-79.955851,40.415744],[-79.955753,40.41529],[-79.955708,40.41479],[-79.955662,40.414153],[-79.955617,40.412789],[-79.955636,40.412133],[-79.955656,40.411815],[-79.955636,40.411503],[-79.955526,40.411032]],"type":"LineString"},"id":"REF-HAZELWOOD-CONNECTING-ROADS-24","properties":{"canon_status":"REAL_REFERENCE","county_route":null,"federal_lands_route":null,"fictionality":"REAL","globalid":"{CF98C01F-21BD-4C42-8510-1712955693D6}","interstate":null,"interstate_a":null,"interstate_b":null,"interstate_c":null,"loaddate":1563078002000,"mtfcc_code":"S1200","name":"E Carson St","objectid":15923163,"permanent_identifier":"37eaa2d1-0584-4469-823e-134617f53cad","real_world_relation":"REFERENCE_ONLY","shape_Length":1813.4858767014607,"source_datadesc":"2016 April MAFTIGER","source_datasetid":"{A3E33D4D-068F-4458-BA25-28472D2DD1C2}","source_featureid":"1103017794554","source_id":"REF-HAZELWOOD-CONNECTING-ROADS","source_originator":"U.S. Department of Commerce, U.S. Census Bureau, Geography Division","state_route":"837","state_route_a":"837","state_route_b":null,"state_route_c":null,"stco_fipscode":"42003","tnmfrc":3,"us_route":null,"us_route_a":null,"us_route_b":null,"us_route_c":null},"type":"Feature"},{"geometry":{"coordinates":[[-79.967072,40.42709],[-79.966943,40.427052],[-79.966792,40.42695],[-79.966006,40.426422],[-79.965765,40.426261],[-79.965744,40.426247]],"type":"LineString"},"id":"REF-HAZELWOOD-CONNECTING-ROADS-25","properties":{"canon_status":"REAL_REFERENCE","county_route":null,"federal_lands_route":null,"fictionality":"REAL","globalid":"{BAEB7472-8015-4CAE-B51E-CB07A3023C6F}","interstate":null,"interstate_a":null,"interstate_b":null,"interstate_c":null,"loaddate":1563078002000,"mtfcc_code":"S1200","name":"E Carson St","objectid":17073042,"permanent_identifier":"758ddb07-1770-471f-8654-48ec51c8e44d","real_world_relation":"REFERENCE_ONLY","shape_Length":193.36615180493496,"source_datadesc":"2016 April MAFTIGER","source_datasetid":"{A3E33D4D-068F-4458-BA25-28472D2DD1C2}","source_featureid":"1103017794554","source_id":"REF-HAZELWOOD-CONNECTING-ROADS","source_originator":"U.S. Department of Commerce, U.S. Census Bureau, Geography Division","state_route":"837","state_route_a":"837","state_route_b":null,"state_route_c":null,"stco_fipscode":"42003","tnmfrc":3,"us_route":null,"us_route_a":null,"us_route_b":null,"us_route_c":null},"type":"Feature"},{"geometry":{"coordinates":[[-79.935621,40.39936],[-79.935646,40.399498]],"type":"LineString"},"id":"REF-HAZELWOOD-CONNECTING-ROADS-26","properties":{"canon_status":"REAL_REFERENCE","county_route":null,"federal_lands_route":null,"fictionality":"REAL","globalid":"{D63A577E-9DDF-4482-92A0-3CF458A6EC69}","interstate":null,"interstate_a":null,"interstate_b":null,"interstate_c":null,"loaddate":1563078002000,"mtfcc_code":"S1200","name":"Glenwood Brg","objectid":17201637,"permanent_identifier":"47e8c21b-eb76-4009-856c-ad8c470e7b6b","real_world_relation":"REFERENCE_ONLY","shape_Length":20.363368494160287,"source_datadesc":"2016 April MAFTIGER","source_datasetid":"{A3E33D4D-068F-4458-BA25-28472D2DD1C2}","source_featureid":"1104486335984","source_id":"REF-HAZELWOOD-CONNECTING-ROADS","source_originator":"U.S. Department of Commerce, U.S. Census Bureau, Geography Division","state_route":"885","state_route_a":"885","state_route_b":null,"state_route_c":null,"stco_fipscode":"42003","tnmfrc":3,"us_route":null,"us_route_a":null,"us_route_b":null,"us_route_c":null},"type":"Feature"},{"geometry":{"coordinates":[[-79.955526,40.411032],[-79.955447,40.410834],[-79.955331,40.410543],[-79.955238,40.41031],[-79.955173,40.410147],[-79.954958,40.409574],[-79.95484,40.409186],[-79.954585,40.408414],[-79.954436,40.407931],[-79.954147,40.407033],[-79.954015,40.406648],[-79.953944,40.406457],[-79.952952,40.404111],[-79.952704,40.403566],[-79.952348,40.402888],[-79.952157,40.402554],[-79.951945,40.402227],[-79.951722,40.401904],[-79.951368,40.401428],[-79.951225,40.401248],[-79.950831,40.400791],[-79.950556,40.400493],[-79.950269,40.400201],[-79.949968,40.399918],[-79.949723,40.399701],[-79.949162,40.399227],[-79.948026,40.398287],[-79.946409,40.39694],[-79.946077,40.396676],[-79.945907,40.396549],[-79.945724,40.396432],[-79.945502,40.396308],[-79.945299,40.396213],[-79.945091,40.396123],[-79.943822,40.395614],[-79.943574,40.395521],[-79.942734,40.395235],[-79.942511,40.395172],[-79.942056,40.395061],[-79.941377,40.394883],[-79.941149,40.394829],[-79.940687,40.394735],[-79.940221,40.394655],[-79.939957,40.39462],[-79.939515,40.394562],[-79.939179,40.394522],[-79.938597,40.394464],[-79.938138,40.394415],[-79.937813,40.39438],[-79.937522,40.394349],[-79.936841,40.394278],[-79.936811,40.394275],[-79.936518,40.394239]],"type":"LineString"},"id":"REF-HAZELWOOD-CONNECTING-ROADS-27","properties":{"canon_status":"REAL_REFERENCE","county_route":null,"federal_lands_route":null,"fictionality":"REAL","globalid":"{581E7E19-3343-49A5-AEA5-E81F8F552CB4}","interstate":null,"interstate_a":null,"interstate_b":null,"interstate_c":null,"loaddate":1563078002000,"mtfcc_code":"S1200","name":"E Carson St","objectid":17586284,"permanent_identifier":"e0b83b51-bcb7-4797-900d-a72b86f1df2a","real_world_relation":"REFERENCE_ONLY","shape_Length":3534.6746870041793,"source_datadesc":"2016 April MAFTIGER","source_datasetid":"{A3E33D4D-068F-4458-BA25-28472D2DD1C2}","source_featureid":"1103017794554","source_id":"REF-HAZELWOOD-CONNECTING-ROADS","source_originator":"U.S. Department of Commerce, U.S. Census Bureau, Geography Division","state_route":"837","state_route_a":"837","state_route_b":null,"state_route_c":null,"stco_fipscode":"42003","tnmfrc":3,"us_route":null,"us_route_a":null,"us_route_b":null,"us_route_c":null},"type":"Feature"},{"geometry":{"coordinates":[[-79.939087,40.400826],[-79.939029,40.400792],[-79.938857,40.400693],[-79.9388,40.40066]],"type":"LineString"},"id":"REF-HAZELWOOD-CONNECTING-ROADS-28","properties":{"canon_status":"REAL_REFERENCE","county_route":null,"federal_lands_route":null,"fictionality":"REAL","globalid":"{FA2BD448-6474-4711-BE3B-1232190D773A}","interstate":null,"interstate_a":null,"interstate_b":null,"interstate_c":null,"loaddate":1563078002000,"mtfcc_code":"S1200","name":"2nd Ave","objectid":18740629,"permanent_identifier":"4f9c8155-b858-455d-bc41-b18cf670f0a2","real_world_relation":"REFERENCE_ONLY","shape_Length":40.11935596341838,"source_datadesc":"2016 April MAFTIGER","source_datasetid":"{A3E33D4D-068F-4458-BA25-28472D2DD1C2}","source_featureid":"1104486364562","source_id":"REF-HAZELWOOD-CONNECTING-ROADS","source_originator":"U.S. Department of Commerce, U.S. Census Bureau, Geography Division","state_route":"885","state_route_a":"885","state_route_b":null,"state_route_c":null,"stco_fipscode":"42003","tnmfrc":3,"us_route":null,"us_route_a":null,"us_route_b":null,"us_route_c":null},"type":"Feature"},{"geometry":{"coordinates":[[-79.957742,40.429958],[-79.957523,40.429745],[-79.957131,40.429364],[-79.956741,40.428985],[-79.956628,40.428876],[-79.955922,40.428189],[-79.955716,40.427981],[-79.955579,40.427843],[-79.955388,40.427651],[-79.955203,40.427453],[-79.954918,40.427147],[-79.954404,40.426595],[-79.954062,40.426231],[-79.953986,40.426149],[-79.953783,40.425921]],"type":"LineString"},"id":"REF-HAZELWOOD-CONNECTING-ROADS-29","properties":{"canon_status":"REAL_REFERENCE","county_route":null,"federal_lands_route":null,"fictionality":"REAL","globalid":"{3EE3CF99-1792-47DB-9209-B3EB898A1EF6}","interstate":null,"interstate_a":null,"interstate_b":null,"interstate_c":null,"loaddate":1563078002000,"mtfcc_code":"S1200","name":"2nd Ave","objectid":19509899,"permanent_identifier":"4dee5d22-d430-4163-8b47-a91e1f6efd25","real_world_relation":"REFERENCE_ONLY","shape_Length":736.9264826183376,"source_datadesc":"2016 April MAFTIGER","source_datasetid":"{A3E33D4D-068F-4458-BA25-28472D2DD1C2}","source_featureid":"110428545301","source_id":"REF-HAZELWOOD-CONNECTING-ROADS","source_originator":"U.S. Department of Commerce, U.S. Census Bureau, Geography Division","state_route":"885","state_route_a":"885","state_route_b":null,"state_route_c":null,"stco_fipscode":"42003","tnmfrc":3,"us_route":null,"us_route_a":null,"us_route_b":null,"us_route_c":null},"type":"Feature"},{"geometry":{"coordinates":[[-79.942989,40.406085],[-79.942915,40.405823],[-79.942827,40.40554],[-79.942653,40.404937],[-79.942626,40.404831],[-79.942563,40.404584]],"type":"LineString"},"id":"REF-HAZELWOOD-CONNECTING-ROADS-30","properties":{"canon_status":"REAL_REFERENCE","county_route":null,"federal_lands_route":null,"fictionality":"REAL","globalid":"{C7F67B12-79D9-4586-86E5-C33FBB8A5A66}","interstate":null,"interstate_a":null,"interstate_b":null,"interstate_c":null,"loaddate":1563078002000,"mtfcc_code":"S1200","name":"2nd Ave","objectid":20022332,"permanent_identifier":"bbd68636-d5ee-44dc-88db-28f7c268bba8","real_world_relation":"REFERENCE_ONLY","shape_Length":224.51562578128943,"source_datadesc":"2016 April MAFTIGER","source_datasetid":"{A3E33D4D-068F-4458-BA25-28472D2DD1C2}","source_featureid":"1104486364562","source_id":"REF-HAZELWOOD-CONNECTING-ROADS","source_originator":"U.S. Department of Commerce, U.S. Census Bureau, Geography Division","state_route":"885","state_route_a":"885","state_route_b":null,"state_route_c":null,"stco_fipscode":"42003","tnmfrc":3,"us_route":null,"us_route_a":null,"us_route_b":null,"us_route_c":null},"type":"Feature"},{"geometry":{"coordinates":[[-79.97304,40.428328],[-79.972666,40.428305],[-79.971544,40.428239],[-79.971262,40.428223],[-79.97117,40.428219]],"type":"LineString"},"id":"REF-HAZELWOOD-CONNECTING-ROADS-31","properties":{"canon_status":"REAL_REFERENCE","county_route":null,"federal_lands_route":null,"fictionality":"REAL","globalid":"{25A6E1FB-FC6A-4D5F-9BBE-5C030D142562}","interstate":null,"interstate_a":null,"interstate_b":null,"interstate_c":null,"loaddate":1563078002000,"mtfcc_code":"S1200","name":"E Carson St","objectid":20535036,"permanent_identifier":"b1c7549a-8cd0-4b5c-abeb-4e835c6ac413","real_world_relation":"REFERENCE_ONLY","shape_Length":208.7792811922753,"source_datadesc":"2016 April MAFTIGER","source_datasetid":"{A3E33D4D-068F-4458-BA25-28472D2DD1C2}","source_featureid":"1103017794554","source_id":"REF-HAZELWOOD-CONNECTING-ROADS","source_originator":"U.S. Department of Commerce, U.S. Census Bureau, Geography Division","state_route":"837","state_route_a":"837","state_route_b":null,"state_route_c":null,"stco_fipscode":"42003","tnmfrc":3,"us_route":null,"us_route_a":null,"us_route_b":null,"us_route_c":null},"type":"Feature"},{"geometry":{"coordinates":[[-79.943848,40.409159],[-79.943815,40.409043],[-79.943716,40.408695],[-79.943683,40.408579]],"type":"LineString"},"id":"REF-HAZELWOOD-CONNECTING-ROADS-32","properties":{"canon_status":"REAL_REFERENCE","county_route":null,"federal_lands_route":null,"fictionality":"REAL","globalid":"{530AF7C9-0CC4-45FE-8214-320D480F4E8E}","interstate":null,"interstate_a":null,"interstate_b":null,"interstate_c":null,"loaddate":1563078002000,"mtfcc_code":"S1200","name":"2nd Ave","objectid":20663542,"permanent_identifier":"d0d1e869-ea39-48b6-b1b0-5b6f709b0bd8","real_world_relation":"REFERENCE_ONLY","shape_Length":86.76046265545583,"source_datadesc":"2016 April MAFTIGER","source_datasetid":"{A3E33D4D-068F-4458-BA25-28472D2DD1C2}","source_featureid":"1104486364562","source_id":"REF-HAZELWOOD-CONNECTING-ROADS","source_originator":"U.S. Department of Commerce, U.S. Census Bureau, Geography Division","state_route":"885","state_route_a":"885","state_route_b":null,"state_route_c":null,"stco_fipscode":"42003","tnmfrc":3,"us_route":null,"us_route_a":null,"us_route_b":null,"us_route_c":null},"type":"Feature"},{"geometry":{"coordinates":[[-79.96251,40.4241],[-79.96235,40.423994],[-79.962323,40.423976],[-79.961965,40.423723]],"type":"LineString"},"id":"REF-HAZELWOOD-CONNECTING-ROADS-33","properties":{"canon_status":"REAL_REFERENCE","county_route":null,"federal_lands_route":null,"fictionality":"REAL","globalid":"{D1D34E55-2A8B-4D20-A18A-DA9777CB8DC4}","interstate":null,"interstate_a":null,"interstate_b":null,"interstate_c":null,"loaddate":1563078002000,"mtfcc_code":"S1200","name":"E Carson St","objectid":22328786,"permanent_identifier":"0af4d325-f48a-4dd4-951b-5996b51368f5","real_world_relation":"REFERENCE_ONLY","shape_Length":81.98406457337012,"source_datadesc":"2016 April MAFTIGER","source_datasetid":"{A3E33D4D-068F-4458-BA25-28472D2DD1C2}","source_featureid":"1103017794554","source_id":"REF-HAZELWOOD-CONNECTING-ROADS","source_originator":"U.S. Department of Commerce, U.S. Census Bureau, Geography Division","state_route":"837","state_route_a":"837","state_route_b":null,"state_route_c":null,"stco_fipscode":"42003","tnmfrc":3,"us_route":null,"us_route_a":null,"us_route_b":null,"us_route_c":null},"type":"Feature"},{"geometry":{"coordinates":[[-79.945994,40.414614],[-79.945978,40.414583],[-79.945901,40.414434],[-79.945706,40.414057],[-79.945672,40.413988],[-79.945598,40.413839]],"type":"LineString"},"id":"REF-HAZELWOOD-CONNECTING-ROADS-34","properties":{"canon_status":"REAL_REFERENCE","county_route":null,"federal_lands_route":null,"fictionality":"REAL","globalid":"{3B322E1E-7F96-4A51-B0E6-E6A63D1D304A}","interstate":null,"interstate_a":null,"interstate_b":null,"interstate_c":null,"loaddate":1563078002000,"mtfcc_code":"S1200","name":"Irvine St","objectid":24635313,"permanent_identifier":"9c466dd8-3b40-46d1-89a6-b66848d820b6","real_world_relation":"REFERENCE_ONLY","shape_Length":121.58674901352278,"source_datadesc":"2016 April MAFTIGER","source_datasetid":"{A3E33D4D-068F-4458-BA25-28472D2DD1C2}","source_featureid":"110428559652","source_id":"REF-HAZELWOOD-CONNECTING-ROADS","source_originator":"U.S. Department of Commerce, U.S. Census Bureau, Geography Division","state_route":"885","state_route_a":"885","state_route_b":null,"state_route_c":null,"stco_fipscode":"42003","tnmfrc":3,"us_route":null,"us_route_a":null,"us_route_b":null,"us_route_c":null},"type":"Feature"},{"geometry":{"coordinates":[[-79.946733,40.416026],[-79.946582,40.415737],[-79.946129,40.414871],[-79.945994,40.414614]],"type":"LineString"},"id":"REF-HAZELWOOD-CONNECTING-ROADS-35","properties":{"canon_status":"REAL_REFERENCE","county_route":null,"federal_lands_route":null,"fictionality":"REAL","globalid":"{4B0556C9-0784-4C68-97AE-078A42EFBFA0}","interstate":null,"interstate_a":null,"interstate_b":null,"interstate_c":null,"loaddate":1563078002000,"mtfcc_code":"S1200","name":"Irvine St","objectid":24763490,"permanent_identifier":"855ba5f4-4e0f-42af-8db6-ee1ff5e671a1","real_world_relation":"REFERENCE_ONLY","shape_Length":222.23590243289408,"source_datadesc":"2016 April MAFTIGER","source_datasetid":"{A3E33D4D-068F-4458-BA25-28472D2DD1C2}","source_featureid":"110428559652","source_id":"REF-HAZELWOOD-CONNECTING-ROADS","source_originator":"U.S. Department of Commerce, U.S. Census Bureau, Geography Division","state_route":"885","state_route_a":"885","state_route_b":null,"state_route_c":null,"stco_fipscode":"42003","tnmfrc":3,"us_route":null,"us_route_a":null,"us_route_b":null,"us_route_c":null},"type":"Feature"},{"geometry":{"coordinates":[[-79.943275,40.407099],[-79.943226,40.406924],[-79.943218,40.406896],[-79.943046,40.406287],[-79.942989,40.406085]],"type":"LineString"},"id":"REF-HAZELWOOD-CONNECTING-ROADS-36","properties":{"canon_status":"REAL_REFERENCE","county_route":null,"federal_lands_route":null,"fictionality":"REAL","globalid":"{801EF1DF-6397-46B5-B189-9286D1FFC526}","interstate":null,"interstate_a":null,"interstate_b":null,"interstate_c":null,"loaddate":1563078002000,"mtfcc_code":"S1200","name":"2nd Ave","objectid":25276347,"permanent_identifier":"11886e56-f806-4240-bc34-5696ad93c74b","real_world_relation":"REFERENCE_ONLY","shape_Length":151.61857452448726,"source_datadesc":"2016 April MAFTIGER","source_datasetid":"{A3E33D4D-068F-4458-BA25-28472D2DD1C2}","source_featureid":"1104486364562","source_id":"REF-HAZELWOOD-CONNECTING-ROADS","source_originator":"U.S. Department of Commerce, U.S. Census Bureau, Geography Division","state_route":"885","state_route_a":"885","state_route_b":null,"state_route_c":null,"stco_fipscode":"42003","tnmfrc":3,"us_route":null,"us_route_a":null,"us_route_b":null,"us_route_c":null},"type":"Feature"},{"geometry":{"coordinates":[[-79.963931,40.425019],[-79.963535,40.424763],[-79.962786,40.424281]],"type":"LineString"},"id":"REF-HAZELWOOD-CONNECTING-ROADS-37","properties":{"canon_status":"REAL_REFERENCE","county_route":null,"federal_lands_route":null,"fictionality":"REAL","globalid":"{038E714F-5559-4EC2-95F2-68F27A954E33}","interstate":null,"interstate_a":null,"interstate_b":null,"interstate_c":null,"loaddate":1563078002000,"mtfcc_code":"S1200","name":"E Carson St","objectid":25789141,"permanent_identifier":"eb1ee723-cb56-44e9-91cf-04e153869378","real_world_relation":"REFERENCE_ONLY","shape_Length":167.01093061543224,"source_datadesc":"2016 April MAFTIGER","source_datasetid":"{A3E33D4D-068F-4458-BA25-28472D2DD1C2}","source_featureid":"1103017794554","source_id":"REF-HAZELWOOD-CONNECTING-ROADS","source_originator":"U.S. Department of Commerce, U.S. Census Bureau, Geography Division","state_route":"837","state_route_a":"837","state_route_b":null,"state_route_c":null,"stco_fipscode":"42003","tnmfrc":3,"us_route":null,"us_route_a":null,"us_route_b":null,"us_route_c":null},"type":"Feature"},{"geometry":{"coordinates":[[-79.941946,40.402918],[-79.941824,40.402749]],"type":"LineString"},"id":"REF-HAZELWOOD-CONNECTING-ROADS-38","properties":{"canon_status":"REAL_REFERENCE","county_route":null,"federal_lands_route":null,"fictionality":"REAL","globalid":"{FFFACEA8-B95C-48D6-9624-1ACC5C86AB3D}","interstate":null,"interstate_a":null,"interstate_b":null,"interstate_c":null,"loaddate":1563078002000,"mtfcc_code":"S1200","name":"2nd Ave","objectid":26045404,"permanent_identifier":"d0a75066-f6cb-409c-9c56-98c3c16ad204","real_world_relation":"REFERENCE_ONLY","shape_Length":28.191853182569087,"source_datadesc":"2016 April MAFTIGER","source_datasetid":"{A3E33D4D-068F-4458-BA25-28472D2DD1C2}","source_featureid":"1104486364562","source_id":"REF-HAZELWOOD-CONNECTING-ROADS","source_originator":"U.S. Department of Commerce, U.S. Census Bureau, Geography Division","state_route":"885","state_route_a":"885","state_route_b":null,"state_route_c":null,"stco_fipscode":"42003","tnmfrc":3,"us_route":null,"us_route_a":null,"us_route_b":null,"us_route_c":null},"type":"Feature"},{"geometry":{"coordinates":[[-79.952952,40.42488],[-79.952927,40.424881],[-79.952852,40.424883],[-79.952828,40.424885],[-79.95272,40.424889],[-79.952398,40.424901],[-79.952291,40.424906],[-79.95224,40.424907],[-79.952088,40.424913],[-79.952039,40.424925]],"type":"LineString"},"id":"REF-HAZELWOOD-CONNECTING-ROADS-39","properties":{"canon_status":"REAL_REFERENCE","county_route":null,"federal_lands_route":null,"fictionality":"REAL","globalid":"{112D87EA-BDDE-4C9D-A6DA-E2264A26DC05}","interstate":null,"interstate_a":null,"interstate_b":null,"interstate_c":null,"loaddate":1563078002000,"mtfcc_code":"S1200","name":"Greenfield Ave","objectid":27326039,"permanent_identifier":"a5f2776b-a07f-4d25-980f-e53c09228726","real_world_relation":"REFERENCE_ONLY","shape_Length":102.03909117617188,"source_datadesc":"2016 April MAFTIGER","source_datasetid":"{A3E33D4D-068F-4458-BA25-28472D2DD1C2}","source_featureid":"110428604946","source_id":"REF-HAZELWOOD-CONNECTING-ROADS","source_originator":"U.S. Department of Commerce, U.S. Census Bureau, Geography Division","state_route":"885","state_route_a":"885","state_route_b":null,"state_route_c":null,"stco_fipscode":"42003","tnmfrc":3,"us_route":null,"us_route_a":null,"us_route_b":null,"us_route_c":null},"type":"Feature"},{"geometry":{"coordinates":[[-79.943683,40.408579],[-79.943642,40.408438],[-79.943522,40.408016],[-79.943482,40.407876]],"type":"LineString"},"id":"REF-HAZELWOOD-CONNECTING-ROADS-40","properties":{"canon_status":"REAL_REFERENCE","county_route":null,"federal_lands_route":null,"fictionality":"REAL","globalid":"{91C58F8B-0759-45FD-AC5D-EF2D07FE3969}","interstate":null,"interstate_a":null,"interstate_b":null,"interstate_c":null,"loaddate":1563078002000,"mtfcc_code":"S1200","name":"2nd Ave","objectid":27839884,"permanent_identifier":"c80deac9-5579-4154-ada5-b26e4f7f653f","real_world_relation":"REFERENCE_ONLY","shape_Length":105.1827315603407,"source_datadesc":"2016 April MAFTIGER","source_datasetid":"{A3E33D4D-068F-4458-BA25-28472D2DD1C2}","source_featureid":"1104486364562","source_id":"REF-HAZELWOOD-CONNECTING-ROADS","source_originator":"U.S. Department of Commerce, U.S. Census Bureau, Geography Division","state_route":"885","state_route_a":"885","state_route_b":null,"state_route_c":null,"stco_fipscode":"42003","tnmfrc":3,"us_route":null,"us_route_a":null,"us_route_b":null,"us_route_c":null},"type":"Feature"},{"geometry":{"coordinates":[[-79.97117,40.428219],[-79.970897,40.428144],[-79.970638,40.428074],[-79.970156,40.427943],[-79.97008,40.427922],[-79.969809,40.427847]],"type":"LineString"},"id":"REF-HAZELWOOD-CONNECTING-ROADS-41","properties":{"canon_status":"REAL_REFERENCE","county_route":null,"federal_lands_route":null,"fictionality":"REAL","globalid":"{C13FC4FD-FED9-4250-B9B2-55F76A343883}","interstate":null,"interstate_a":null,"interstate_b":null,"interstate_c":null,"loaddate":1563078002000,"mtfcc_code":"S1200","name":"E Carson St","objectid":28096462,"permanent_identifier":"08b1ecae-0c43-440e-ae1f-07508fc743fb","real_world_relation":"REFERENCE_ONLY","shape_Length":160.97722894219515,"source_datadesc":"2016 April MAFTIGER","source_datasetid":"{A3E33D4D-068F-4458-BA25-28472D2DD1C2}","source_featureid":"1103017794554","source_id":"REF-HAZELWOOD-CONNECTING-ROADS","source_originator":"U.S. Department of Commerce, U.S. Census Bureau, Geography Division","state_route":"837","state_route_a":"837","state_route_b":null,"state_route_c":null,"stco_fipscode":"42003","tnmfrc":3,"us_route":null,"us_route_a":null,"us_route_b":null,"us_route_c":null},"type":"Feature"},{"geometry":{"coordinates":[[-79.942354,40.403846],[-79.942345,40.40382],[-79.942321,40.403745],[-79.942313,40.40372]],"type":"LineString"},"id":"REF-HAZELWOOD-CONNECTING-ROADS-42","properties":{"canon_status":"REAL_REFERENCE","county_route":null,"federal_lands_route":null,"fictionality":"REAL","globalid":"{12ACEE69-6643-43FF-9D1F-DDF5F8928F76}","interstate":null,"interstate_a":null,"interstate_b":null,"interstate_c":null,"loaddate":1563078002000,"mtfcc_code":"S1200","name":"2nd Ave","objectid":28482067,"permanent_identifier":"251da215-4b33-4ad2-96ba-000f6a10b44f","real_world_relation":"REFERENCE_ONLY","shape_Length":18.97688797880111,"source_datadesc":"2016 April MAFTIGER","source_datasetid":"{A3E33D4D-068F-4458-BA25-28472D2DD1C2}","source_featureid":"1104486364562","source_id":"REF-HAZELWOOD-CONNECTING-ROADS","source_originator":"U.S. Department of Commerce, U.S. Census Bureau, Geography Division","state_route":"885","state_route_a":"885","state_route_b":null,"state_route_c":null,"stco_fipscode":"42003","tnmfrc":3,"us_route":null,"us_route_a":null,"us_route_b":null,"us_route_c":null},"type":"Feature"},{"geometry":{"coordinates":[[-79.945089,40.412493],[-79.945073,40.412387],[-79.94507,40.412299],[-79.945063,40.412207]],"type":"LineString"},"id":"REF-HAZELWOOD-CONNECTING-ROADS-43","properties":{"canon_status":"REAL_REFERENCE","county_route":null,"federal_lands_route":null,"fictionality":"REAL","globalid":"{935C2DD9-2A12-494C-B279-5C247888825D}","interstate":null,"interstate_a":null,"interstate_b":null,"interstate_c":null,"loaddate":1563078002000,"mtfcc_code":"S1200","name":"Irvine St","objectid":28482125,"permanent_identifier":"14685a69-d510-4842-9756-afecea1b06f1","real_world_relation":"REFERENCE_ONLY","shape_Length":41.94329734246969,"source_datadesc":"2016 April MAFTIGER","source_datasetid":"{A3E33D4D-068F-4458-BA25-28472D2DD1C2}","source_featureid":"110428559652","source_id":"REF-HAZELWOOD-CONNECTING-ROADS","source_originator":"U.S. Department of Commerce, U.S. Census Bureau, Geography Division","state_route":"885","state_route_a":"885","state_route_b":null,"state_route_c":null,"stco_fipscode":"42003","tnmfrc":3,"us_route":null,"us_route_a":null,"us_route_b":null,"us_route_c":null},"type":"Feature"},{"geometry":{"coordinates":[[-79.935052,40.394997],[-79.935246,40.396508],[-79.9353,40.396929],[-79.935517,40.398608],[-79.935621,40.39936]],"type":"LineString"},"id":"REF-HAZELWOOD-CONNECTING-ROADS-44","properties":{"canon_status":"REAL_REFERENCE","county_route":null,"federal_lands_route":null,"fictionality":"REAL","globalid":"{21D349B9-A382-446D-8FB2-3B2EB89E4365}","interstate":null,"interstate_a":null,"interstate_b":null,"interstate_c":null,"loaddate":1563078002000,"mtfcc_code":"S1200","name":"Glenwood Brg","objectid":29510719,"permanent_identifier":"973776b4-1ab3-4690-b172-5086d1c96691","real_world_relation":"REFERENCE_ONLY","shape_Length":640.8844707307862,"source_datadesc":"2016 April MAFTIGER","source_datasetid":"{A3E33D4D-068F-4458-BA25-28472D2DD1C2}","source_featureid":"1104486317943","source_id":"REF-HAZELWOOD-CONNECTING-ROADS","source_originator":"U.S. Department of Commerce, U.S. Census Bureau, Geography Division","state_route":"885","state_route_a":"885","state_route_b":null,"state_route_c":null,"stco_fipscode":"42003","tnmfrc":3,"us_route":null,"us_route_a":null,"us_route_b":null,"us_route_c":null},"type":"Feature"},{"geometry":{"coordinates":[[-79.965744,40.426247],[-79.965487,40.426073],[-79.964719,40.425551],[-79.964531,40.425424]],"type":"LineString"},"id":"REF-HAZELWOOD-CONNECTING-ROADS-45","properties":{"canon_status":"REAL_REFERENCE","county_route":null,"federal_lands_route":null,"fictionality":"REAL","globalid":"{BFFE781D-3870-487E-8244-5FA97D48EF25}","interstate":null,"interstate_a":null,"interstate_b":null,"interstate_c":null,"loaddate":1563078002000,"mtfcc_code":"S1200","name":"E Carson St","objectid":30926259,"permanent_identifier":"bd167c6a-e547-477b-a125-6936d76fb9fa","real_world_relation":"REFERENCE_ONLY","shape_Length":180.87960903054375,"source_datadesc":"2016 April MAFTIGER","source_datasetid":"{A3E33D4D-068F-4458-BA25-28472D2DD1C2}","source_featureid":"1103017794554","source_id":"REF-HAZELWOOD-CONNECTING-ROADS","source_originator":"U.S. Department of Commerce, U.S. Census Bureau, Geography Division","state_route":"837","state_route_a":"837","state_route_b":null,"state_route_c":null,"stco_fipscode":"42003","tnmfrc":3,"us_route":null,"us_route_a":null,"us_route_b":null,"us_route_c":null},"type":"Feature"},{"geometry":{"coordinates":[[-79.945063,40.412207],[-79.945041,40.411972],[-79.945005,40.411837],[-79.944726,40.411321]],"type":"LineString"},"id":"REF-HAZELWOOD-CONNECTING-ROADS-46","properties":{"canon_status":"REAL_REFERENCE","county_route":null,"federal_lands_route":null,"fictionality":"REAL","globalid":"{B410020C-DBCB-4D9C-9055-4AB5C06B3878}","interstate":null,"interstate_a":null,"interstate_b":null,"interstate_c":null,"loaddate":1563078002000,"mtfcc_code":"S1200","name":"Irvine St","objectid":31440482,"permanent_identifier":"77da5579-0a49-45d5-96b9-434c44413327","real_world_relation":"REFERENCE_ONLY","shape_Length":136.16859474201496,"source_datadesc":"2016 April MAFTIGER","source_datasetid":"{A3E33D4D-068F-4458-BA25-28472D2DD1C2}","source_featureid":"110428559650","source_id":"REF-HAZELWOOD-CONNECTING-ROADS","source_originator":"U.S. Department of Commerce, U.S. Census Bureau, Geography Division","state_route":"885","state_route_a":"885","state_route_b":null,"state_route_c":null,"stco_fipscode":"42003","tnmfrc":3,"us_route":null,"us_route_a":null,"us_route_b":null,"us_route_c":null},"type":"Feature"},{"geometry":{"coordinates":[[-79.939415,40.401016],[-79.939349,40.400978],[-79.939152,40.400864],[-79.939087,40.400826]],"type":"LineString"},"id":"REF-HAZELWOOD-CONNECTING-ROADS-47","properties":{"canon_status":"REAL_REFERENCE","county_route":null,"federal_lands_route":null,"fictionality":"REAL","globalid":"{340B19F9-E489-4C7F-BD21-31EAFA74AF16}","interstate":null,"interstate_a":null,"interstate_b":null,"interstate_c":null,"loaddate":1563078002000,"mtfcc_code":"S1200","name":"2nd Ave","objectid":32472269,"permanent_identifier":"de073574-8b12-46d8-b5e8-75ad90057c8f","real_world_relation":"REFERENCE_ONLY","shape_Length":45.875830000995514,"source_datadesc":"2016 April MAFTIGER","source_datasetid":"{A3E33D4D-068F-4458-BA25-28472D2DD1C2}","source_featureid":"1104486364562","source_id":"REF-HAZELWOOD-CONNECTING-ROADS","source_originator":"U.S. Department of Commerce, U.S. Census Bureau, Geography Division","state_route":"885","state_route_a":"885","state_route_b":null,"state_route_c":null,"stco_fipscode":"42003","tnmfrc":3,"us_route":null,"us_route_a":null,"us_route_b":null,"us_route_c":null},"type":"Feature"}],"type":"FeatureCollection"}
