{"features":[{"geometry":{"coordinates":[[-121.477357,38.595912],[-121.476819,38.596267],[-121.476666,38.596365],[-121.476516,38.596461],[-121.476202,38.596663],[-121.475677,38.597]],"type":"LineString"},"id":"REF-SACRAMENTO-CONNECTING-ROADS-1","properties":{"canon_status":"REAL_REFERENCE","county_route":null,"federal_lands_route":null,"fictionality":"REAL","globalid":"{9C557B45-0E82-402A-9BDF-B35E91950A36}","interstate":null,"interstate_a":null,"interstate_b":null,"interstate_c":null,"loaddate":1748519528000,"mtfcc_code":"S1200","name":"Sacramento Regional Light Rail","objectid":98026,"permanent_identifier":"73c811b6-2815-4d03-bf71-aec272482d6a","real_world_relation":"REFERENCE_ONLY","shape_Length":242.91597363508149,"source_datadesc":"2021 February MAF/TIGER","source_datasetid":"{7AD8F908-E576-4667-ABBE-3F904F423D64}","source_featureid":"110874213010","source_id":"REF-SACRAMENTO-CONNECTING-ROADS","source_originator":"U.S. Department of Commerce, U.S. Census Bureau, Geography Division","state_route":"160","state_route_a":"160","state_route_b":null,"state_route_c":null,"stco_fipscode":"06067","tnmfrc":3,"us_route":null,"us_route_a":null,"us_route_b":null,"us_route_c":null},"type":"Feature"},{"geometry":{"coordinates":[[-121.488436,38.585074],[-121.488672,38.584529]],"type":"LineString"},"id":"REF-SACRAMENTO-CONNECTING-ROADS-2","properties":{"canon_status":"REAL_REFERENCE","county_route":null,"federal_lands_route":null,"fictionality":"REAL","globalid":"{B5EDA3BD-F9DA-4293-AC37-A92349F050E6}","interstate":null,"interstate_a":null,"interstate_b":null,"interstate_c":null,"loaddate":1748519528000,"mtfcc_code":"S1200","name":"12th St","objectid":98464,"permanent_identifier":"e45c7447-ec43-49e6-b13c-1e8bc1e25bab","real_world_relation":"REFERENCE_ONLY","shape_Length":81.93897285400656,"source_datadesc":"2016 October MAFTIGER","source_datasetid":"{7AD8F908-E576-4667-ABBE-3F904F423D64}","source_featureid":"110873853142","source_id":"REF-SACRAMENTO-CONNECTING-ROADS","source_originator":"U.S. Department of Commerce, U.S. Census Bureau, Geography Division","state_route":"160","state_route_a":"160","state_route_b":null,"state_route_c":null,"stco_fipscode":"06067","tnmfrc":3,"us_route":null,"us_route_a":null,"us_route_b":null,"us_route_c":null},"type":"Feature"},{"geometry":{"coordinates":[[-121.489864,38.58179],[-121.490102,38.58124]],"type":"LineString"},"id":"REF-SACRAMENTO-CONNECTING-ROADS-3","properties":{"canon_status":"REAL_REFERENCE","county_route":null,"federal_lands_route":null,"fictionality":"REAL","globalid":"{71302F82-4E8F-4988-973F-5BF719E77C47}","interstate":null,"interstate_a":null,"interstate_b":null,"interstate_c":null,"loaddate":1748519528000,"mtfcc_code":"S1200","name":"12th St","objectid":607509,"permanent_identifier":"d0125bc6-6148-4c10-a495-5206ae91cbc1","real_world_relation":"REFERENCE_ONLY","shape_Length":82.68134651860007,"source_datadesc":"2021 February MAF/TIGER","source_datasetid":"{7AD8F908-E576-4667-ABBE-3F904F423D64}","source_featureid":"110873853146","source_id":"REF-SACRAMENTO-CONNECTING-ROADS","source_originator":"U.S. Department of Commerce, U.S. Census Bureau, Geography Division","state_route":"160","state_route_a":"160","state_route_b":null,"state_route_c":null,"stco_fipscode":"06067","tnmfrc":3,"us_route":null,"us_route_a":null,"us_route_b":null,"us_route_c":null},"type":"Feature"},{"geometry":{"coordinates":[[-121.482381,38.584676],[-121.482618,38.584133]],"type":"LineString"},"id":"REF-SACRAMENTO-CONNECTING-ROADS-4","properties":{"canon_status":"REAL_REFERENCE","county_route":null,"federal_lands_route":null,"fictionality":"REAL","globalid":"{521A1104-8F91-4B24-92E4-C20E23AEC234}","interstate":null,"interstate_a":null,"interstate_b":null,"interstate_c":null,"loaddate":1533980579000,"mtfcc_code":"S1200","name":"16th St","objectid":1115764,"permanent_identifier":"ea534879-0ae0-421b-899a-4e48904a1947","real_world_relation":"REFERENCE_ONLY","shape_Length":81.70468930317064,"source_datadesc":"2016 October MAFTIGER","source_datasetid":"{155E1578-FAD5-4709-A194-6F828C31A01F}","source_featureid":"110873856661","source_id":"REF-SACRAMENTO-CONNECTING-ROADS","source_originator":"U.S. Department of Commerce, U.S. Census Bureau, Geography Division","state_route":"160","state_route_a":"160","state_route_b":null,"state_route_c":null,"stco_fipscode":"06067","tnmfrc":3,"us_route":null,"us_route_a":null,"us_route_b":null,"us_route_c":null},"type":"Feature"},{"geometry":{"coordinates":[[-121.478251,38.59408],[-121.478212,38.594168]],"type":"LineString"},"id":"REF-SACRAMENTO-CONNECTING-ROADS-5","properties":{"canon_status":"REAL_REFERENCE","county_route":null,"federal_lands_route":null,"fictionality":"REAL","globalid":"{DB1B5AB7-CEDF-4338-B703-A0C4B0F0CFDE}","interstate":null,"interstate_a":null,"interstate_b":null,"interstate_c":null,"loaddate":1533980581000,"mtfcc_code":"S1200","name":"Sacramento Regional Light Rail","objectid":2387720,"permanent_identifier":"8b1d3496-674e-4d72-a2df-744cedc475ea","real_world_relation":"REFERENCE_ONLY","shape_Length":13.264228250423766,"source_datadesc":"2016 October MAFTIGER","source_datasetid":"{155E1578-FAD5-4709-A194-6F828C31A01F}","source_featureid":"110874213009","source_id":"REF-SACRAMENTO-CONNECTING-ROADS","source_originator":"U.S. Department of Commerce, U.S. Census Bureau, Geography Division","state_route":"160","state_route_a":"160","state_route_b":null,"state_route_c":null,"stco_fipscode":"06067","tnmfrc":3,"us_route":null,"us_route_a":null,"us_route_b":null,"us_route_c":null},"type":"Feature"},{"geometry":{"coordinates":[[-121.487723,38.586714],[-121.48796,38.586164]],"type":"LineString"},"id":"REF-SACRAMENTO-CONNECTING-ROADS-6","properties":{"canon_status":"REAL_REFERENCE","county_route":null,"federal_lands_route":null,"fictionality":"REAL","globalid":"{7F1695BA-F444-4418-AA33-A0D20E262B95}","interstate":null,"interstate_a":null,"interstate_b":null,"interstate_c":null,"loaddate":1533980548000,"mtfcc_code":"S1200","name":"12th St","objectid":3407006,"permanent_identifier":"a87fa45f-19fd-4904-9f35-7475e45e2ae7","real_world_relation":"REFERENCE_ONLY","shape_Length":82.65086683285564,"source_datadesc":"2016 October MAFTIGER","source_datasetid":"{155E1578-FAD5-4709-A194-6F828C31A01F}","source_featureid":"110873853142","source_id":"REF-SACRAMENTO-CONNECTING-ROADS","source_originator":"U.S. Department of Commerce, U.S. Census Bureau, Geography Division","state_route":"160","state_route_a":"160","state_route_b":null,"state_route_c":null,"stco_fipscode":"06067","tnmfrc":3,"us_route":null,"us_route_a":null,"us_route_b":null,"us_route_c":null},"type":"Feature"},{"geometry":{"coordinates":[[-121.483091,38.58304],[-121.483329,38.582489]],"type":"LineString"},"id":"REF-SACRAMENTO-CONNECTING-ROADS-7","properties":{"canon_status":"REAL_REFERENCE","county_route":null,"federal_lands_route":null,"fictionality":"REAL","globalid":"{05C18D94-34DF-4A25-BE3B-F93857D0CEA0}","interstate":null,"interstate_a":null,"interstate_b":null,"interstate_c":null,"loaddate":1533980579000,"mtfcc_code":"S1200","name":"16th St","objectid":3660972,"permanent_identifier":"6aef018f-87b6-42ed-b415-733cdf5fe6cc","real_world_relation":"REFERENCE_ONLY","shape_Length":82.81767157948599,"source_datadesc":"2016 October MAFTIGER","source_datasetid":"{155E1578-FAD5-4709-A194-6F828C31A01F}","source_featureid":"110873856661","source_id":"REF-SACRAMENTO-CONNECTING-ROADS","source_originator":"U.S. Department of Commerce, U.S. Census Bureau, Geography Division","state_route":"160","state_route_a":"160","state_route_b":null,"state_route_c":null,"stco_fipscode":"06067","tnmfrc":3,"us_route":null,"us_route_a":null,"us_route_b":null,"us_route_c":null},"type":"Feature"},{"geometry":{"coordinates":[[-121.490812,38.579608],[-121.490758,38.579594],[-121.489223,38.579185]],"type":"LineString"},"id":"REF-SACRAMENTO-CONNECTING-ROADS-8","properties":{"canon_status":"REAL_REFERENCE","county_route":null,"federal_lands_route":null,"fictionality":"REAL","globalid":"{9D23A44E-DE3E-4F11-AF69-A077F1EABBFE}","interstate":null,"interstate_a":null,"interstate_b":null,"interstate_c":null,"loaddate":1748519528000,"mtfcc_code":"S1200","name":"J St","objectid":4552638,"permanent_identifier":"e27966bd-08f8-4d17-be20-5f911b0b278a","real_world_relation":"REFERENCE_ONLY","shape_Length":186.861419042189,"source_datadesc":"2021 February MAF/TIGER","source_datasetid":"{7AD8F908-E576-4667-ABBE-3F904F423D64}","source_featureid":"110873834491","source_id":"REF-SACRAMENTO-CONNECTING-ROADS","source_originator":"U.S. Department of Commerce, U.S. Census Bureau, Geography Division","state_route":"160","state_route_a":"160","state_route_b":null,"state_route_c":null,"stco_fipscode":"06067","tnmfrc":3,"us_route":null,"us_route_a":null,"us_route_b":null,"us_route_c":null},"type":"Feature"},{"geometry":{"coordinates":[[-121.486559,38.589412],[-121.486854,38.58872],[-121.486869,38.588684],[-121.486893,38.588628],[-121.486942,38.588513],[-121.486958,38.588476],[-121.486972,38.588442],[-121.486994,38.588392],[-121.487009,38.588355],[-121.487249,38.587801],[-121.487484,38.587261]],"type":"LineString"},"id":"REF-SACRAMENTO-CONNECTING-ROADS-9","properties":{"canon_status":"REAL_REFERENCE","county_route":null,"federal_lands_route":null,"fictionality":"REAL","globalid":"{AD2CAF60-A148-46E1-A445-D47C320D59E0}","interstate":null,"interstate_a":null,"interstate_b":null,"interstate_c":null,"loaddate":1533980548000,"mtfcc_code":"S1200","name":"12th St","objectid":5703647,"permanent_identifier":"e5bb1570-1b75-45ca-ae0f-8b547f169313","real_world_relation":"REFERENCE_ONLY","shape_Length":323.18385113012744,"source_datadesc":"2016 October MAFTIGER","source_datasetid":"{155E1578-FAD5-4709-A194-6F828C31A01F}","source_featureid":"110873853142","source_id":"REF-SACRAMENTO-CONNECTING-ROADS","source_originator":"U.S. Department of Commerce, U.S. Census Bureau, Geography Division","state_route":"160","state_route_a":"160","state_route_b":null,"state_route_c":null,"stco_fipscode":"06067","tnmfrc":3,"us_route":null,"us_route_a":null,"us_route_b":null,"us_route_c":null},"type":"Feature"},{"geometry":{"coordinates":[[-121.479142,38.592075],[-121.478251,38.59408]],"type":"LineString"},"id":"REF-SACRAMENTO-CONNECTING-ROADS-10","properties":{"canon_status":"REAL_REFERENCE","county_route":null,"federal_lands_route":null,"fictionality":"REAL","globalid":"{50CA4517-AFD2-4609-95E3-30C23F38A2D6}","interstate":null,"interstate_a":null,"interstate_b":null,"interstate_c":null,"loaddate":1533980585000,"mtfcc_code":"S1200","name":"N 16th St","objectid":5830576,"permanent_identifier":"38c46667-3099-4192-8993-2c83643a7580","real_world_relation":"REFERENCE_ONLY","shape_Length":302.2988607026062,"source_datadesc":"2016 October MAFTIGER","source_datasetid":"{155E1578-FAD5-4709-A194-6F828C31A01F}","source_featureid":"110873857191","source_id":"REF-SACRAMENTO-CONNECTING-ROADS","source_originator":"U.S. Department of Commerce, U.S. Census Bureau, Geography Division","state_route":"160","state_route_a":"160","state_route_b":null,"state_route_c":null,"stco_fipscode":"06067","tnmfrc":3,"us_route":null,"us_route_a":null,"us_route_b":null,"us_route_c":null},"type":"Feature"},{"geometry":{"coordinates":[[-121.488197,38.585624],[-121.488436,38.585074]],"type":"LineString"},"id":"REF-SACRAMENTO-CONNECTING-ROADS-11","properties":{"canon_status":"REAL_REFERENCE","county_route":null,"federal_lands_route":null,"fictionality":"REAL","globalid":"{D9909F51-2C08-4EA6-B0C2-3D7B1BAA2A36}","interstate":null,"interstate_a":null,"interstate_b":null,"interstate_c":null,"loaddate":1533980548000,"mtfcc_code":"S1200","name":"12th St","objectid":6852218,"permanent_identifier":"956be146-b953-4a5f-85a9-1704928a97c7","real_world_relation":"REFERENCE_ONLY","shape_Length":82.72108712499319,"source_datadesc":"2016 October MAFTIGER","source_datasetid":"{155E1578-FAD5-4709-A194-6F828C31A01F}","source_featureid":"110873853142","source_id":"REF-SACRAMENTO-CONNECTING-ROADS","source_originator":"U.S. Department of Commerce, U.S. Census Bureau, Geography Division","state_route":"160","state_route_a":"160","state_route_b":null,"state_route_c":null,"stco_fipscode":"06067","tnmfrc":3,"us_route":null,"us_route_a":null,"us_route_b":null,"us_route_c":null},"type":"Feature"},{"geometry":{"coordinates":[[-121.480949,38.587953],[-121.481394,38.58695],[-121.481418,38.586894],[-121.481433,38.58686],[-121.481906,38.585775]],"type":"LineString"},"id":"REF-SACRAMENTO-CONNECTING-ROADS-12","properties":{"canon_status":"REAL_REFERENCE","county_route":null,"federal_lands_route":null,"fictionality":"REAL","globalid":"{8FC4DCE4-3DE3-41AA-8664-9EA44064AFF4}","interstate":null,"interstate_a":null,"interstate_b":null,"interstate_c":null,"loaddate":1533980579000,"mtfcc_code":"S1200","name":"16th St","objectid":6979493,"permanent_identifier":"d14dd963-094e-4025-9974-5b9a04df34f9","real_world_relation":"REFERENCE_ONLY","shape_Length":327.96316751198776,"source_datadesc":"2016 October MAFTIGER","source_datasetid":"{155E1578-FAD5-4709-A194-6F828C31A01F}","source_featureid":"110873856661","source_id":"REF-SACRAMENTO-CONNECTING-ROADS","source_originator":"U.S. Department of Commerce, U.S. Census Bureau, Geography Division","state_route":"160","state_route_a":"160","state_route_b":null,"state_route_c":null,"stco_fipscode":"06067","tnmfrc":3,"us_route":null,"us_route_a":null,"us_route_b":null,"us_route_c":null},"type":"Feature"},{"geometry":{"coordinates":[[-121.490574,38.580157],[-121.490812,38.579608]],"type":"LineString"},"id":"REF-SACRAMENTO-CONNECTING-ROADS-13","properties":{"canon_status":"REAL_REFERENCE","county_route":null,"federal_lands_route":null,"fictionality":"REAL","globalid":"{75DFF736-123E-43D0-AF75-6AD955801C32}","interstate":null,"interstate_a":null,"interstate_b":null,"interstate_c":null,"loaddate":1748519528000,"mtfcc_code":"S1200","name":"12th St","objectid":7234021,"permanent_identifier":"9f7821dd-b6ea-4354-8701-d5c9bd97b2c9","real_world_relation":"REFERENCE_ONLY","shape_Length":82.54485775237083,"source_datadesc":"2021 February MAF/TIGER","source_datasetid":"{7AD8F908-E576-4667-ABBE-3F904F423D64}","source_featureid":"110873853146","source_id":"REF-SACRAMENTO-CONNECTING-ROADS","source_originator":"U.S. Department of Commerce, U.S. Census Bureau, Geography Division","state_route":"160","state_route_a":"160","state_route_b":null,"state_route_c":null,"stco_fipscode":"06067","tnmfrc":3,"us_route":null,"us_route_a":null,"us_route_b":null,"us_route_c":null},"type":"Feature"},{"geometry":{"coordinates":[[-121.490341,38.580694],[-121.490574,38.580157]],"type":"LineString"},"id":"REF-SACRAMENTO-CONNECTING-ROADS-14","properties":{"canon_status":"REAL_REFERENCE","county_route":null,"federal_lands_route":null,"fictionality":"REAL","globalid":"{4395388C-1B18-4977-A093-55E1E43FE44B}","interstate":null,"interstate_a":null,"interstate_b":null,"interstate_c":null,"loaddate":1748519528000,"mtfcc_code":"S1200","name":"12th St","objectid":8000958,"permanent_identifier":"991ff595-d4f5-4ef2-88b4-4b712d554af1","real_world_relation":"REFERENCE_ONLY","shape_Length":80.74839045791084,"source_datadesc":"2021 February MAF/TIGER","source_datasetid":"{7AD8F908-E576-4667-ABBE-3F904F423D64}","source_featureid":"110873853146","source_id":"REF-SACRAMENTO-CONNECTING-ROADS","source_originator":"U.S. Department of Commerce, U.S. Census Bureau, Geography Division","state_route":"160","state_route_a":"160","state_route_b":null,"state_route_c":null,"stco_fipscode":"06067","tnmfrc":3,"us_route":null,"us_route_a":null,"us_route_b":null,"us_route_c":null},"type":"Feature"},{"geometry":{"coordinates":[[-121.478212,38.594168],[-121.478006,38.594569],[-121.477942,38.594662],[-121.477744,38.594949],[-121.47743,38.595304],[-121.477067,38.595629],[-121.476527,38.596051],[-121.476416,38.596126],[-121.476297,38.596205],[-121.476041,38.596375],[-121.475988,38.596411]],"type":"LineString"},"id":"REF-SACRAMENTO-CONNECTING-ROADS-15","properties":{"canon_status":"REAL_REFERENCE","county_route":null,"federal_lands_route":null,"fictionality":"REAL","globalid":"{FCDD0C4F-C377-4985-B9BA-1BD93B437A84}","interstate":null,"interstate_a":null,"interstate_b":null,"interstate_c":null,"loaddate":1748519528000,"mtfcc_code":"S1200","name":"Sacramento Regional Light Rail","objectid":8383757,"permanent_identifier":"8ec45166-89e1-474f-8929-3415ba2486ab","real_world_relation":"REFERENCE_ONLY","shape_Length":409.90905548734924,"source_datadesc":"2021 February MAF/TIGER","source_datasetid":"{7AD8F908-E576-4667-ABBE-3F904F423D64}","source_featureid":"110874213009","source_id":"REF-SACRAMENTO-CONNECTING-ROADS","source_originator":"U.S. Department of Commerce, U.S. Census Bureau, Geography Division","state_route":"160","state_route_a":"160","state_route_b":null,"state_route_c":null,"stco_fipscode":"06067","tnmfrc":3,"us_route":null,"us_route_a":null,"us_route_b":null,"us_route_c":null},"type":"Feature"},{"geometry":{"coordinates":[[-121.47919,38.591961],[-121.479142,38.592075]],"type":"LineString"},"id":"REF-SACRAMENTO-CONNECTING-ROADS-16","properties":{"canon_status":"REAL_REFERENCE","county_route":null,"federal_lands_route":null,"fictionality":"REAL","globalid":"{4FB45F8F-62D3-477D-84DA-4A9ACB1AECA0}","interstate":null,"interstate_a":null,"interstate_b":null,"interstate_c":null,"loaddate":1533980585000,"mtfcc_code":"S1200","name":"N 16th St","objectid":8638261,"permanent_identifier":"c01da584-bef4-422c-8795-b6c8077a4a28","real_world_relation":"REFERENCE_ONLY","shape_Length":17.092931069527992,"source_datadesc":"2016 October MAFTIGER","source_datasetid":"{155E1578-FAD5-4709-A194-6F828C31A01F}","source_featureid":"110873857191","source_id":"REF-SACRAMENTO-CONNECTING-ROADS","source_originator":"U.S. Department of Commerce, U.S. Census Bureau, Geography Division","state_route":"160","state_route_a":"160","state_route_b":null,"state_route_c":null,"stco_fipscode":"06067","tnmfrc":3,"us_route":null,"us_route_a":null,"us_route_b":null,"us_route_c":null},"type":"Feature"},{"geometry":{"coordinates":[[-121.478459,38.594358],[-121.478407,38.594409]],"type":"LineString"},"id":"REF-SACRAMENTO-CONNECTING-ROADS-17","properties":{"canon_status":"REAL_REFERENCE","county_route":null,"federal_lands_route":null,"fictionality":"REAL","globalid":"{A27000DE-9615-48C0-AA70-4BFE5D35440A}","interstate":null,"interstate_a":null,"interstate_b":null,"interstate_c":null,"loaddate":1533980528000,"mtfcc_code":"S1200","name":"Sacramento Regional Light Rail","objectid":9021972,"permanent_identifier":"086be6ba-9bd6-48c3-baba-ab17b9acfe68","real_world_relation":"REFERENCE_ONLY","shape_Length":9.288279341204362,"source_datadesc":"2016 October MAFTIGER","source_datasetid":"{155E1578-FAD5-4709-A194-6F828C31A01F}","source_featureid":"110874213010","source_id":"REF-SACRAMENTO-CONNECTING-ROADS","source_originator":"U.S. Department of Commerce, U.S. Census Bureau, Geography Division","state_route":"160","state_route_a":"160","state_route_b":null,"state_route_c":null,"stco_fipscode":"06067","tnmfrc":3,"us_route":null,"us_route_a":null,"us_route_b":null,"us_route_c":null},"type":"Feature"},{"geometry":{"coordinates":[[-121.48796,38.586164],[-121.488197,38.585624]],"type":"LineString"},"id":"REF-SACRAMENTO-CONNECTING-ROADS-18","properties":{"canon_status":"REAL_REFERENCE","county_route":null,"federal_lands_route":null,"fictionality":"REAL","globalid":"{7251A655-9668-4889-8707-BFE3B905E108}","interstate":null,"interstate_a":null,"interstate_b":null,"interstate_c":null,"loaddate":1533980548000,"mtfcc_code":"S1200","name":"12th St","objectid":9532346,"permanent_identifier":"04159afd-15b6-43cd-a6d0-473fbfcd7c6b","real_world_relation":"REFERENCE_ONLY","shape_Length":81.30197171414193,"source_datadesc":"2016 October MAFTIGER","source_datasetid":"{155E1578-FAD5-4709-A194-6F828C31A01F}","source_featureid":"110873853142","source_id":"REF-SACRAMENTO-CONNECTING-ROADS","source_originator":"U.S. Department of Commerce, U.S. Census Bureau, Geography Division","state_route":"160","state_route_a":"160","state_route_b":null,"state_route_c":null,"stco_fipscode":"06067","tnmfrc":3,"us_route":null,"us_route_a":null,"us_route_b":null,"us_route_c":null},"type":"Feature"},{"geometry":{"coordinates":[[-121.484039,38.580852],[-121.484277,38.5803]],"type":"LineString"},"id":"REF-SACRAMENTO-CONNECTING-ROADS-19","properties":{"canon_status":"REAL_REFERENCE","county_route":null,"federal_lands_route":null,"fictionality":"REAL","globalid":"{69B0AAD7-FD61-4B91-B4A2-9FA0B44390F8}","interstate":null,"interstate_a":null,"interstate_b":null,"interstate_c":null,"loaddate":1533980579000,"mtfcc_code":"S1200","name":"16th St","objectid":10554255,"permanent_identifier":"d1db8a1b-b1f8-4e1f-9772-88c51d5e8e33","real_world_relation":"REFERENCE_ONLY","shape_Length":82.950358436486,"source_datadesc":"2016 October MAFTIGER","source_datasetid":"{155E1578-FAD5-4709-A194-6F828C31A01F}","source_featureid":"110873856661","source_id":"REF-SACRAMENTO-CONNECTING-ROADS","source_originator":"U.S. Department of Commerce, U.S. Census Bureau, Geography Division","state_route":"160","state_route_a":"160","state_route_b":null,"state_route_c":null,"stco_fipscode":"06067","tnmfrc":3,"us_route":null,"us_route_a":null,"us_route_b":null,"us_route_c":null},"type":"Feature"},{"geometry":{"coordinates":[[-121.479823,38.590503],[-121.479717,38.590726],[-121.479548,38.591121]],"type":"LineString"},"id":"REF-SACRAMENTO-CONNECTING-ROADS-20","properties":{"canon_status":"REAL_REFERENCE","county_route":null,"federal_lands_route":null,"fictionality":"REAL","globalid":"{5E0A5638-CCEA-497A-911E-5943A0D10E76}","interstate":null,"interstate_a":null,"interstate_b":null,"interstate_c":null,"loaddate":1533980585000,"mtfcc_code":"S1200","name":"N 16th St","objectid":12724985,"permanent_identifier":"d2e374df-218f-4a50-ab07-fd5a689e9c03","real_world_relation":"REFERENCE_ONLY","shape_Length":93.19988743448556,"source_datadesc":"2016 October MAFTIGER","source_datasetid":"{155E1578-FAD5-4709-A194-6F828C31A01F}","source_featureid":"110873857191","source_id":"REF-SACRAMENTO-CONNECTING-ROADS","source_originator":"U.S. Department of Commerce, U.S. Census Bureau, Geography Division","state_route":"160","state_route_a":"160","state_route_b":null,"state_route_c":null,"stco_fipscode":"06067","tnmfrc":3,"us_route":null,"us_route_a":null,"us_route_b":null,"us_route_c":null},"type":"Feature"},{"geometry":{"coordinates":[[-121.484518,38.579751],[-121.484754,38.579204]],"type":"LineString"},"id":"REF-SACRAMENTO-CONNECTING-ROADS-21","properties":{"canon_status":"REAL_REFERENCE","county_route":null,"federal_lands_route":null,"fictionality":"REAL","globalid":"{4601A88A-6A64-4C40-B9C5-8112572700FF}","interstate":null,"interstate_a":null,"interstate_b":null,"interstate_c":null,"loaddate":1533980579000,"mtfcc_code":"S1200","name":"16th St","objectid":12853057,"permanent_identifier":"3e650503-1744-4afd-b485-dab6fdcd1dbe","real_world_relation":"REFERENCE_ONLY","shape_Length":82.20329238443202,"source_datadesc":"2016 October MAFTIGER","source_datasetid":"{155E1578-FAD5-4709-A194-6F828C31A01F}","source_featureid":"110873856661","source_id":"REF-SACRAMENTO-CONNECTING-ROADS","source_originator":"U.S. Department of Commerce, U.S. Census Bureau, Geography Division","state_route":"160","state_route_a":"160","state_route_b":null,"state_route_c":null,"stco_fipscode":"06067","tnmfrc":3,"us_route":null,"us_route_a":null,"us_route_b":null,"us_route_c":null},"type":"Feature"},{"geometry":{"coordinates":[[-121.489389,38.582881],[-121.489624,38.582342]],"type":"LineString"},"id":"REF-SACRAMENTO-CONNECTING-ROADS-22","properties":{"canon_status":"REAL_REFERENCE","county_route":null,"federal_lands_route":null,"fictionality":"REAL","globalid":"{1308D724-7773-4A55-9720-7E93DB0C853E}","interstate":null,"interstate_a":null,"interstate_b":null,"interstate_c":null,"loaddate":1748519528000,"mtfcc_code":"S1200","name":"12th St","objectid":14768004,"permanent_identifier":"26346c99-8642-4206-9791-c48b83fed2c2","real_world_relation":"REFERENCE_ONLY","shape_Length":81.09189708313123,"source_datadesc":"2021 February MAF/TIGER","source_datasetid":"{7AD8F908-E576-4667-ABBE-3F904F423D64}","source_featureid":"110873853146","source_id":"REF-SACRAMENTO-CONNECTING-ROADS","source_originator":"U.S. Department of Commerce, U.S. Census Bureau, Geography Division","state_route":"160","state_route_a":"160","state_route_b":null,"state_route_c":null,"stco_fipscode":"06067","tnmfrc":3,"us_route":null,"us_route_a":null,"us_route_b":null,"us_route_c":null},"type":"Feature"},{"geometry":{"coordinates":[[-121.483329,38.582489],[-121.483569,38.581934]],"type":"LineString"},"id":"REF-SACRAMENTO-CONNECTING-ROADS-23","properties":{"canon_status":"REAL_REFERENCE","county_route":null,"federal_lands_route":null,"fictionality":"REAL","globalid":"{41CD6724-EFE4-488C-870D-5E1B32A0068B}","interstate":null,"interstate_a":null,"interstate_b":null,"interstate_c":null,"loaddate":1533980579000,"mtfcc_code":"S1200","name":"16th St","objectid":15406906,"permanent_identifier":"b73fbe52-7f11-4f69-9d98-717817391aa7","real_world_relation":"REFERENCE_ONLY","shape_Length":83.42792363754145,"source_datadesc":"2016 October MAFTIGER","source_datasetid":"{155E1578-FAD5-4709-A194-6F828C31A01F}","source_featureid":"110873856661","source_id":"REF-SACRAMENTO-CONNECTING-ROADS","source_originator":"U.S. Department of Commerce, U.S. Census Bureau, Geography Division","state_route":"160","state_route_a":"160","state_route_b":null,"state_route_c":null,"stco_fipscode":"06067","tnmfrc":3,"us_route":null,"us_route_a":null,"us_route_b":null,"us_route_c":null},"type":"Feature"},{"geometry":{"coordinates":[[-121.482856,38.583583],[-121.483091,38.58304]],"type":"LineString"},"id":"REF-SACRAMENTO-CONNECTING-ROADS-24","properties":{"canon_status":"REAL_REFERENCE","county_route":null,"federal_lands_route":null,"fictionality":"REAL","globalid":"{28D046D4-1299-4532-A387-DC4D24DC170C}","interstate":null,"interstate_a":null,"interstate_b":null,"interstate_c":null,"loaddate":1533980579000,"mtfcc_code":"S1200","name":"16th St","objectid":15407033,"permanent_identifier":"01a91dfd-2378-4453-8459-28a987548195","real_world_relation":"REFERENCE_ONLY","shape_Length":81.63191388852651,"source_datadesc":"2016 October MAFTIGER","source_datasetid":"{155E1578-FAD5-4709-A194-6F828C31A01F}","source_featureid":"110873856661","source_id":"REF-SACRAMENTO-CONNECTING-ROADS","source_originator":"U.S. Department of Commerce, U.S. Census Bureau, Geography Division","state_route":"160","state_route_a":"160","state_route_b":null,"state_route_c":null,"stco_fipscode":"06067","tnmfrc":3,"us_route":null,"us_route_a":null,"us_route_b":null,"us_route_c":null},"type":"Feature"},{"geometry":{"coordinates":[[-121.478407,38.594409],[-121.478222,38.594709],[-121.478154,38.59482],[-121.47794,38.595238],[-121.477787,38.595483],[-121.477591,38.59571],[-121.477357,38.595912]],"type":"LineString"},"id":"REF-SACRAMENTO-CONNECTING-ROADS-25","properties":{"canon_status":"REAL_REFERENCE","county_route":null,"federal_lands_route":null,"fictionality":"REAL","globalid":"{493F1994-363B-44A1-968D-56DCE03806A0}","interstate":null,"interstate_a":null,"interstate_b":null,"interstate_c":null,"loaddate":1533980548000,"mtfcc_code":"S1200","name":"Sacramento Regional Light Rail","objectid":16811888,"permanent_identifier":"7cf63e0d-0718-4685-aace-f4d5c73921e3","real_world_relation":"REFERENCE_ONLY","shape_Length":245.73242487393026,"source_datadesc":"2016 October MAFTIGER","source_datasetid":"{155E1578-FAD5-4709-A194-6F828C31A01F}","source_featureid":"110874213010","source_id":"REF-SACRAMENTO-CONNECTING-ROADS","source_originator":"U.S. Department of Commerce, U.S. Census Bureau, Geography Division","state_route":"160","state_route_a":"160","state_route_b":null,"state_route_c":null,"stco_fipscode":"06067","tnmfrc":3,"us_route":null,"us_route_a":null,"us_route_b":null,"us_route_c":null},"type":"Feature"},{"geometry":{"coordinates":[[-121.483569,38.581934],[-121.483804,38.581393]],"type":"LineString"},"id":"REF-SACRAMENTO-CONNECTING-ROADS-26","properties":{"canon_status":"REAL_REFERENCE","county_route":null,"federal_lands_route":null,"fictionality":"REAL","globalid":"{08CD53F0-D297-491C-9FDA-ACB3C31CB48B}","interstate":null,"interstate_a":null,"interstate_b":null,"interstate_c":null,"loaddate":1533980579000,"mtfcc_code":"S1200","name":"16th St","objectid":16939660,"permanent_identifier":"8b8608b0-b2b4-4bbd-9ae6-612c9ed328b5","real_world_relation":"REFERENCE_ONLY","shape_Length":81.36057550919459,"source_datadesc":"2016 October MAFTIGER","source_datasetid":"{155E1578-FAD5-4709-A194-6F828C31A01F}","source_featureid":"110873856661","source_id":"REF-SACRAMENTO-CONNECTING-ROADS","source_originator":"U.S. Department of Commerce, U.S. Census Bureau, Geography Division","state_route":"160","state_route_a":"160","state_route_b":null,"state_route_c":null,"stco_fipscode":"06067","tnmfrc":3,"us_route":null,"us_route_a":null,"us_route_b":null,"us_route_c":null},"type":"Feature"},{"geometry":{"coordinates":[[-121.480479,38.589046],[-121.480216,38.589655]],"type":"LineString"},"id":"REF-SACRAMENTO-CONNECTING-ROADS-27","properties":{"canon_status":"REAL_REFERENCE","county_route":null,"federal_lands_route":null,"fictionality":"REAL","globalid":"{2745F00E-9B56-44A7-92CF-49BF5CFAE472}","interstate":null,"interstate_a":null,"interstate_b":null,"interstate_c":null,"loaddate":1533980585000,"mtfcc_code":"S1200","name":"N 16th St","objectid":17067269,"permanent_identifier":"219a6540-4342-445d-976e-43b10c7ad6b9","real_world_relation":"REFERENCE_ONLY","shape_Length":91.54091255572152,"source_datadesc":"2016 October MAFTIGER","source_datasetid":"{155E1578-FAD5-4709-A194-6F828C31A01F}","source_featureid":"110873857191","source_id":"REF-SACRAMENTO-CONNECTING-ROADS","source_originator":"U.S. Department of Commerce, U.S. Census Bureau, Geography Division","state_route":"160","state_route_a":"160","state_route_b":null,"state_route_c":null,"stco_fipscode":"06067","tnmfrc":3,"us_route":null,"us_route_a":null,"us_route_b":null,"us_route_c":null},"type":"Feature"},{"geometry":{"coordinates":[[-121.480949,38.587953],[-121.480768,38.588374],[-121.480479,38.589046]],"type":"LineString"},"id":"REF-SACRAMENTO-CONNECTING-ROADS-28","properties":{"canon_status":"REAL_REFERENCE","county_route":null,"federal_lands_route":null,"fictionality":"REAL","globalid":"{D27780D4-20E4-4DB1-B79B-E738673ADE63}","interstate":null,"interstate_a":null,"interstate_b":null,"interstate_c":null,"loaddate":1533980585000,"mtfcc_code":"S1200","name":"N 16th St","objectid":17195747,"permanent_identifier":"aee51730-1526-4681-9017-aa31e10f07df","real_world_relation":"REFERENCE_ONLY","shape_Length":164.2191739519415,"source_datadesc":"2016 October MAFTIGER","source_datasetid":"{155E1578-FAD5-4709-A194-6F828C31A01F}","source_featureid":"110873857191","source_id":"REF-SACRAMENTO-CONNECTING-ROADS","source_originator":"U.S. Department of Commerce, U.S. Census Bureau, Geography Division","state_route":"160","state_route_a":"160","state_route_b":null,"state_route_c":null,"stco_fipscode":"06067","tnmfrc":3,"us_route":null,"us_route_a":null,"us_route_b":null,"us_route_c":null},"type":"Feature"},{"geometry":{"coordinates":[[-121.488672,38.584529],[-121.488912,38.583976]],"type":"LineString"},"id":"REF-SACRAMENTO-CONNECTING-ROADS-29","properties":{"canon_status":"REAL_REFERENCE","county_route":null,"federal_lands_route":null,"fictionality":"REAL","globalid":"{1E0F25A2-9BD3-430F-876D-62DCE856F9A5}","interstate":null,"interstate_a":null,"interstate_b":null,"interstate_c":null,"loaddate":1748519528000,"mtfcc_code":"S1200","name":"12th St","objectid":17837097,"permanent_identifier":"2fbdd25e-cc8b-4c67-96a8-7c0edae797fc","real_world_relation":"REFERENCE_ONLY","shape_Length":83.16022317761663,"source_datadesc":"2016 October MAFTIGER","source_datasetid":"{7AD8F908-E576-4667-ABBE-3F904F423D64}","source_featureid":"110873853142","source_id":"REF-SACRAMENTO-CONNECTING-ROADS","source_originator":"U.S. Department of Commerce, U.S. Census Bureau, Geography Division","state_route":"160","state_route_a":"160","state_route_b":null,"state_route_c":null,"stco_fipscode":"06067","tnmfrc":3,"us_route":null,"us_route_a":null,"us_route_b":null,"us_route_c":null},"type":"Feature"},{"geometry":{"coordinates":[[-121.489223,38.579185],[-121.487895,38.578829]],"type":"LineString"},"id":"REF-SACRAMENTO-CONNECTING-ROADS-30","properties":{"canon_status":"REAL_REFERENCE","county_route":null,"federal_lands_route":null,"fictionality":"REAL","globalid":"{CBD30677-8CEA-47D4-B98A-6454C159222C}","interstate":null,"interstate_a":null,"interstate_b":null,"interstate_c":null,"loaddate":1748519528000,"mtfcc_code":"S1200","name":"J St","objectid":18734994,"permanent_identifier":"cdfe198c-e1e6-40cc-8b21-2d179a6172fc","real_world_relation":"REFERENCE_ONLY","shape_Length":156.28256506409647,"source_datadesc":"2021 February MAF/TIGER","source_datasetid":"{7AD8F908-E576-4667-ABBE-3F904F423D64}","source_featureid":"110873834491","source_id":"REF-SACRAMENTO-CONNECTING-ROADS","source_originator":"U.S. Department of Commerce, U.S. Census Bureau, Geography Division","state_route":"160","state_route_a":"160","state_route_b":null,"state_route_c":null,"stco_fipscode":"06067","tnmfrc":3,"us_route":null,"us_route_a":null,"us_route_b":null,"us_route_c":null},"type":"Feature"},{"geometry":{"coordinates":[[-121.489624,38.582342],[-121.489864,38.58179]],"type":"LineString"},"id":"REF-SACRAMENTO-CONNECTING-ROADS-31","properties":{"canon_status":"REAL_REFERENCE","county_route":null,"federal_lands_route":null,"fictionality":"REAL","globalid":"{3EDEC624-0C86-40F8-9C6C-61BD043D7802}","interstate":null,"interstate_a":null,"interstate_b":null,"interstate_c":null,"loaddate":1748519528000,"mtfcc_code":"S1200","name":"12th St","objectid":19376749,"permanent_identifier":"cd935187-0325-4252-a31a-f74dd1ccc058","real_world_relation":"REFERENCE_ONLY","shape_Length":83.02323909379352,"source_datadesc":"2021 February MAF/TIGER","source_datasetid":"{7AD8F908-E576-4667-ABBE-3F904F423D64}","source_featureid":"110873853146","source_id":"REF-SACRAMENTO-CONNECTING-ROADS","source_originator":"U.S. Department of Commerce, U.S. Census Bureau, Geography Division","state_route":"160","state_route_a":"160","state_route_b":null,"state_route_c":null,"stco_fipscode":"06067","tnmfrc":3,"us_route":null,"us_route_a":null,"us_route_b":null,"us_route_c":null},"type":"Feature"},{"geometry":{"coordinates":[[-121.483804,38.581393],[-121.484039,38.580852]],"type":"LineString"},"id":"REF-SACRAMENTO-CONNECTING-ROADS-32","properties":{"canon_status":"REAL_REFERENCE","county_route":null,"federal_lands_route":null,"fictionality":"REAL","globalid":"{B5F87E73-9540-4594-9BC1-AD490E2D7D17}","interstate":null,"interstate_a":null,"interstate_b":null,"interstate_c":null,"loaddate":1533980579000,"mtfcc_code":"S1200","name":"16th St","objectid":20145930,"permanent_identifier":"fd53d56e-e2bd-4032-a83a-783f2bedf0e3","real_world_relation":"REFERENCE_ONLY","shape_Length":81.35988053771891,"source_datadesc":"2016 October MAFTIGER","source_datasetid":"{155E1578-FAD5-4709-A194-6F828C31A01F}","source_featureid":"110873856661","source_id":"REF-SACRAMENTO-CONNECTING-ROADS","source_originator":"U.S. Department of Commerce, U.S. Census Bureau, Geography Division","state_route":"160","state_route_a":"160","state_route_b":null,"state_route_c":null,"stco_fipscode":"06067","tnmfrc":3,"us_route":null,"us_route_a":null,"us_route_b":null,"us_route_c":null},"type":"Feature"},{"geometry":{"coordinates":[[-121.480987,38.59284],[-121.480391,38.593075],[-121.480273,38.593117],[-121.480087,38.593207],[-121.47991,38.593307],[-121.479496,38.593579],[-121.479192,38.593769],[-121.478981,38.593919],[-121.478779,38.594077],[-121.478659,38.594179],[-121.478459,38.594358]],"type":"LineString"},"id":"REF-SACRAMENTO-CONNECTING-ROADS-33","properties":{"canon_status":"REAL_REFERENCE","county_route":null,"federal_lands_route":null,"fictionality":"REAL","globalid":"{227C87E7-2EE1-4396-947C-FC53E8726EAC}","interstate":null,"interstate_a":null,"interstate_b":null,"interstate_c":null,"loaddate":1533980578000,"mtfcc_code":"S1200","name":"N 12th St","objectid":20530446,"permanent_identifier":"e57c80a7-66e8-4a28-bc31-f3b94b2548d1","real_world_relation":"REFERENCE_ONLY","shape_Length":358.09210617148165,"source_datadesc":"2016 October MAFTIGER","source_datasetid":"{155E1578-FAD5-4709-A194-6F828C31A01F}","source_featureid":"110873853212","source_id":"REF-SACRAMENTO-CONNECTING-ROADS","source_originator":"U.S. Department of Commerce, U.S. Census Bureau, Geography Division","state_route":"160","state_route_a":"160","state_route_b":null,"state_route_c":null,"stco_fipscode":"06067","tnmfrc":3,"us_route":null,"us_route_a":null,"us_route_b":null,"us_route_c":null},"type":"Feature"},{"geometry":{"coordinates":[[-121.480216,38.589655],[-121.480006,38.590142]],"type":"LineString"},"id":"REF-SACRAMENTO-CONNECTING-ROADS-34","properties":{"canon_status":"REAL_REFERENCE","county_route":null,"federal_lands_route":null,"fictionality":"REAL","globalid":"{26C0C102-8C63-4F37-A682-3ADC2AFEE98F}","interstate":null,"interstate_a":null,"interstate_b":null,"interstate_c":null,"loaddate":1533980585000,"mtfcc_code":"S1200","name":"N 16th St","objectid":21298487,"permanent_identifier":"5a12534a-877c-4ef8-8b2b-3a2d12f99991","real_world_relation":"REFERENCE_ONLY","shape_Length":73.19205185919314,"source_datadesc":"2016 October MAFTIGER","source_datasetid":"{155E1578-FAD5-4709-A194-6F828C31A01F}","source_featureid":"110873857191","source_id":"REF-SACRAMENTO-CONNECTING-ROADS","source_originator":"U.S. Department of Commerce, U.S. Census Bureau, Geography Division","state_route":"160","state_route_a":"160","state_route_b":null,"state_route_c":null,"stco_fipscode":"06067","tnmfrc":3,"us_route":null,"us_route_a":null,"us_route_b":null,"us_route_c":null},"type":"Feature"},{"geometry":{"coordinates":[[-121.479548,38.591121],[-121.479503,38.591228]],"type":"LineString"},"id":"REF-SACRAMENTO-CONNECTING-ROADS-35","properties":{"canon_status":"REAL_REFERENCE","county_route":null,"federal_lands_route":null,"fictionality":"REAL","globalid":"{E20309A3-1FCE-4717-A7C0-90F3A7502EDD}","interstate":null,"interstate_a":null,"interstate_b":null,"interstate_c":null,"loaddate":1533980585000,"mtfcc_code":"S1200","name":"N 16th St","objectid":21811092,"permanent_identifier":"cce149cc-8b8d-4550-96e7-02b9bf1eee98","real_world_relation":"REFERENCE_ONLY","shape_Length":16.041424659122807,"source_datadesc":"2016 October MAFTIGER","source_datasetid":"{155E1578-FAD5-4709-A194-6F828C31A01F}","source_featureid":"110873857191","source_id":"REF-SACRAMENTO-CONNECTING-ROADS","source_originator":"U.S. Department of Commerce, U.S. Census Bureau, Geography Division","state_route":"160","state_route_a":"160","state_route_b":null,"state_route_c":null,"stco_fipscode":"06067","tnmfrc":3,"us_route":null,"us_route_a":null,"us_route_b":null,"us_route_c":null},"type":"Feature"},{"geometry":{"coordinates":[[-121.487484,38.587261],[-121.487723,38.586714]],"type":"LineString"},"id":"REF-SACRAMENTO-CONNECTING-ROADS-36","properties":{"canon_status":"REAL_REFERENCE","county_route":null,"federal_lands_route":null,"fictionality":"REAL","globalid":"{81A019C4-22F0-4F90-8E0D-3C92EFD61752}","interstate":null,"interstate_a":null,"interstate_b":null,"interstate_c":null,"loaddate":1533980548000,"mtfcc_code":"S1200","name":"12th St","objectid":22835460,"permanent_identifier":"15c82b7b-131a-44ea-b8c2-24f258a0fe9d","real_world_relation":"REFERENCE_ONLY","shape_Length":82.31840395057235,"source_datadesc":"2016 October MAFTIGER","source_datasetid":"{155E1578-FAD5-4709-A194-6F828C31A01F}","source_featureid":"110873853142","source_id":"REF-SACRAMENTO-CONNECTING-ROADS","source_originator":"U.S. Department of Commerce, U.S. Census Bureau, Geography Division","state_route":"160","state_route_a":"160","state_route_b":null,"state_route_c":null,"stco_fipscode":"06067","tnmfrc":3,"us_route":null,"us_route_a":null,"us_route_b":null,"us_route_c":null},"type":"Feature"},{"geometry":{"coordinates":[[-121.482618,38.584133],[-121.482856,38.583583]],"type":"LineString"},"id":"REF-SACRAMENTO-CONNECTING-ROADS-37","properties":{"canon_status":"REAL_REFERENCE","county_route":null,"federal_lands_route":null,"fictionality":"REAL","globalid":"{765F7F75-AF00-4506-A2BF-A940C243768A}","interstate":null,"interstate_a":null,"interstate_b":null,"interstate_c":null,"loaddate":1533980579000,"mtfcc_code":"S1200","name":"16th St","objectid":23476209,"permanent_identifier":"622d46fb-9e2e-4766-8723-b7d7743e0e23","real_world_relation":"REFERENCE_ONLY","shape_Length":82.68380943367943,"source_datadesc":"2016 October MAFTIGER","source_datasetid":"{155E1578-FAD5-4709-A194-6F828C31A01F}","source_featureid":"110873856661","source_id":"REF-SACRAMENTO-CONNECTING-ROADS","source_originator":"U.S. Department of Commerce, U.S. Census Bureau, Geography Division","state_route":"160","state_route_a":"160","state_route_b":null,"state_route_c":null,"stco_fipscode":"06067","tnmfrc":3,"us_route":null,"us_route_a":null,"us_route_b":null,"us_route_c":null},"type":"Feature"},{"geometry":{"coordinates":[[-121.479503,38.591228],[-121.479383,38.591508],[-121.47919,38.591961]],"type":"LineString"},"id":"REF-SACRAMENTO-CONNECTING-ROADS-38","properties":{"canon_status":"REAL_REFERENCE","county_route":null,"federal_lands_route":null,"fictionality":"REAL","globalid":"{0FA0075B-CE53-45F0-8087-719EF4BF874B}","interstate":null,"interstate_a":null,"interstate_b":null,"interstate_c":null,"loaddate":1533980585000,"mtfcc_code":"S1200","name":"N 16th St","objectid":24374040,"permanent_identifier":"4b335b7c-beb3-441e-84bf-6225398f0a01","real_world_relation":"REFERENCE_ONLY","shape_Length":110.0571145597758,"source_datadesc":"2016 October MAFTIGER","source_datasetid":"{155E1578-FAD5-4709-A194-6F828C31A01F}","source_featureid":"110873857191","source_id":"REF-SACRAMENTO-CONNECTING-ROADS","source_originator":"U.S. Department of Commerce, U.S. Census Bureau, Geography Division","state_route":"160","state_route_a":"160","state_route_b":null,"state_route_c":null,"stco_fipscode":"06067","tnmfrc":3,"us_route":null,"us_route_a":null,"us_route_b":null,"us_route_c":null},"type":"Feature"},{"geometry":{"coordinates":[[-121.489153,38.583426],[-121.489389,38.582881]],"type":"LineString"},"id":"REF-SACRAMENTO-CONNECTING-ROADS-39","properties":{"canon_status":"REAL_REFERENCE","county_route":null,"federal_lands_route":null,"fictionality":"REAL","globalid":"{13E85B25-7894-4919-8D50-DCA83C26BCED}","interstate":null,"interstate_a":null,"interstate_b":null,"interstate_c":null,"loaddate":1748519528000,"mtfcc_code":"S1200","name":"12th St","objectid":24501833,"permanent_identifier":"d99dd013-6533-4797-b65e-458d190eca7e","real_world_relation":"REFERENCE_ONLY","shape_Length":81.93726788211819,"source_datadesc":"2021 February MAF/TIGER","source_datasetid":"{7AD8F908-E576-4667-ABBE-3F904F423D64}","source_featureid":"110873853146","source_id":"REF-SACRAMENTO-CONNECTING-ROADS","source_originator":"U.S. Department of Commerce, U.S. Census Bureau, Geography Division","state_route":"160","state_route_a":"160","state_route_b":null,"state_route_c":null,"stco_fipscode":"06067","tnmfrc":3,"us_route":null,"us_route_a":null,"us_route_b":null,"us_route_c":null},"type":"Feature"},{"geometry":{"coordinates":[[-121.480006,38.590142],[-121.47993,38.590305],[-121.479823,38.590503]],"type":"LineString"},"id":"REF-SACRAMENTO-CONNECTING-ROADS-40","properties":{"canon_status":"REAL_REFERENCE","county_route":null,"federal_lands_route":null,"fictionality":"REAL","globalid":"{E1C45231-1D2B-4C0E-ADDB-6538D3A83EB5}","interstate":null,"interstate_a":null,"interstate_b":null,"interstate_c":null,"loaddate":1533980585000,"mtfcc_code":"S1200","name":"N 16th St","objectid":25271350,"permanent_identifier":"d998e719-ecfc-4d41-897d-ac023659ecfe","real_world_relation":"REFERENCE_ONLY","shape_Length":55.319806300301096,"source_datadesc":"2016 October MAFTIGER","source_datasetid":"{155E1578-FAD5-4709-A194-6F828C31A01F}","source_featureid":"110873857191","source_id":"REF-SACRAMENTO-CONNECTING-ROADS","source_originator":"U.S. Department of Commerce, U.S. Census Bureau, Geography Division","state_route":"160","state_route_a":"160","state_route_b":null,"state_route_c":null,"stco_fipscode":"06067","tnmfrc":3,"us_route":null,"us_route_a":null,"us_route_b":null,"us_route_c":null},"type":"Feature"},{"geometry":{"coordinates":[[-121.484277,38.5803],[-121.484518,38.579751]],"type":"LineString"},"id":"REF-SACRAMENTO-CONNECTING-ROADS-41","properties":{"canon_status":"REAL_REFERENCE","county_route":null,"federal_lands_route":null,"fictionality":"REAL","globalid":"{6F219C08-07C6-4EC1-A011-C8B3597FB311}","interstate":null,"interstate_a":null,"interstate_b":null,"interstate_c":null,"loaddate":1533980579000,"mtfcc_code":"S1200","name":"16th St","objectid":25528161,"permanent_identifier":"c088643a-c634-4eea-b016-b3220caeec0b","real_world_relation":"REFERENCE_ONLY","shape_Length":82.65275993681232,"source_datadesc":"2016 October MAFTIGER","source_datasetid":"{155E1578-FAD5-4709-A194-6F828C31A01F}","source_featureid":"110873856661","source_id":"REF-SACRAMENTO-CONNECTING-ROADS","source_originator":"U.S. Department of Commerce, U.S. Census Bureau, Geography Division","state_route":"160","state_route_a":"160","state_route_b":null,"state_route_c":null,"stco_fipscode":"06067","tnmfrc":3,"us_route":null,"us_route_a":null,"us_route_b":null,"us_route_c":null},"type":"Feature"},{"geometry":{"coordinates":[[-121.481401,38.592675],[-121.481229,38.592749],[-121.481066,38.592805],[-121.480987,38.59284]],"type":"LineString"},"id":"REF-SACRAMENTO-CONNECTING-ROADS-42","properties":{"canon_status":"REAL_REFERENCE","county_route":null,"federal_lands_route":null,"fictionality":"REAL","globalid":"{E0D3F173-D6BE-425F-A01A-099C1E8A0008}","interstate":null,"interstate_a":null,"interstate_b":null,"interstate_c":null,"loaddate":1533980578000,"mtfcc_code":"S1200","name":"N 12th St","objectid":25912638,"permanent_identifier":"438ea47e-7cc2-445d-b872-4e61f84716d1","real_world_relation":"REFERENCE_ONLY","shape_Length":51.78541674373402,"source_datadesc":"2016 October MAFTIGER","source_datasetid":"{155E1578-FAD5-4709-A194-6F828C31A01F}","source_featureid":"110873853212","source_id":"REF-SACRAMENTO-CONNECTING-ROADS","source_originator":"U.S. Department of Commerce, U.S. Census Bureau, Geography Division","state_route":"160","state_route_a":"160","state_route_b":null,"state_route_c":null,"stco_fipscode":"06067","tnmfrc":3,"us_route":null,"us_route_a":null,"us_route_b":null,"us_route_c":null},"type":"Feature"},{"geometry":{"coordinates":[[-121.488912,38.583976],[-121.489153,38.583426]],"type":"LineString"},"id":"REF-SACRAMENTO-CONNECTING-ROADS-43","properties":{"canon_status":"REAL_REFERENCE","county_route":null,"federal_lands_route":null,"fictionality":"REAL","globalid":"{BBB18B99-0C59-4DD1-A58C-0694D984DD77}","interstate":null,"interstate_a":null,"interstate_b":null,"interstate_c":null,"loaddate":1748519528000,"mtfcc_code":"S1200","name":"12th St","objectid":28090800,"permanent_identifier":"d28cbd1f-0afa-435c-adb6-2505b122a2d3","real_world_relation":"REFERENCE_ONLY","shape_Length":82.79124688115162,"source_datadesc":"2021 February MAF/TIGER","source_datasetid":"{7AD8F908-E576-4667-ABBE-3F904F423D64}","source_featureid":"110873853146","source_id":"REF-SACRAMENTO-CONNECTING-ROADS","source_originator":"U.S. Department of Commerce, U.S. Census Bureau, Geography Division","state_route":"160","state_route_a":"160","state_route_b":null,"state_route_c":null,"stco_fipscode":"06067","tnmfrc":3,"us_route":null,"us_route_a":null,"us_route_b":null,"us_route_c":null},"type":"Feature"},{"geometry":{"coordinates":[[-121.490102,38.58124],[-121.490341,38.580694]],"type":"LineString"},"id":"REF-SACRAMENTO-CONNECTING-ROADS-44","properties":{"canon_status":"REAL_REFERENCE","county_route":null,"federal_lands_route":null,"fictionality":"REAL","globalid":"{3FE73D6D-F178-4197-BC51-F00054D50057}","interstate":null,"interstate_a":null,"interstate_b":null,"interstate_c":null,"loaddate":1748519528000,"mtfcc_code":"S1200","name":"12th St","objectid":28992142,"permanent_identifier":"b0bebcf9-9e64-47df-a0ba-5f4aaedafa3d","real_world_relation":"REFERENCE_ONLY","shape_Length":82.17741484992222,"source_datadesc":"2021 February MAF/TIGER","source_datasetid":"{7AD8F908-E576-4667-ABBE-3F904F423D64}","source_featureid":"110873853146","source_id":"REF-SACRAMENTO-CONNECTING-ROADS","source_originator":"U.S. Department of Commerce, U.S. Census Bureau, Geography Division","state_route":"160","state_route_a":"160","state_route_b":null,"state_route_c":null,"stco_fipscode":"06067","tnmfrc":3,"us_route":null,"us_route_a":null,"us_route_b":null,"us_route_c":null},"type":"Feature"},{"geometry":{"coordinates":[[-121.486559,38.589412],[-121.486249,38.590139],[-121.486195,38.590238],[-121.486131,38.590323],[-121.486055,38.5904],[-121.485962,38.590472],[-121.485901,38.590507]],"type":"LineString"},"id":"REF-SACRAMENTO-CONNECTING-ROADS-45","properties":{"canon_status":"REAL_REFERENCE","county_route":null,"federal_lands_route":null,"fictionality":"REAL","globalid":"{DA12F311-C550-48A7-BB1B-A343E855FE5E}","interstate":null,"interstate_a":null,"interstate_b":null,"interstate_c":null,"loaddate":1533980578000,"mtfcc_code":"S1200","name":"N 12th St","objectid":29377052,"permanent_identifier":"6628b6d1-010d-4d09-b628-bc6d60646ef2","real_world_relation":"REFERENCE_ONLY","shape_Length":175.35818788183343,"source_datadesc":"2016 October MAFTIGER","source_datasetid":"{155E1578-FAD5-4709-A194-6F828C31A01F}","source_featureid":"110873853212","source_id":"REF-SACRAMENTO-CONNECTING-ROADS","source_originator":"U.S. Department of Commerce, U.S. Census Bureau, Geography Division","state_route":"160","state_route_a":"160","state_route_b":null,"state_route_c":null,"stco_fipscode":"06067","tnmfrc":3,"us_route":null,"us_route_a":null,"us_route_b":null,"us_route_c":null},"type":"Feature"},{"geometry":{"coordinates":[[-121.482143,38.585227],[-121.482381,38.584676]],"type":"LineString"},"id":"REF-SACRAMENTO-CONNECTING-ROADS-46","properties":{"canon_status":"REAL_REFERENCE","county_route":null,"federal_lands_route":null,"fictionality":"REAL","globalid":"{22BBC111-6912-4D9A-86E6-C3F9C690A2FE}","interstate":null,"interstate_a":null,"interstate_b":null,"interstate_c":null,"loaddate":1533980579000,"mtfcc_code":"S1200","name":"16th St","objectid":29762512,"permanent_identifier":"abc358ac-e3cd-4e67-a9da-fc94f251868c","real_world_relation":"REFERENCE_ONLY","shape_Length":82.8198507164881,"source_datadesc":"2016 October MAFTIGER","source_datasetid":"{155E1578-FAD5-4709-A194-6F828C31A01F}","source_featureid":"110873856661","source_id":"REF-SACRAMENTO-CONNECTING-ROADS","source_originator":"U.S. Department of Commerce, U.S. Census Bureau, Geography Division","state_route":"160","state_route_a":"160","state_route_b":null,"state_route_c":null,"stco_fipscode":"06067","tnmfrc":3,"us_route":null,"us_route_a":null,"us_route_b":null,"us_route_c":null},"type":"Feature"},{"geometry":{"coordinates":[[-121.485901,38.590507],[-121.485836,38.590544],[-121.484292,38.591319]],"type":"LineString"},"id":"REF-SACRAMENTO-CONNECTING-ROADS-47","properties":{"canon_status":"REAL_REFERENCE","county_route":null,"federal_lands_route":null,"fictionality":"REAL","globalid":"{AED02367-8E94-4CC7-94C2-60D7750D875A}","interstate":null,"interstate_a":null,"interstate_b":null,"interstate_c":null,"loaddate":1533980578000,"mtfcc_code":"S1200","name":"N 12th St","objectid":31692601,"permanent_identifier":"bccd3b87-a7dc-47de-b810-69139f6a32aa","real_world_relation":"REFERENCE_ONLY","shape_Length":213.21783087293778,"source_datadesc":"2016 October MAFTIGER","source_datasetid":"{155E1578-FAD5-4709-A194-6F828C31A01F}","source_featureid":"110873853212","source_id":"REF-SACRAMENTO-CONNECTING-ROADS","source_originator":"U.S. Department of Commerce, U.S. Census Bureau, Geography Division","state_route":"160","state_route_a":"160","state_route_b":null,"state_route_c":null,"stco_fipscode":"06067","tnmfrc":3,"us_route":null,"us_route_a":null,"us_route_b":null,"us_route_c":null},"type":"Feature"},{"geometry":{"coordinates":[[-121.484754,38.579204],[-121.484988,38.578665]],"type":"LineString"},"id":"REF-SACRAMENTO-CONNECTING-ROADS-48","properties":{"canon_status":"REAL_REFERENCE","county_route":null,"federal_lands_route":null,"fictionality":"REAL","globalid":"{BC82A5E8-1284-4563-BAB4-6B8F2FA8E7BF}","interstate":null,"interstate_a":null,"interstate_b":null,"interstate_c":null,"loaddate":1533980579000,"mtfcc_code":"S1200","name":"16th St","objectid":32337341,"permanent_identifier":"62af0a64-881d-4244-be14-9b526499b343","real_world_relation":"REFERENCE_ONLY","shape_Length":81.05233512228098,"source_datadesc":"2016 October MAFTIGER","source_datasetid":"{155E1578-FAD5-4709-A194-6F828C31A01F}","source_featureid":"110873856661","source_id":"REF-SACRAMENTO-CONNECTING-ROADS","source_originator":"U.S. Department of Commerce, U.S. Census Bureau, Geography Division","state_route":"160","state_route_a":"160","state_route_b":null,"state_route_c":null,"stco_fipscode":"06067","tnmfrc":3,"us_route":null,"us_route_a":null,"us_route_b":null,"us_route_c":null},"type":"Feature"},{"geometry":{"coordinates":[[-121.481906,38.585775],[-121.482143,38.585227]],"type":"LineString"},"id":"REF-SACRAMENTO-CONNECTING-ROADS-49","properties":{"canon_status":"REAL_REFERENCE","county_route":null,"federal_lands_route":null,"fictionality":"REAL","globalid":"{893817F8-CDDD-4A91-A3E8-BE8EF7E8A446}","interstate":null,"interstate_a":null,"interstate_b":null,"interstate_c":null,"loaddate":1533980579000,"mtfcc_code":"S1200","name":"16th St","objectid":32466741,"permanent_identifier":"50f3016b-5aba-4889-9c9c-d01f360588bf","real_world_relation":"REFERENCE_ONLY","shape_Length":82.38006892610663,"source_datadesc":"2016 October MAFTIGER","source_datasetid":"{155E1578-FAD5-4709-A194-6F828C31A01F}","source_featureid":"110873856661","source_id":"REF-SACRAMENTO-CONNECTING-ROADS","source_originator":"U.S. Department of Commerce, U.S. Census Bureau, Geography Division","state_route":"160","state_route_a":"160","state_route_b":null,"state_route_c":null,"stco_fipscode":"06067","tnmfrc":3,"us_route":null,"us_route_a":null,"us_route_b":null,"us_route_c":null},"type":"Feature"},{"geometry":{"coordinates":[[-121.484292,38.591319],[-121.484215,38.591362],[-121.483249,38.591841],[-121.482259,38.592339],[-121.482157,38.592376]],"type":"LineString"},"id":"REF-SACRAMENTO-CONNECTING-ROADS-50","properties":{"canon_status":"REAL_REFERENCE","county_route":null,"federal_lands_route":null,"fictionality":"REAL","globalid":"{17DC1CF5-500A-4CFF-89DD-305E6FD61470}","interstate":null,"interstate_a":null,"interstate_b":null,"interstate_c":null,"loaddate":1748519528000,"mtfcc_code":"S1200","name":"N 12th St","objectid":37633326,"permanent_identifier":"f6315a61-4fdd-41d1-8196-57fbd1630be9","real_world_relation":"REFERENCE_ONLY","shape_Length":281.4589705743582,"source_datadesc":"2016 October MAFTIGER","source_datasetid":"{7AD8F908-E576-4667-ABBE-3F904F423D64}","source_featureid":"110873853212","source_id":"REF-SACRAMENTO-CONNECTING-ROADS","source_originator":"U.S. Department of Commerce, U.S. Census Bureau, Geography Division","state_route":"160","state_route_a":"160","state_route_b":null,"state_route_c":null,"stco_fipscode":"06067","tnmfrc":3,"us_route":null,"us_route_a":null,"us_route_b":null,"us_route_c":null},"type":"Feature"},{"geometry":{"coordinates":[[-121.482157,38.592376],[-121.481401,38.592675]],"type":"LineString"},"id":"REF-SACRAMENTO-CONNECTING-ROADS-51","properties":{"canon_status":"REAL_REFERENCE","county_route":null,"federal_lands_route":null,"fictionality":"REAL","globalid":"{3A67900A-8CC6-4174-85D3-3C97896F9F8C}","interstate":null,"interstate_a":null,"interstate_b":null,"interstate_c":null,"loaddate":1748519528000,"mtfcc_code":"S1200","name":"N 12th St","objectid":37633327,"permanent_identifier":"02b985a0-77da-4994-bf2d-9af5751cfc83","real_world_relation":"REFERENCE_ONLY","shape_Length":94.31852343313538,"source_datadesc":"2016 October MAFTIGER","source_datasetid":"{7AD8F908-E576-4667-ABBE-3F904F423D64}","source_featureid":"110873853212","source_id":"REF-SACRAMENTO-CONNECTING-ROADS","source_originator":"U.S. Department of Commerce, U.S. Census Bureau, Geography Division","state_route":"160","state_route_a":"160","state_route_b":null,"state_route_c":null,"stco_fipscode":"06067","tnmfrc":3,"us_route":null,"us_route_a":null,"us_route_b":null,"us_route_c":null},"type":"Feature"}],"type":"FeatureCollection"}
