{"features":[{"geometry":{"coordinates":[[-121.468584,38.619232],[-121.468703,38.618606],[-121.468517,38.618051],[-121.468426,38.617488],[-121.468242,38.616055],[-121.467964,38.614722],[-121.467638,38.613202],[-121.467541,38.612358],[-121.467463,38.611504],[-121.467635,38.609438],[-121.467863,38.608939],[-121.468591,38.607463],[-121.469124,38.606497],[-121.469696,38.606033],[-121.470571,38.605482],[-121.47167,38.604944],[-121.472917,38.604629],[-121.4748,38.604534],[-121.475559,38.604594],[-121.477416,38.60512],[-121.479114,38.605884],[-121.481377,38.606807],[-121.48238,38.607161],[-121.483834,38.607391],[-121.487643,38.607822],[-121.492454,38.608054],[-121.494145,38.607916],[-121.49906,38.607457],[-121.500014,38.607324]],"type":"LineString"},"id":"REF-SACRAMENTO-HYDRO-1","properties":{"OBJECTID":2516577,"Shape_Length":5483.311427001345,"canon_status":"REAL_REFERENCE","fcode":55800,"fdate":1331702286000,"fictionality":"REAL","flowdir":1,"ftype":558,"globalid":"{4DCD1D0D-4C7D-11E1-BCF4-0021280458E6}","gnis_id":"00234355","gnis_name":"Steelhead Creek","innetwork":1,"lengthkm":4.274,"mainpath":0,"permanent_identifier":"105943026","reachcode":"18020111000353","real_world_relation":"REFERENCE_ONLY","resolution":2,"source_id":"REF-SACRAMENTO-HYDRO","visibilityfilter":5000000,"wbarea_permanent_identifier":"120000132"},"type":"Feature"},{"geometry":{"coordinates":[[-121.470218,38.598692],[-121.468986,38.597281],[-121.467257,38.595809],[-121.464863,38.594585],[-121.462987,38.594179],[-121.462301,38.594168],[-121.461322,38.59424],[-121.45981,38.59469],[-121.457522,38.595514]],"type":"LineString"},"id":"REF-SACRAMENTO-HYDRO-2","properties":{"OBJECTID":2740903,"Shape_Length":1709.5975136961758,"canon_status":"REAL_REFERENCE","fcode":46003,"fdate":1331702290000,"fictionality":"REAL","flowdir":1,"ftype":460,"globalid":"{81BC61DF-4C91-11E1-BCF4-0021280458E6}","gnis_id":null,"gnis_name":null,"innetwork":1,"lengthkm":1.331,"mainpath":0,"permanent_identifier":"105942956","reachcode":"18020111000022","real_world_relation":"REFERENCE_ONLY","resolution":2,"source_id":"REF-SACRAMENTO-HYDRO","visibilityfilter":100000,"wbarea_permanent_identifier":null},"type":"Feature"},{"geometry":{"coordinates":[[-121.508474,38.596556],[-121.507826,38.593221],[-121.506505,38.589724],[-121.506257,38.58821],[-121.506542,38.585489],[-121.508206,38.580977],[-121.510061,38.577024],[-121.512038,38.574504],[-121.517053,38.57079],[-121.519642,38.568078],[-121.521099,38.566188],[-121.521129,38.564717],[-121.520397,38.563355]],"type":"LineString"},"id":"REF-SACRAMENTO-HYDRO-3","properties":{"OBJECTID":10019573,"Shape_Length":5279.946275623984,"canon_status":"REAL_REFERENCE","fcode":55800,"fdate":1597017600000,"fictionality":"REAL","flowdir":1,"ftype":558,"globalid":"{256A300B-4C98-11E1-BCF4-0021280458E6}","gnis_id":"01654949","gnis_name":"Sacramento River","innetwork":1,"lengthkm":4.14430191,"mainpath":0,"permanent_identifier":"113917249","reachcode":"18020163007543","real_world_relation":"REFERENCE_ONLY","resolution":2,"source_id":"REF-SACRAMENTO-HYDRO","visibilityfilter":5000000,"wbarea_permanent_identifier":"{6C0C554C-162C-4052-AB15-8A1B45EB6F9A}"},"type":"Feature"},{"geometry":{"coordinates":[[-121.500009,38.601901],[-121.503679,38.601],[-121.505458,38.600424],[-121.506551,38.599513],[-121.508199,38.597955],[-121.508474,38.596556]],"type":"LineString"},"id":"REF-SACRAMENTO-HYDRO-4","properties":{"OBJECTID":12720481,"Shape_Length":1309.9482018114497,"canon_status":"REAL_REFERENCE","fcode":55800,"fdate":1597017600000,"fictionality":"REAL","flowdir":1,"ftype":558,"globalid":"{B5D542CC-4C86-11E1-BCF4-0021280458E6}","gnis_id":"00254562","gnis_name":"American River","innetwork":1,"lengthkm":1.0215751100000001,"mainpath":0,"permanent_identifier":"105943540","reachcode":"18020111000385","real_world_relation":"REFERENCE_ONLY","resolution":2,"source_id":"REF-SACRAMENTO-HYDRO","visibilityfilter":5000000,"wbarea_permanent_identifier":"{6C0C554C-162C-4052-AB15-8A1B45EB6F9A}"},"type":"Feature"},{"geometry":{"coordinates":[[-121.515924,38.602696],[-121.51308,38.601745],[-121.511235,38.60027],[-121.509801,38.598562],[-121.509063,38.597518],[-121.508474,38.596556]],"type":"LineString"},"id":"REF-SACRAMENTO-HYDRO-5","properties":{"OBJECTID":13618085,"Shape_Length":1250.8243965943325,"canon_status":"REAL_REFERENCE","fcode":55800,"fdate":1597017600000,"fictionality":"REAL","flowdir":1,"ftype":558,"globalid":"{4CC9FC7E-4C84-11E1-BCF4-0021280458E6}","gnis_id":"01654949","gnis_name":"Sacramento River","innetwork":1,"lengthkm":0.97728015,"mainpath":0,"permanent_identifier":"113917245","reachcode":"18020161000695","real_world_relation":"REFERENCE_ONLY","resolution":2,"source_id":"REF-SACRAMENTO-HYDRO","visibilityfilter":5000000,"wbarea_permanent_identifier":"{6C0C554C-162C-4052-AB15-8A1B45EB6F9A}"},"type":"Feature"},{"geometry":{"coordinates":[[-121.450872,38.590323],[-121.453208,38.590471],[-121.455378,38.590587],[-121.460164,38.589076],[-121.465674,38.588449],[-121.469578,38.589957],[-121.473237,38.59257],[-121.476356,38.596109],[-121.478387,38.598409],[-121.480289,38.599832],[-121.48345,38.601389],[-121.486972,38.602252]],"type":"LineString"},"id":"REF-SACRAMENTO-HYDRO-6","properties":{"OBJECTID":19104785,"Shape_Length":4864.029744991411,"canon_status":"REAL_REFERENCE","fcode":55800,"fdate":1669593600000,"fictionality":"REAL","flowdir":1,"ftype":558,"globalid":"{B8DC48BC-4C88-11E1-BCF4-0021280458E6}","gnis_id":"00254562","gnis_name":"American River","innetwork":1,"lengthkm":3.78698988,"mainpath":0,"permanent_identifier":"105940960","reachcode":"18020111000384","real_world_relation":"REFERENCE_ONLY","resolution":2,"source_id":"REF-SACRAMENTO-HYDRO","visibilityfilter":5000000,"wbarea_permanent_identifier":"{6C0C554C-162C-4052-AB15-8A1B45EB6F9A}"},"type":"Feature"},{"geometry":{"coordinates":[[-121.500014,38.607324],[-121.501145,38.607218],[-121.502861,38.606952],[-121.505047,38.606462],[-121.507211,38.605837],[-121.508497,38.605125],[-121.509265,38.604636],[-121.509609,38.604525],[-121.510305,38.603959],[-121.511267,38.60353],[-121.512714,38.603337],[-121.513937,38.603295],[-121.514647,38.603124]],"type":"LineString"},"id":"REF-SACRAMENTO-HYDRO-7","properties":{"OBJECTID":22374240,"Shape_Length":1776.2646270312691,"canon_status":"REAL_REFERENCE","fcode":55800,"fdate":1538352000000,"fictionality":"REAL","flowdir":1,"ftype":558,"globalid":"{DF6139E0-4C73-11E1-BCF4-0021280458E6}","gnis_id":"00234355","gnis_name":"Steelhead Creek","innetwork":1,"lengthkm":1.3797313400000002,"mainpath":0,"permanent_identifier":"105943542","reachcode":"18020111000353","real_world_relation":"REFERENCE_ONLY","resolution":2,"source_id":"REF-SACRAMENTO-HYDRO","visibilityfilter":5000000,"wbarea_permanent_identifier":"120000132"},"type":"Feature"},{"geometry":{"coordinates":[[-121.486972,38.602252],[-121.487219,38.602312],[-121.490264,38.602352],[-121.495614,38.602304],[-121.500009,38.601901]],"type":"LineString"},"id":"REF-SACRAMENTO-HYDRO-8","properties":{"OBJECTID":26964852,"Shape_Length":1456.0037296816686,"canon_status":"REAL_REFERENCE","fcode":55800,"fdate":1669593600000,"fictionality":"REAL","flowdir":1,"ftype":558,"globalid":"{D29BD12E-4C7F-11E1-BCF4-0021280458E6}","gnis_id":"00254562","gnis_name":"American River","innetwork":1,"lengthkm":1.12849464,"mainpath":0,"permanent_identifier":"105943028","reachcode":"18020111000385","real_world_relation":"REFERENCE_ONLY","resolution":2,"source_id":"REF-SACRAMENTO-HYDRO","visibilityfilter":5000000,"wbarea_permanent_identifier":"{6C0C554C-162C-4052-AB15-8A1B45EB6F9A}"},"type":"Feature"}],"type":"FeatureCollection"}
