{"features":[{"geometry":{"coordinates":[[-121.502871,38.584151],[-121.502833,38.584367],[-121.50282,38.584474]],"type":"LineString"},"id":"REF-SACRAMENTO-HIGHWAYS-1","properties":{"canon_status":"REAL_REFERENCE","county_route":null,"federal_lands_route":null,"fictionality":"REAL","globalid":"{12BD5A53-186E-4674-A26F-8B05544D4F12}","interstate":"5","interstate_a":"5","interstate_b":null,"interstate_c":null,"loaddate":1533980412000,"mtfcc_code":"S1100","name":"I- 5","objectid":352356,"permanent_identifier":"e3cf583c-aabf-43f0-b6a3-ff75d744d2f9","real_world_relation":"REFERENCE_ONLY","shape_Length":46.35606929869781,"source_datadesc":"2016 October MAFTIGER","source_datasetid":"{155E1578-FAD5-4709-A194-6F828C31A01F}","source_featureid":"110873834135","source_id":"REF-SACRAMENTO-HIGHWAYS","source_originator":"U.S. Department of Commerce, U.S. Census Bureau, Geography Division","state_route":"16,99","state_route_a":"16,99","state_route_b":null,"state_route_c":null,"stco_fipscode":"06067","tnmfrc":1,"us_route":null,"us_route_a":null,"us_route_b":null,"us_route_c":null},"type":"Feature"},{"geometry":{"coordinates":[[-121.505215,38.601249],[-121.505958,38.60272],[-121.507097,38.604906],[-121.507281,38.605259]],"type":"LineString"},"id":"REF-SACRAMENTO-HIGHWAYS-2","properties":{"canon_status":"REAL_REFERENCE","county_route":null,"federal_lands_route":null,"fictionality":"REAL","globalid":"{C21600D9-0DB3-4B22-956E-AE28EE6B0E60}","interstate":"5","interstate_a":"5","interstate_b":null,"interstate_c":null,"loaddate":1533980412000,"mtfcc_code":"S1100","name":"I- 5","objectid":480229,"permanent_identifier":"4ca96e54-557b-4289-b17a-c83b36c53f61","real_world_relation":"REFERENCE_ONLY","shape_Length":615.7787059085772,"source_datadesc":"2016 October MAFTIGER","source_datasetid":"{155E1578-FAD5-4709-A194-6F828C31A01F}","source_featureid":"110873834135","source_id":"REF-SACRAMENTO-HIGHWAYS","source_originator":"U.S. Department of Commerce, U.S. Census Bureau, Geography Division","state_route":"16,99","state_route_a":"16,99","state_route_b":null,"state_route_c":null,"stco_fipscode":"06067","tnmfrc":1,"us_route":null,"us_route_a":null,"us_route_b":null,"us_route_c":null},"type":"Feature"},{"geometry":{"coordinates":[[-121.50392,38.588317],[-121.50401,38.58852],[-121.50412,38.588813],[-121.504212,38.589115],[-121.504272,38.589351],[-121.504308,38.589536],[-121.504331,38.589653],[-121.504379,38.590028],[-121.504393,38.590257],[-121.504403,38.590638],[-121.504397,38.590905],[-121.504382,38.591142],[-121.504357,38.591359],[-121.504325,38.591647],[-121.504076,38.593849]],"type":"LineString"},"id":"REF-SACRAMENTO-HIGHWAYS-3","properties":{"canon_status":"REAL_REFERENCE","county_route":null,"federal_lands_route":null,"fictionality":"REAL","globalid":"{62FE012C-BA3E-4B95-9DD3-6593B7125F12}","interstate":"5","interstate_a":"5","interstate_b":null,"interstate_c":null,"loaddate":1533980413000,"mtfcc_code":"S1100","name":"I- 5","objectid":1116355,"permanent_identifier":"5b07907f-0f4b-41d5-a3d0-362a956afc95","real_world_relation":"REFERENCE_ONLY","shape_Length":795.5472244214493,"source_datadesc":"2016 October MAFTIGER","source_datasetid":"{155E1578-FAD5-4709-A194-6F828C31A01F}","source_featureid":"110873834135","source_id":"REF-SACRAMENTO-HIGHWAYS","source_originator":"U.S. Department of Commerce, U.S. Census Bureau, Geography Division","state_route":"16,99","state_route_a":"16,99","state_route_b":null,"state_route_c":null,"stco_fipscode":"06067","tnmfrc":1,"us_route":null,"us_route_a":null,"us_route_b":null,"us_route_c":null},"type":"Feature"},{"geometry":{"coordinates":[[-121.505009,38.600842],[-121.505107,38.601036],[-121.505215,38.601249]],"type":"LineString"},"id":"REF-SACRAMENTO-HIGHWAYS-4","properties":{"canon_status":"REAL_REFERENCE","county_route":null,"federal_lands_route":null,"fictionality":"REAL","globalid":"{11D3C3DE-B577-42B0-B4F0-CD24831B5954}","interstate":"5","interstate_a":"5","interstate_b":null,"interstate_c":null,"loaddate":1533980412000,"mtfcc_code":"S1100","name":"I- 5","objectid":1370356,"permanent_identifier":"6bdb82ce-7498-4b3d-8654-1adfab210e4b","real_world_relation":"REFERENCE_ONLY","shape_Length":62.34445056348834,"source_datadesc":"2016 October MAFTIGER","source_datasetid":"{155E1578-FAD5-4709-A194-6F828C31A01F}","source_featureid":"110873834135","source_id":"REF-SACRAMENTO-HIGHWAYS","source_originator":"U.S. Department of Commerce, U.S. Census Bureau, Geography Division","state_route":"16,99","state_route_a":"16,99","state_route_b":null,"state_route_c":null,"stco_fipscode":"06067","tnmfrc":1,"us_route":null,"us_route_a":null,"us_route_b":null,"us_route_c":null},"type":"Feature"},{"geometry":{"coordinates":[[-121.503465,38.583041],[-121.503361,38.583247],[-121.503289,38.583433],[-121.503205,38.583697],[-121.503159,38.583877],[-121.503086,38.584249]],"type":"LineString"},"id":"REF-SACRAMENTO-HIGHWAYS-5","properties":{"canon_status":"REAL_REFERENCE","county_route":null,"federal_lands_route":null,"fictionality":"REAL","globalid":"{F67F3F0A-0A19-48E7-B441-7C0EA31A8C39}","interstate":"5","interstate_a":"5","interstate_b":null,"interstate_c":null,"loaddate":1533980412000,"mtfcc_code":"S1100","name":"I- 5","objectid":3024136,"permanent_identifier":"dcc69fa0-edbc-4cac-977f-e27122c19dfc","real_world_relation":"REFERENCE_ONLY","shape_Length":177.6873630923928,"source_datadesc":"2016 October MAFTIGER","source_datasetid":"{155E1578-FAD5-4709-A194-6F828C31A01F}","source_featureid":"110873834134","source_id":"REF-SACRAMENTO-HIGHWAYS","source_originator":"U.S. Department of Commerce, U.S. Census Bureau, Geography Division","state_route":"16,99","state_route_a":"16,99","state_route_b":null,"state_route_c":null,"stco_fipscode":"06067","tnmfrc":1,"us_route":null,"us_route_a":null,"us_route_b":null,"us_route_c":null},"type":"Feature"},{"geometry":{"coordinates":[[-121.504525,38.589196],[-121.504582,38.589436],[-121.504614,38.589605],[-121.504666,38.589961],[-121.504702,38.590317],[-121.504721,38.590656],[-121.504725,38.591004],[-121.504717,38.591273],[-121.504706,38.591351],[-121.504646,38.591826],[-121.504448,38.593376]],"type":"LineString"},"id":"REF-SACRAMENTO-HIGHWAYS-6","properties":{"canon_status":"REAL_REFERENCE","county_route":null,"federal_lands_route":null,"fictionality":"REAL","globalid":"{93CD8154-41EB-471F-9B4D-16CC4691D444}","interstate":"5","interstate_a":"5","interstate_b":null,"interstate_c":null,"loaddate":1533980411000,"mtfcc_code":"S1100","name":"I- 5","objectid":3407040,"permanent_identifier":"c8834e61-70b5-48ca-827f-82652cf75a19","real_world_relation":"REFERENCE_ONLY","shape_Length":598.2116238524392,"source_datadesc":"2016 October MAFTIGER","source_datasetid":"{155E1578-FAD5-4709-A194-6F828C31A01F}","source_featureid":"110873834134","source_id":"REF-SACRAMENTO-HIGHWAYS","source_originator":"U.S. Department of Commerce, U.S. Census Bureau, Geography Division","state_route":"16,99","state_route_a":"16,99","state_route_b":null,"state_route_c":null,"stco_fipscode":"06067","tnmfrc":1,"us_route":null,"us_route_a":null,"us_route_b":null,"us_route_c":null},"type":"Feature"},{"geometry":{"coordinates":[[-121.470739,38.599219],[-121.47093,38.599148],[-121.473151,38.598288]],"type":"LineString"},"id":"REF-SACRAMENTO-HIGHWAYS-7","properties":{"canon_status":"REAL_REFERENCE","county_route":null,"federal_lands_route":null,"fictionality":"REAL","globalid":"{F5587139-B5CC-43B6-80A2-34705557E41E}","interstate":null,"interstate_a":null,"interstate_b":null,"interstate_c":null,"loaddate":1533980657000,"mtfcc_code":"S1100","name":"160 Fwy W","objectid":3660768,"permanent_identifier":"16db80f8-a15c-4ae7-95f7-4fd7932c2f3c","real_world_relation":"REFERENCE_ONLY","shape_Length":299.4670543375586,"source_datadesc":"2016 October MAFTIGER","source_datasetid":"{155E1578-FAD5-4709-A194-6F828C31A01F}","source_featureid":"1103940372315","source_id":"REF-SACRAMENTO-HIGHWAYS","source_originator":"U.S. Department of Commerce, U.S. Census Bureau, Geography Division","state_route":"160","state_route_a":"160","state_route_b":null,"state_route_c":null,"stco_fipscode":"06067","tnmfrc":1,"us_route":null,"us_route_a":null,"us_route_b":null,"us_route_c":null},"type":"Feature"},{"geometry":{"coordinates":[[-121.468146,38.600372],[-121.468504,38.600266],[-121.468839,38.600121],[-121.469206,38.599913],[-121.469584,38.59969],[-121.469853,38.599553],[-121.470232,38.599411]],"type":"LineString"},"id":"REF-SACRAMENTO-HIGHWAYS-8","properties":{"canon_status":"REAL_REFERENCE","county_route":null,"federal_lands_route":null,"fictionality":"REAL","globalid":"{02E68A67-E42C-47F2-90D4-E445BDDE066E}","interstate":null,"interstate_a":null,"interstate_b":null,"interstate_c":null,"loaddate":1533980657000,"mtfcc_code":"S1100","name":"160 Fwy W","objectid":3788461,"permanent_identifier":"31677247-2d43-4ada-8dd7-08a028ebb254","real_world_relation":"REFERENCE_ONLY","shape_Length":270.96418481918414,"source_datadesc":"2016 October MAFTIGER","source_datasetid":"{155E1578-FAD5-4709-A194-6F828C31A01F}","source_featureid":"1103940372315","source_id":"REF-SACRAMENTO-HIGHWAYS","source_originator":"U.S. Department of Commerce, U.S. Census Bureau, Geography Division","state_route":"160","state_route_a":"160","state_route_b":null,"state_route_c":null,"stco_fipscode":"06067","tnmfrc":1,"us_route":null,"us_route_a":null,"us_route_b":null,"us_route_c":null},"type":"Feature"},{"geometry":{"coordinates":[[-121.50282,38.584474],[-121.502805,38.584679]],"type":"LineString"},"id":"REF-SACRAMENTO-HIGHWAYS-9","properties":{"canon_status":"REAL_REFERENCE","county_route":null,"federal_lands_route":null,"fictionality":"REAL","globalid":"{8ED179A5-961E-4645-B2E1-2A1639A401BE}","interstate":"5","interstate_a":"5","interstate_b":null,"interstate_c":null,"loaddate":1533980411000,"mtfcc_code":"S1100","name":"I- 5","objectid":4042604,"permanent_identifier":"11eeda60-90b5-4cb3-9d3c-07ee90d3531b","real_world_relation":"REFERENCE_ONLY","shape_Length":29.241514848303073,"source_datadesc":"2016 October MAFTIGER","source_datasetid":"{155E1578-FAD5-4709-A194-6F828C31A01F}","source_featureid":"110873834135","source_id":"REF-SACRAMENTO-HIGHWAYS","source_originator":"U.S. Department of Commerce, U.S. Census Bureau, Geography Division","state_route":"16,99","state_route_a":"16,99","state_route_b":null,"state_route_c":null,"stco_fipscode":"06067","tnmfrc":1,"us_route":null,"us_route_a":null,"us_route_b":null,"us_route_c":null},"type":"Feature"},{"geometry":{"coordinates":[[-121.471423,38.598558],[-121.47094,38.598771],[-121.470177,38.599107]],"type":"LineString"},"id":"REF-SACRAMENTO-HIGHWAYS-10","properties":{"canon_status":"REAL_REFERENCE","county_route":null,"federal_lands_route":null,"fictionality":"REAL","globalid":"{E1168A3A-1B8D-4308-942F-0BBE45B64C60}","interstate":null,"interstate_a":null,"interstate_b":null,"interstate_c":null,"loaddate":1533980411000,"mtfcc_code":"S1100","name":"State Hwy 160","objectid":4043414,"permanent_identifier":"8c5370d6-af88-4ad1-9fdc-19befb848f1c","real_world_relation":"REFERENCE_ONLY","shape_Length":159.22867961917768,"source_datadesc":"2016 October MAFTIGER","source_datasetid":"{155E1578-FAD5-4709-A194-6F828C31A01F}","source_featureid":"110873846318","source_id":"REF-SACRAMENTO-HIGHWAYS","source_originator":"U.S. Department of Commerce, U.S. Census Bureau, Geography Division","state_route":"160","state_route_a":"160","state_route_b":null,"state_route_c":null,"stco_fipscode":"06067","tnmfrc":1,"us_route":null,"us_route_a":null,"us_route_b":null,"us_route_c":null},"type":"Feature"},{"geometry":{"coordinates":[[-121.503016,38.586289],[-121.503086,38.586493],[-121.503355,38.587081],[-121.503512,38.587433],[-121.503667,38.587763],[-121.503689,38.58781],[-121.50392,38.588317]],"type":"LineString"},"id":"REF-SACRAMENTO-HIGHWAYS-11","properties":{"canon_status":"REAL_REFERENCE","county_route":null,"federal_lands_route":null,"fictionality":"REAL","globalid":"{3C95D64D-BC2B-4685-85C1-75F2DB1F8C73}","interstate":"5","interstate_a":"5","interstate_b":null,"interstate_c":null,"loaddate":1533980412000,"mtfcc_code":"S1100","name":"I- 5","objectid":4680394,"permanent_identifier":"a4135e66-bc6b-4b68-b6b8-da0f8e530068","real_world_relation":"REFERENCE_ONLY","shape_Length":305.9395728640802,"source_datadesc":"2016 October MAFTIGER","source_datasetid":"{155E1578-FAD5-4709-A194-6F828C31A01F}","source_featureid":"110873834135","source_id":"REF-SACRAMENTO-HIGHWAYS","source_originator":"U.S. Department of Commerce, U.S. Census Bureau, Geography Division","state_route":"16,99","state_route_a":"16,99","state_route_b":null,"state_route_c":null,"stco_fipscode":"06067","tnmfrc":1,"us_route":null,"us_route_a":null,"us_route_b":null,"us_route_c":null},"type":"Feature"},{"geometry":{"coordinates":[[-121.475571,38.596659],[-121.475181,38.596865],[-121.473462,38.597658],[-121.472918,38.597898]],"type":"LineString"},"id":"REF-SACRAMENTO-HIGHWAYS-12","properties":{"canon_status":"REAL_REFERENCE","county_route":null,"federal_lands_route":null,"fictionality":"REAL","globalid":"{41CA3143-3C54-454A-834D-3164AC42900B}","interstate":null,"interstate_a":null,"interstate_b":null,"interstate_c":null,"loaddate":1533980592000,"mtfcc_code":"S1100","name":"Hwy 160 E","objectid":4681369,"permanent_identifier":"27e6d40c-9173-4b07-8ce5-6055c4d240ee","real_world_relation":"REFERENCE_ONLY","shape_Length":344.1464523149841,"source_datadesc":"2016 October MAFTIGER","source_datasetid":"{155E1578-FAD5-4709-A194-6F828C31A01F}","source_featureid":"1103940360436","source_id":"REF-SACRAMENTO-HIGHWAYS","source_originator":"U.S. Department of Commerce, U.S. Census Bureau, Geography Division","state_route":"160","state_route_a":"160","state_route_b":null,"state_route_c":null,"stco_fipscode":"06067","tnmfrc":1,"us_route":null,"us_route_a":null,"us_route_b":null,"us_route_c":null},"type":"Feature"},{"geometry":{"coordinates":[[-121.472918,38.597898],[-121.471681,38.598444]],"type":"LineString"},"id":"REF-SACRAMENTO-HIGHWAYS-13","properties":{"canon_status":"REAL_REFERENCE","county_route":null,"federal_lands_route":null,"fictionality":"REAL","globalid":"{05EE8627-F522-46CE-8EBA-ECDE208D06A8}","interstate":null,"interstate_a":null,"interstate_b":null,"interstate_c":null,"loaddate":1533980521000,"mtfcc_code":"S1100","name":"60 Fwy E","objectid":5192947,"permanent_identifier":"dea57e6c-9cb4-453d-9b1c-445a0d336c4d","real_world_relation":"REFERENCE_ONLY","shape_Length":158.14576927243056,"source_datadesc":"2016 October MAFTIGER","source_datasetid":"{155E1578-FAD5-4709-A194-6F828C31A01F}","source_featureid":"1103940372215","source_id":"REF-SACRAMENTO-HIGHWAYS","source_originator":"U.S. Department of Commerce, U.S. Census Bureau, Geography Division","state_route":"160","state_route_a":"160","state_route_b":null,"state_route_c":null,"stco_fipscode":"06067","tnmfrc":1,"us_route":null,"us_route_a":null,"us_route_b":null,"us_route_c":null},"type":"Feature"},{"geometry":{"coordinates":[[-121.50721,38.577788],[-121.506929,38.578239],[-121.506607,38.578673],[-121.506251,38.579089],[-121.50586,38.579486],[-121.505714,38.579648]],"type":"LineString"},"id":"REF-SACRAMENTO-HIGHWAYS-14","properties":{"canon_status":"REAL_REFERENCE","county_route":null,"federal_lands_route":null,"fictionality":"REAL","globalid":"{61EB0A08-AB45-41EC-A751-1544000F2362}","interstate":"5","interstate_a":"5","interstate_b":null,"interstate_c":null,"loaddate":1533980412000,"mtfcc_code":"S1100","name":"I- 5","objectid":6724622,"permanent_identifier":"35cf81df-990e-4374-b15e-60554cef1fb0","real_world_relation":"REFERENCE_ONLY","shape_Length":313.71419810689844,"source_datadesc":"2016 October MAFTIGER","source_datasetid":"{155E1578-FAD5-4709-A194-6F828C31A01F}","source_featureid":"110873834135","source_id":"REF-SACRAMENTO-HIGHWAYS","source_originator":"U.S. Department of Commerce, U.S. Census Bureau, Geography Division","state_route":"16,99","state_route_a":"16,99","state_route_b":null,"state_route_c":null,"stco_fipscode":"06067","tnmfrc":1,"us_route":null,"us_route_a":null,"us_route_b":null,"us_route_c":null},"type":"Feature"},{"geometry":{"coordinates":[[-121.50556,38.579818],[-121.505497,38.57987],[-121.505341,38.580001]],"type":"LineString"},"id":"REF-SACRAMENTO-HIGHWAYS-15","properties":{"canon_status":"REAL_REFERENCE","county_route":null,"federal_lands_route":null,"fictionality":"REAL","globalid":"{F1425F70-41FA-43FB-87D0-CDC6DF92F5EA}","interstate":"5","interstate_a":"5","interstate_b":null,"interstate_c":null,"loaddate":1533980412000,"mtfcc_code":"S1100","name":"I- 5","objectid":6724926,"permanent_identifier":"7a5579b2-62cf-42f2-ad39-37cb0fa16795","real_world_relation":"REFERENCE_ONLY","shape_Length":35.68517356159012,"source_datadesc":"2016 October MAFTIGER","source_datasetid":"{155E1578-FAD5-4709-A194-6F828C31A01F}","source_featureid":"110873834135","source_id":"REF-SACRAMENTO-HIGHWAYS","source_originator":"U.S. Department of Commerce, U.S. Census Bureau, Geography Division","state_route":"16,99","state_route_a":"16,99","state_route_b":null,"state_route_c":null,"stco_fipscode":"06067","tnmfrc":1,"us_route":null,"us_route_a":null,"us_route_b":null,"us_route_c":null},"type":"Feature"},{"geometry":{"coordinates":[[-121.471681,38.598444],[-121.471423,38.598558]],"type":"LineString"},"id":"REF-SACRAMENTO-HIGHWAYS-16","properties":{"canon_status":"REAL_REFERENCE","county_route":null,"federal_lands_route":null,"fictionality":"REAL","globalid":"{3D9FD516-6288-4624-84B5-B0E6F639ADAA}","interstate":null,"interstate_a":null,"interstate_b":null,"interstate_c":null,"loaddate":1533980487000,"mtfcc_code":"S1100","name":"Sacramento Regional Light Rail","objectid":7745857,"permanent_identifier":"a7005e25-9c93-49f0-b3a8-b63f0ab9082f","real_world_relation":"REFERENCE_ONLY","shape_Length":32.992840510641564,"source_datadesc":"2016 October MAFTIGER","source_datasetid":"{155E1578-FAD5-4709-A194-6F828C31A01F}","source_featureid":"1103963478991","source_id":"REF-SACRAMENTO-HIGHWAYS","source_originator":"U.S. Department of Commerce, U.S. Census Bureau, Geography Division","state_route":"160","state_route_a":"160","state_route_b":null,"state_route_c":null,"stco_fipscode":"06067","tnmfrc":1,"us_route":null,"us_route_a":null,"us_route_b":null,"us_route_c":null},"type":"Feature"},{"geometry":{"coordinates":[[-121.504646,38.599541],[-121.504735,38.599737],[-121.504952,38.600168]],"type":"LineString"},"id":"REF-SACRAMENTO-HIGHWAYS-17","properties":{"canon_status":"REAL_REFERENCE","county_route":null,"federal_lands_route":null,"fictionality":"REAL","globalid":"{79D3DC47-D9E8-40E5-8A7F-9FFE76FFFB3F}","interstate":"5","interstate_a":"5","interstate_b":null,"interstate_c":null,"loaddate":1533980413000,"mtfcc_code":"S1100","name":"I- 5","objectid":8128292,"permanent_identifier":"e34c10aa-0596-42bc-a2a2-a6a420a3d062","real_world_relation":"REFERENCE_ONLY","shape_Length":95.59691601010951,"source_datadesc":"2016 October MAFTIGER","source_datasetid":"{155E1578-FAD5-4709-A194-6F828C31A01F}","source_featureid":"110873834134","source_id":"REF-SACRAMENTO-HIGHWAYS","source_originator":"U.S. Department of Commerce, U.S. Census Bureau, Geography Division","state_route":"16,99","state_route_a":"16,99","state_route_b":null,"state_route_c":null,"stco_fipscode":"06067","tnmfrc":1,"us_route":null,"us_route_a":null,"us_route_b":null,"us_route_c":null},"type":"Feature"},{"geometry":{"coordinates":[[-121.505784,38.579878],[-121.505725,38.579927],[-121.505212,38.580355],[-121.504978,38.580567],[-121.504782,38.580769],[-121.504613,38.580968],[-121.504495,38.581121],[-121.504319,38.581397],[-121.50423,38.58154]],"type":"LineString"},"id":"REF-SACRAMENTO-HIGHWAYS-18","properties":{"canon_status":"REAL_REFERENCE","county_route":null,"federal_lands_route":null,"fictionality":"REAL","globalid":"{A1F01404-395E-4A2F-AB3C-6F538FF6C503}","interstate":"5","interstate_a":"5","interstate_b":null,"interstate_c":null,"loaddate":1533980412000,"mtfcc_code":"S1100","name":"I- 5","objectid":9148441,"permanent_identifier":"9c065410-c032-44c7-a9ed-ef99410d7a8c","real_world_relation":"REFERENCE_ONLY","shape_Length":295.0978041584055,"source_datadesc":"2016 October MAFTIGER","source_datasetid":"{155E1578-FAD5-4709-A194-6F828C31A01F}","source_featureid":"110873834134","source_id":"REF-SACRAMENTO-HIGHWAYS","source_originator":"U.S. Department of Commerce, U.S. Census Bureau, Geography Division","state_route":"16,99","state_route_a":"16,99","state_route_b":null,"state_route_c":null,"stco_fipscode":"06067","tnmfrc":1,"us_route":null,"us_route_a":null,"us_route_b":null,"us_route_c":null},"type":"Feature"},{"geometry":{"coordinates":[[-121.507845,38.606358],[-121.509064,38.608767],[-121.509891,38.610371]],"type":"LineString"},"id":"REF-SACRAMENTO-HIGHWAYS-19","properties":{"canon_status":"REAL_REFERENCE","county_route":null,"federal_lands_route":null,"fictionality":"REAL","globalid":"{84C55E1F-9A55-430B-8D4B-1CC9C8D1E532}","interstate":"5","interstate_a":"5","interstate_b":null,"interstate_c":null,"loaddate":1533980412000,"mtfcc_code":"S1100","name":"I- 5","objectid":9276804,"permanent_identifier":"564e0e44-dfd6-4732-ad5e-77ba5f0871b0","real_world_relation":"REFERENCE_ONLY","shape_Length":615.3801862163012,"source_datadesc":"2016 October MAFTIGER","source_datasetid":"{155E1578-FAD5-4709-A194-6F828C31A01F}","source_featureid":"110873834135","source_id":"REF-SACRAMENTO-HIGHWAYS","source_originator":"U.S. Department of Commerce, U.S. Census Bureau, Geography Division","state_route":"16,99","state_route_a":"16,99","state_route_b":null,"state_route_c":null,"stco_fipscode":"06067","tnmfrc":1,"us_route":null,"us_route_a":null,"us_route_b":null,"us_route_c":null},"type":"Feature"},{"geometry":{"coordinates":[[-121.502805,38.584679],[-121.502801,38.584977],[-121.502809,38.585174],[-121.502821,38.585309],[-121.502822,38.585327],[-121.502834,38.585465],[-121.502881,38.58576],[-121.502946,38.586048],[-121.503016,38.586289]],"type":"LineString"},"id":"REF-SACRAMENTO-HIGHWAYS-20","properties":{"canon_status":"REAL_REFERENCE","county_route":null,"federal_lands_route":null,"fictionality":"REAL","globalid":"{331C75A3-C28B-44A1-B3FB-943AF5161958}","interstate":"5","interstate_a":"5","interstate_b":null,"interstate_c":null,"loaddate":1533980411000,"mtfcc_code":"S1100","name":"I- 5","objectid":10298654,"permanent_identifier":"a397d147-44fb-4239-8877-c2efac9d8841","real_world_relation":"REFERENCE_ONLY","shape_Length":231.22348036603674,"source_datadesc":"2016 October MAFTIGER","source_datasetid":"{155E1578-FAD5-4709-A194-6F828C31A01F}","source_featureid":"110873834135","source_id":"REF-SACRAMENTO-HIGHWAYS","source_originator":"U.S. Department of Commerce, U.S. Census Bureau, Geography Division","state_route":"16,99","state_route_a":"16,99","state_route_b":null,"state_route_c":null,"stco_fipscode":"06067","tnmfrc":1,"us_route":null,"us_route_a":null,"us_route_b":null,"us_route_c":null},"type":"Feature"},{"geometry":{"coordinates":[[-121.505341,38.580001],[-121.504785,38.580458],[-121.504609,38.58062],[-121.504469,38.580765],[-121.504325,38.580936],[-121.504185,38.581126],[-121.504056,38.581332],[-121.50389,38.5816],[-121.503782,38.581814]],"type":"LineString"},"id":"REF-SACRAMENTO-HIGHWAYS-21","properties":{"canon_status":"REAL_REFERENCE","county_route":null,"federal_lands_route":null,"fictionality":"REAL","globalid":"{9E27A840-52EF-45D4-A24B-C2035F78C435}","interstate":"5","interstate_a":"5","interstate_b":null,"interstate_c":null,"loaddate":1533980413000,"mtfcc_code":"S1100","name":"I- 5","objectid":10681714,"permanent_identifier":"cd587222-55ba-4856-9063-0cacd2351136","real_world_relation":"REFERENCE_ONLY","shape_Length":314.1465505827457,"source_datadesc":"2016 October MAFTIGER","source_datasetid":"{155E1578-FAD5-4709-A194-6F828C31A01F}","source_featureid":"110873834135","source_id":"REF-SACRAMENTO-HIGHWAYS","source_originator":"U.S. Department of Commerce, U.S. Census Bureau, Geography Division","state_route":"16,99","state_route_a":"16,99","state_route_b":null,"state_route_c":null,"stco_fipscode":"06067","tnmfrc":1,"us_route":null,"us_route_a":null,"us_route_b":null,"us_route_c":null},"type":"Feature"},{"geometry":{"coordinates":[[-121.470232,38.599411],[-121.470438,38.599332]],"type":"LineString"},"id":"REF-SACRAMENTO-HIGHWAYS-22","properties":{"canon_status":"REAL_REFERENCE","county_route":null,"federal_lands_route":null,"fictionality":"REAL","globalid":"{6518721C-6370-4D7B-B045-494FA126EE59}","interstate":null,"interstate_a":null,"interstate_b":null,"interstate_c":null,"loaddate":1533980657000,"mtfcc_code":"S1100","name":"160 Fwy W","objectid":12342902,"permanent_identifier":"ef5ba2b0-4d97-47cd-a4f1-dc97c35c1f96","real_world_relation":"REFERENCE_ONLY","shape_Length":25.543943398848924,"source_datadesc":"2016 October MAFTIGER","source_datasetid":"{155E1578-FAD5-4709-A194-6F828C31A01F}","source_featureid":"1103940372315","source_id":"REF-SACRAMENTO-HIGHWAYS","source_originator":"U.S. Department of Commerce, U.S. Census Bureau, Geography Division","state_route":"160","state_route_a":"160","state_route_b":null,"state_route_c":null,"stco_fipscode":"06067","tnmfrc":1,"us_route":null,"us_route_a":null,"us_route_b":null,"us_route_c":null},"type":"Feature"},{"geometry":{"coordinates":[[-121.503782,38.581814],[-121.5037,38.582007],[-121.503675,38.582078],[-121.503265,38.582943]],"type":"LineString"},"id":"REF-SACRAMENTO-HIGHWAYS-23","properties":{"canon_status":"REAL_REFERENCE","county_route":null,"federal_lands_route":null,"fictionality":"REAL","globalid":"{BAC94112-C09F-4AEA-9056-0162E4F3A71B}","interstate":"5","interstate_a":"5","interstate_b":null,"interstate_c":null,"loaddate":1533980413000,"mtfcc_code":"S1100","name":"I- 5","objectid":12469847,"permanent_identifier":"4912f164-af66-402c-9e20-f4f58d5a0311","real_world_relation":"REFERENCE_ONLY","shape_Length":170.81079580867868,"source_datadesc":"2016 October MAFTIGER","source_datasetid":"{155E1578-FAD5-4709-A194-6F828C31A01F}","source_featureid":"110873834135","source_id":"REF-SACRAMENTO-HIGHWAYS","source_originator":"U.S. Department of Commerce, U.S. Census Bureau, Geography Division","state_route":"16,99","state_route_a":"16,99","state_route_b":null,"state_route_c":null,"stco_fipscode":"06067","tnmfrc":1,"us_route":null,"us_route_a":null,"us_route_b":null,"us_route_c":null},"type":"Feature"},{"geometry":{"coordinates":[[-121.470177,38.599107],[-121.469567,38.599376],[-121.468995,38.599607],[-121.468397,38.599795],[-121.46778,38.599938],[-121.467148,38.600035],[-121.466507,38.600086],[-121.46623,38.600087],[-121.465863,38.600088],[-121.460755,38.600079],[-121.458439,38.600083],[-121.457952,38.600084]],"type":"LineString"},"id":"REF-SACRAMENTO-HIGHWAYS-24","properties":{"canon_status":"REAL_REFERENCE","county_route":null,"federal_lands_route":null,"fictionality":"REAL","globalid":"{B7ADC5E3-F85C-492D-8AF3-47BE55763840}","interstate":null,"interstate_a":null,"interstate_b":null,"interstate_c":null,"loaddate":1533980411000,"mtfcc_code":"S1100","name":"State Hwy 160","objectid":12597395,"permanent_identifier":"9dd9ff8c-b6fa-4313-8953-c86af0cdbee8","real_world_relation":"REFERENCE_ONLY","shape_Length":1388.8004132223145,"source_datadesc":"2016 October MAFTIGER","source_datasetid":"{155E1578-FAD5-4709-A194-6F828C31A01F}","source_featureid":"110873846318","source_id":"REF-SACRAMENTO-HIGHWAYS","source_originator":"U.S. Department of Commerce, U.S. Census Bureau, Geography Division","state_route":"160","state_route_a":"160","state_route_b":null,"state_route_c":null,"stco_fipscode":"06067","tnmfrc":1,"us_route":null,"us_route_a":null,"us_route_b":null,"us_route_c":null},"type":"Feature"},{"geometry":{"coordinates":[[-121.507281,38.605259],[-121.507406,38.605502],[-121.50744,38.605568],[-121.507606,38.605891],[-121.507704,38.606081]],"type":"LineString"},"id":"REF-SACRAMENTO-HIGHWAYS-25","properties":{"canon_status":"REAL_REFERENCE","county_route":null,"federal_lands_route":null,"fictionality":"REAL","globalid":"{1EF73CA4-949B-47BD-8627-AAEA7C76554E}","interstate":"5","interstate_a":"5","interstate_b":null,"interstate_c":null,"loaddate":1533980411000,"mtfcc_code":"S1100","name":"I- 5","objectid":14129493,"permanent_identifier":"80c922f8-41d4-4d02-ae5a-a37ab0f7ca65","real_world_relation":"REFERENCE_ONLY","shape_Length":126.2079172977419,"source_datadesc":"2016 October MAFTIGER","source_datasetid":"{155E1578-FAD5-4709-A194-6F828C31A01F}","source_featureid":"110873834135","source_id":"REF-SACRAMENTO-HIGHWAYS","source_originator":"U.S. Department of Commerce, U.S. Census Bureau, Geography Division","state_route":"16,99","state_route_a":"16,99","state_route_b":null,"state_route_c":null,"stco_fipscode":"06067","tnmfrc":1,"us_route":null,"us_route_a":null,"us_route_b":null,"us_route_c":null},"type":"Feature"},{"geometry":{"coordinates":[[-121.475677,38.597],[-121.474726,38.597611],[-121.474452,38.597768],[-121.473666,38.598088],[-121.473151,38.598288]],"type":"LineString"},"id":"REF-SACRAMENTO-HIGHWAYS-26","properties":{"canon_status":"REAL_REFERENCE","county_route":null,"federal_lands_route":null,"fictionality":"REAL","globalid":"{864EA58D-1E79-4EAE-8BFA-8439A07735BB}","interstate":null,"interstate_a":null,"interstate_b":null,"interstate_c":null,"loaddate":1748519528000,"mtfcc_code":"S1100","name":"Hwy 160 W","objectid":14257765,"permanent_identifier":"0ee8010f-e7bc-4411-87b6-05160e4a7cae","real_world_relation":"REFERENCE_ONLY","shape_Length":337.50684328272456,"source_datadesc":"2021 February MAF/TIGER","source_datasetid":"{7AD8F908-E576-4667-ABBE-3F904F423D64}","source_featureid":"1103940360400","source_id":"REF-SACRAMENTO-HIGHWAYS","source_originator":"U.S. Department of Commerce, U.S. Census Bureau, Geography Division","state_route":"160","state_route_a":"160","state_route_b":null,"state_route_c":null,"stco_fipscode":"06067","tnmfrc":1,"us_route":null,"us_route_a":null,"us_route_b":null,"us_route_c":null},"type":"Feature"},{"geometry":{"coordinates":[[-121.50423,38.58154],[-121.50405,38.581893]],"type":"LineString"},"id":"REF-SACRAMENTO-HIGHWAYS-27","properties":{"canon_status":"REAL_REFERENCE","county_route":null,"federal_lands_route":null,"fictionality":"REAL","globalid":"{1595E1EF-5B6E-47B8-8B93-614217544321}","interstate":"5","interstate_a":"5","interstate_b":null,"interstate_c":null,"loaddate":1533980412000,"mtfcc_code":"S1100","name":"I- 5","objectid":16173543,"permanent_identifier":"e57cd9d0-9776-4d1f-9ab6-cf91b883596e","real_world_relation":"REFERENCE_ONLY","shape_Length":54.11472434382966,"source_datadesc":"2016 October MAFTIGER","source_datasetid":"{155E1578-FAD5-4709-A194-6F828C31A01F}","source_featureid":"110873834134","source_id":"REF-SACRAMENTO-HIGHWAYS","source_originator":"U.S. Department of Commerce, U.S. Census Bureau, Geography Division","state_route":"16,99","state_route_a":"16,99","state_route_b":null,"state_route_c":null,"stco_fipscode":"06067","tnmfrc":1,"us_route":null,"us_route_a":null,"us_route_b":null,"us_route_c":null},"type":"Feature"},{"geometry":{"coordinates":[[-121.504383,38.599602],[-121.504724,38.600279],[-121.504795,38.60042],[-121.504844,38.600516],[-121.505009,38.600842]],"type":"LineString"},"id":"REF-SACRAMENTO-HIGHWAYS-28","properties":{"canon_status":"REAL_REFERENCE","county_route":null,"federal_lands_route":null,"fictionality":"REAL","globalid":"{3214F9F9-D905-49A7-AD82-16A7DD246305}","interstate":"5","interstate_a":"5","interstate_b":null,"interstate_c":null,"loaddate":1533980413000,"mtfcc_code":"S1100","name":"I- 5","objectid":16428668,"permanent_identifier":"e5595550-2a44-40fa-980d-bd4f28ca0ebf","real_world_relation":"REFERENCE_ONLY","shape_Length":189.8758498772788,"source_datadesc":"2016 October MAFTIGER","source_datasetid":"{155E1578-FAD5-4709-A194-6F828C31A01F}","source_featureid":"110873834135","source_id":"REF-SACRAMENTO-HIGHWAYS","source_originator":"U.S. Department of Commerce, U.S. Census Bureau, Geography Division","state_route":"16,99","state_route_a":"16,99","state_route_b":null,"state_route_c":null,"stco_fipscode":"06067","tnmfrc":1,"us_route":null,"us_route_a":null,"us_route_b":null,"us_route_c":null},"type":"Feature"},{"geometry":{"coordinates":[[-121.503265,38.582943],[-121.503117,38.583255],[-121.50303,38.583521],[-121.502942,38.583833],[-121.502871,38.584151]],"type":"LineString"},"id":"REF-SACRAMENTO-HIGHWAYS-29","properties":{"canon_status":"REAL_REFERENCE","county_route":null,"federal_lands_route":null,"fictionality":"REAL","globalid":"{936B0439-2232-4E87-A714-4076D65A2E93}","interstate":"5","interstate_a":"5","interstate_b":null,"interstate_c":null,"loaddate":1533980412000,"mtfcc_code":"S1100","name":"I- 5","objectid":16556196,"permanent_identifier":"13d6c027-d7ee-4843-9cf0-f87ea727c44e","real_world_relation":"REFERENCE_ONLY","shape_Length":177.95392842134254,"source_datadesc":"2016 October MAFTIGER","source_datasetid":"{155E1578-FAD5-4709-A194-6F828C31A01F}","source_featureid":"110873834135","source_id":"REF-SACRAMENTO-HIGHWAYS","source_originator":"U.S. Department of Commerce, U.S. Census Bureau, Geography Division","state_route":"16,99","state_route_a":"16,99","state_route_b":null,"state_route_c":null,"stco_fipscode":"06067","tnmfrc":1,"us_route":null,"us_route_a":null,"us_route_b":null,"us_route_c":null},"type":"Feature"},{"geometry":{"coordinates":[[-121.50405,38.581893],[-121.503465,38.583041]],"type":"LineString"},"id":"REF-SACRAMENTO-HIGHWAYS-30","properties":{"canon_status":"REAL_REFERENCE","county_route":null,"federal_lands_route":null,"fictionality":"REAL","globalid":"{6BC090A5-9727-43D6-A812-FED0EAA642D6}","interstate":"5","interstate_a":"5","interstate_b":null,"interstate_c":null,"loaddate":1533980413000,"mtfcc_code":"S1100","name":"I- 5","objectid":18349987,"permanent_identifier":"9ca757a6-f857-44c7-b8d2-75c6e104f87a","real_world_relation":"REFERENCE_ONLY","shape_Length":175.97395781514928,"source_datadesc":"2016 October MAFTIGER","source_datasetid":"{155E1578-FAD5-4709-A194-6F828C31A01F}","source_featureid":"110873834134","source_id":"REF-SACRAMENTO-HIGHWAYS","source_originator":"U.S. Department of Commerce, U.S. Census Bureau, Geography Division","state_route":"16,99","state_route_a":"16,99","state_route_b":null,"state_route_c":null,"stco_fipscode":"06067","tnmfrc":1,"us_route":null,"us_route_a":null,"us_route_b":null,"us_route_c":null},"type":"Feature"},{"geometry":{"coordinates":[[-121.504094,38.596959],[-121.504098,38.59716],[-121.504115,38.597471],[-121.504148,38.597773],[-121.504195,38.598073],[-121.504258,38.59838],[-121.504363,38.598778],[-121.504461,38.59908],[-121.504609,38.59946],[-121.504646,38.599541]],"type":"LineString"},"id":"REF-SACRAMENTO-HIGHWAYS-31","properties":{"canon_status":"REAL_REFERENCE","county_route":null,"federal_lands_route":null,"fictionality":"REAL","globalid":"{1CF746E5-59B2-4929-A9D2-5AEEC28E7FAE}","interstate":"5","interstate_a":"5","interstate_b":null,"interstate_c":null,"loaddate":1533980412000,"mtfcc_code":"S1100","name":"I- 5","objectid":18350668,"permanent_identifier":"397de1f8-9349-4487-bfcf-809192ecf2c7","real_world_relation":"REFERENCE_ONLY","shape_Length":374.5677695165874,"source_datadesc":"2016 October MAFTIGER","source_datasetid":"{155E1578-FAD5-4709-A194-6F828C31A01F}","source_featureid":"110873834134","source_id":"REF-SACRAMENTO-HIGHWAYS","source_originator":"U.S. Department of Commerce, U.S. Census Bureau, Geography Division","state_route":"16,99","state_route_a":"16,99","state_route_b":null,"state_route_c":null,"stco_fipscode":"06067","tnmfrc":1,"us_route":null,"us_route_a":null,"us_route_b":null,"us_route_c":null},"type":"Feature"},{"geometry":{"coordinates":[[-121.508098,38.606238],[-121.509735,38.609438],[-121.510351,38.610606]],"type":"LineString"},"id":"REF-SACRAMENTO-HIGHWAYS-32","properties":{"canon_status":"REAL_REFERENCE","county_route":null,"federal_lands_route":null,"fictionality":"REAL","globalid":"{EEE48606-49D2-4D15-8F0E-D6E3F91DBDC4}","interstate":"5","interstate_a":"5","interstate_b":null,"interstate_c":null,"loaddate":1533980411000,"mtfcc_code":"S1100","name":"I- 5","objectid":19248543,"permanent_identifier":"9bc6925e-c5be-4e16-b856-24d2fba0c3b1","real_world_relation":"REFERENCE_ONLY","shape_Length":670.8996652670119,"source_datadesc":"2016 October MAFTIGER","source_datasetid":"{155E1578-FAD5-4709-A194-6F828C31A01F}","source_featureid":"110873834134","source_id":"REF-SACRAMENTO-HIGHWAYS","source_originator":"U.S. Department of Commerce, U.S. Census Bureau, Geography Division","state_route":"16,99","state_route_a":"16,99","state_route_b":null,"state_route_c":null,"stco_fipscode":"06067","tnmfrc":1,"us_route":null,"us_route_a":null,"us_route_b":null,"us_route_c":null},"type":"Feature"},{"geometry":{"coordinates":[[-121.470438,38.599332],[-121.470739,38.599219]],"type":"LineString"},"id":"REF-SACRAMENTO-HIGHWAYS-33","properties":{"canon_status":"REAL_REFERENCE","county_route":null,"federal_lands_route":null,"fictionality":"REAL","globalid":"{7FC03536-796C-4A9B-B4E4-5625E64B17EA}","interstate":null,"interstate_a":null,"interstate_b":null,"interstate_c":null,"loaddate":1533980657000,"mtfcc_code":"S1100","name":"160 Fwy W","objectid":19761021,"permanent_identifier":"960cfed8-68fb-4c5a-91f7-85140566347d","real_world_relation":"REFERENCE_ONLY","shape_Length":37.17249103684395,"source_datadesc":"2016 October MAFTIGER","source_datasetid":"{155E1578-FAD5-4709-A194-6F828C31A01F}","source_featureid":"1103940372315","source_id":"REF-SACRAMENTO-HIGHWAYS","source_originator":"U.S. Department of Commerce, U.S. Census Bureau, Geography Division","state_route":"160","state_route_a":"160","state_route_b":null,"state_route_c":null,"stco_fipscode":"06067","tnmfrc":1,"us_route":null,"us_route_a":null,"us_route_b":null,"us_route_c":null},"type":"Feature"},{"geometry":{"coordinates":[[-121.504076,38.593849],[-121.503834,38.59617],[-121.50381,38.596587],[-121.503795,38.597011]],"type":"LineString"},"id":"REF-SACRAMENTO-HIGHWAYS-34","properties":{"canon_status":"REAL_REFERENCE","county_route":null,"federal_lands_route":null,"fictionality":"REAL","globalid":"{0D53200D-4A9A-4E51-89DA-723865B2BDBE}","interstate":"5","interstate_a":"5","interstate_b":null,"interstate_c":null,"loaddate":1533980412000,"mtfcc_code":"S1100","name":"I- 5","objectid":20145291,"permanent_identifier":"19998c75-ffcf-4075-9d00-02e194256c75","real_world_relation":"REFERENCE_ONLY","shape_Length":451.54447762166615,"source_datadesc":"2016 October MAFTIGER","source_datasetid":"{155E1578-FAD5-4709-A194-6F828C31A01F}","source_featureid":"110873834135","source_id":"REF-SACRAMENTO-HIGHWAYS","source_originator":"U.S. Department of Commerce, U.S. Census Bureau, Geography Division","state_route":"16,99","state_route_a":"16,99","state_route_b":null,"state_route_c":null,"stco_fipscode":"06067","tnmfrc":1,"us_route":null,"us_route_a":null,"us_route_b":null,"us_route_c":null},"type":"Feature"},{"geometry":{"coordinates":[[-121.507958,38.605967],[-121.508098,38.606238]],"type":"LineString"},"id":"REF-SACRAMENTO-HIGHWAYS-35","properties":{"canon_status":"REAL_REFERENCE","county_route":null,"federal_lands_route":null,"fictionality":"REAL","globalid":"{F049F3AA-096A-405F-A8BF-4C919E8A64D3}","interstate":"5","interstate_a":"5","interstate_b":null,"interstate_c":null,"loaddate":1533980412000,"mtfcc_code":"S1100","name":"I- 5","objectid":20401035,"permanent_identifier":"37b8ec61-3cb4-48b6-b6bf-2d57e89e0df0","real_world_relation":"REFERENCE_ONLY","shape_Length":41.63150938350547,"source_datadesc":"2016 October MAFTIGER","source_datasetid":"{155E1578-FAD5-4709-A194-6F828C31A01F}","source_featureid":"110873834134","source_id":"REF-SACRAMENTO-HIGHWAYS","source_originator":"U.S. Department of Commerce, U.S. Census Bureau, Geography Division","state_route":"16,99","state_route_a":"16,99","state_route_b":null,"state_route_c":null,"stco_fipscode":"06067","tnmfrc":1,"us_route":null,"us_route_a":null,"us_route_b":null,"us_route_c":null},"type":"Feature"},{"geometry":{"coordinates":[[-121.503795,38.597011],[-121.503794,38.597122],[-121.503811,38.597469],[-121.503847,38.597809],[-121.503904,38.598154],[-121.503981,38.598497],[-121.504078,38.598836],[-121.504186,38.599151],[-121.504234,38.599269],[-121.504313,38.599463],[-121.504383,38.599602]],"type":"LineString"},"id":"REF-SACRAMENTO-HIGHWAYS-36","properties":{"canon_status":"REAL_REFERENCE","county_route":null,"federal_lands_route":null,"fictionality":"REAL","globalid":"{7E60BDB0-61C0-477C-B2B4-D8EFD5811DA6}","interstate":"5","interstate_a":"5","interstate_b":null,"interstate_c":null,"loaddate":1533980411000,"mtfcc_code":"S1100","name":"I- 5","objectid":20658013,"permanent_identifier":"f8f48bc7-8935-44cd-9cc8-a54ac56ad4a1","real_world_relation":"REFERENCE_ONLY","shape_Length":376.857006371085,"source_datadesc":"2016 October MAFTIGER","source_datasetid":"{155E1578-FAD5-4709-A194-6F828C31A01F}","source_featureid":"110873834135","source_id":"REF-SACRAMENTO-HIGHWAYS","source_originator":"U.S. Department of Commerce, U.S. Census Bureau, Geography Division","state_route":"16,99","state_route_a":"16,99","state_route_b":null,"state_route_c":null,"stco_fipscode":"06067","tnmfrc":1,"us_route":null,"us_route_a":null,"us_route_b":null,"us_route_c":null},"type":"Feature"},{"geometry":{"coordinates":[[-121.507704,38.606081],[-121.507845,38.606358]],"type":"LineString"},"id":"REF-SACRAMENTO-HIGHWAYS-37","properties":{"canon_status":"REAL_REFERENCE","county_route":null,"federal_lands_route":null,"fictionality":"REAL","globalid":"{65F352DF-BA55-4C69-90E8-99DAB078D992}","interstate":"5","interstate_a":"5","interstate_b":null,"interstate_c":null,"loaddate":1533980412000,"mtfcc_code":"S1100","name":"I- 5","objectid":20786608,"permanent_identifier":"a90b92ce-2834-4fcc-ab55-175d731064bc","real_world_relation":"REFERENCE_ONLY","shape_Length":42.46641049155174,"source_datadesc":"2016 October MAFTIGER","source_datasetid":"{155E1578-FAD5-4709-A194-6F828C31A01F}","source_featureid":"110873834135","source_id":"REF-SACRAMENTO-HIGHWAYS","source_originator":"U.S. Department of Commerce, U.S. Census Bureau, Geography Division","state_route":"16,99","state_route_a":"16,99","state_route_b":null,"state_route_c":null,"stco_fipscode":"06067","tnmfrc":1,"us_route":null,"us_route_a":null,"us_route_b":null,"us_route_c":null},"type":"Feature"},{"geometry":{"coordinates":[[-121.505714,38.579648],[-121.505633,38.579737],[-121.50556,38.579818]],"type":"LineString"},"id":"REF-SACRAMENTO-HIGHWAYS-38","properties":{"canon_status":"REAL_REFERENCE","county_route":null,"federal_lands_route":null,"fictionality":"REAL","globalid":"{938FD201-F842-4BD1-935D-5D5849511029}","interstate":"5","interstate_a":"5","interstate_b":null,"interstate_c":null,"loaddate":1533980412000,"mtfcc_code":"S1100","name":"I- 5","objectid":21043165,"permanent_identifier":"d97c975a-7395-4eda-9efa-392bbe0e30da","real_world_relation":"REFERENCE_ONLY","shape_Length":29.663385357248742,"source_datadesc":"2016 October MAFTIGER","source_datasetid":"{155E1578-FAD5-4709-A194-6F828C31A01F}","source_featureid":"110873834135","source_id":"REF-SACRAMENTO-HIGHWAYS","source_originator":"U.S. Department of Commerce, U.S. Census Bureau, Geography Division","state_route":"16,99","state_route_a":"16,99","state_route_b":null,"state_route_c":null,"stco_fipscode":"06067","tnmfrc":1,"us_route":null,"us_route_a":null,"us_route_b":null,"us_route_c":null},"type":"Feature"},{"geometry":{"coordinates":[[-121.503068,38.584413],[-121.503049,38.584804]],"type":"LineString"},"id":"REF-SACRAMENTO-HIGHWAYS-39","properties":{"canon_status":"REAL_REFERENCE","county_route":null,"federal_lands_route":null,"fictionality":"REAL","globalid":"{A8BAD293-203B-4D58-AD4B-8772E227EBA2}","interstate":"5","interstate_a":"5","interstate_b":null,"interstate_c":null,"loaddate":1533980412000,"mtfcc_code":"S1100","name":"I- 5","objectid":21682357,"permanent_identifier":"1c281621-64bb-4fd6-9197-a2b846b40d3b","real_world_relation":"REFERENCE_ONLY","shape_Length":55.722156918040085,"source_datadesc":"2016 October MAFTIGER","source_datasetid":"{155E1578-FAD5-4709-A194-6F828C31A01F}","source_featureid":"110873834134","source_id":"REF-SACRAMENTO-HIGHWAYS","source_originator":"U.S. Department of Commerce, U.S. Census Bureau, Geography Division","state_route":"16,99","state_route_a":"16,99","state_route_b":null,"state_route_c":null,"stco_fipscode":"06067","tnmfrc":1,"us_route":null,"us_route_a":null,"us_route_b":null,"us_route_c":null},"type":"Feature"},{"geometry":{"coordinates":[[-121.506805,38.578852],[-121.506747,38.578909],[-121.505882,38.57978],[-121.505784,38.579878]],"type":"LineString"},"id":"REF-SACRAMENTO-HIGHWAYS-40","properties":{"canon_status":"REAL_REFERENCE","county_route":null,"federal_lands_route":null,"fictionality":"REAL","globalid":"{D0A2DA2F-E503-4068-93B0-26E7EF4EDC1D}","interstate":"5","interstate_a":"5","interstate_b":null,"interstate_c":null,"loaddate":1533980412000,"mtfcc_code":"S1100","name":"I- 5","objectid":21810566,"permanent_identifier":"24bfbe5f-4389-455c-a715-d41fdddd7f22","real_world_relation":"REFERENCE_ONLY","shape_Length":185.1047322059835,"source_datadesc":"2016 October MAFTIGER","source_datasetid":"{155E1578-FAD5-4709-A194-6F828C31A01F}","source_featureid":"110873834134","source_id":"REF-SACRAMENTO-HIGHWAYS","source_originator":"U.S. Department of Commerce, U.S. Census Bureau, Geography Division","state_route":"16,99","state_route_a":"16,99","state_route_b":null,"state_route_c":null,"stco_fipscode":"06067","tnmfrc":1,"us_route":null,"us_route_a":null,"us_route_b":null,"us_route_c":null},"type":"Feature"},{"geometry":{"coordinates":[[-121.468146,38.600372],[-121.467782,38.600435],[-121.467411,38.600456],[-121.46704,38.600437],[-121.466323,38.600324],[-121.466007,38.600274],[-121.465708,38.600243],[-121.465406,38.600234],[-121.461992,38.60023]],"type":"LineString"},"id":"REF-SACRAMENTO-HIGHWAYS-41","properties":{"canon_status":"REAL_REFERENCE","county_route":null,"federal_lands_route":null,"fictionality":"REAL","globalid":"{90FA7B73-D62C-4C4B-8CAE-242AF6FAE533}","interstate":null,"interstate_a":null,"interstate_b":null,"interstate_c":null,"loaddate":1533980411000,"mtfcc_code":"S1100","name":"State Hwy 160","objectid":22835552,"permanent_identifier":"6e074230-7706-4cf9-b784-355506684ce8","real_world_relation":"REFERENCE_ONLY","shape_Length":688.875835747747,"source_datadesc":"2016 October MAFTIGER","source_datasetid":"{155E1578-FAD5-4709-A194-6F828C31A01F}","source_featureid":"110873846305","source_id":"REF-SACRAMENTO-HIGHWAYS","source_originator":"U.S. Department of Commerce, U.S. Census Bureau, Geography Division","state_route":"160","state_route_a":"160","state_route_b":null,"state_route_c":null,"stco_fipscode":"06067","tnmfrc":1,"us_route":null,"us_route_a":null,"us_route_b":null,"us_route_c":null},"type":"Feature"},{"geometry":{"coordinates":[[-121.507461,38.605013],[-121.507643,38.605362],[-121.507887,38.605831],[-121.507958,38.605967]],"type":"LineString"},"id":"REF-SACRAMENTO-HIGHWAYS-42","properties":{"canon_status":"REAL_REFERENCE","county_route":null,"federal_lands_route":null,"fictionality":"REAL","globalid":"{2979E40B-4AC4-430A-A84C-790BC55A89FB}","interstate":"5","interstate_a":"5","interstate_b":null,"interstate_c":null,"loaddate":1533980412000,"mtfcc_code":"S1100","name":"I- 5","objectid":25655698,"permanent_identifier":"2edbb3a6-7144-4cac-a076-c04fa1c60d01","real_world_relation":"REFERENCE_ONLY","shape_Length":146.72818817290073,"source_datadesc":"2016 October MAFTIGER","source_datasetid":"{155E1578-FAD5-4709-A194-6F828C31A01F}","source_featureid":"110873834134","source_id":"REF-SACRAMENTO-HIGHWAYS","source_originator":"U.S. Department of Commerce, U.S. Census Bureau, Geography Division","state_route":"16,99","state_route_a":"16,99","state_route_b":null,"state_route_c":null,"stco_fipscode":"06067","tnmfrc":1,"us_route":null,"us_route_a":null,"us_route_b":null,"us_route_c":null},"type":"Feature"},{"geometry":{"coordinates":[[-121.504952,38.600168],[-121.504979,38.600221],[-121.505018,38.600295],[-121.505076,38.600409],[-121.505364,38.600968],[-121.505469,38.601172]],"type":"LineString"},"id":"REF-SACRAMENTO-HIGHWAYS-43","properties":{"canon_status":"REAL_REFERENCE","county_route":null,"federal_lands_route":null,"fictionality":"REAL","globalid":"{70856146-B563-48BA-BA2A-E91512F4EB96}","interstate":"5","interstate_a":"5","interstate_b":null,"interstate_c":null,"loaddate":1533980412000,"mtfcc_code":"S1100","name":"I- 5","objectid":30148273,"permanent_identifier":"b235025f-c06c-440d-bd3a-04c366d7a20e","real_world_relation":"REFERENCE_ONLY","shape_Length":154.1574663685796,"source_datadesc":"2016 October MAFTIGER","source_datasetid":"{155E1578-FAD5-4709-A194-6F828C31A01F}","source_featureid":"110873834134","source_id":"REF-SACRAMENTO-HIGHWAYS","source_originator":"U.S. Department of Commerce, U.S. Census Bureau, Geography Division","state_route":"16,99","state_route_a":"16,99","state_route_b":null,"state_route_c":null,"stco_fipscode":"06067","tnmfrc":1,"us_route":null,"us_route_a":null,"us_route_b":null,"us_route_c":null},"type":"Feature"},{"geometry":{"coordinates":[[-121.504448,38.593376],[-121.504289,38.594616],[-121.504244,38.595011],[-121.504131,38.595999],[-121.504099,38.596351],[-121.504088,38.596658],[-121.504094,38.596959]],"type":"LineString"},"id":"REF-SACRAMENTO-HIGHWAYS-44","properties":{"canon_status":"REAL_REFERENCE","county_route":null,"federal_lands_route":null,"fictionality":"REAL","globalid":"{F7BB9F65-C52C-484B-BE50-2CB11CE30551}","interstate":"5","interstate_a":"5","interstate_b":null,"interstate_c":null,"loaddate":1533980411000,"mtfcc_code":"S1100","name":"I- 5","objectid":30277130,"permanent_identifier":"a2f9ee24-eb73-417c-99c0-8e027a2afadd","real_world_relation":"REFERENCE_ONLY","shape_Length":512.1440239298138,"source_datadesc":"2016 October MAFTIGER","source_datasetid":"{155E1578-FAD5-4709-A194-6F828C31A01F}","source_featureid":"110873834134","source_id":"REF-SACRAMENTO-HIGHWAYS","source_originator":"U.S. Department of Commerce, U.S. Census Bureau, Geography Division","state_route":"16,99","state_route_a":"16,99","state_route_b":null,"state_route_c":null,"stco_fipscode":"06067","tnmfrc":1,"us_route":null,"us_route_a":null,"us_route_b":null,"us_route_c":null},"type":"Feature"},{"geometry":{"coordinates":[[-121.503049,38.584804],[-121.503048,38.584882],[-121.503057,38.585129],[-121.503081,38.585378],[-121.503093,38.585503],[-121.503137,38.58578],[-121.503176,38.585967],[-121.5032,38.586059],[-121.503247,38.586245],[-121.503362,38.586605],[-121.503588,38.587047],[-121.503742,38.587348],[-121.503867,38.587626],[-121.503877,38.587647],[-121.504436,38.588894],[-121.504525,38.589196]],"type":"LineString"},"id":"REF-SACRAMENTO-HIGHWAYS-45","properties":{"canon_status":"REAL_REFERENCE","county_route":null,"federal_lands_route":null,"fictionality":"REAL","globalid":"{2B214292-5E5E-48BD-9BEA-0ECB6F12D6BC}","interstate":"5","interstate_a":"5","interstate_b":null,"interstate_c":null,"loaddate":1533980413000,"mtfcc_code":"S1100","name":"I- 5","objectid":30791988,"permanent_identifier":"deb0cdcf-183e-41b7-a6e9-e6bb1f3ffee4","real_world_relation":"REFERENCE_ONLY","shape_Length":651.0868734441555,"source_datadesc":"2016 October MAFTIGER","source_datasetid":"{155E1578-FAD5-4709-A194-6F828C31A01F}","source_featureid":"110873834134","source_id":"REF-SACRAMENTO-HIGHWAYS","source_originator":"U.S. Department of Commerce, U.S. Census Bureau, Geography Division","state_route":"16,99","state_route_a":"16,99","state_route_b":null,"state_route_c":null,"stco_fipscode":"06067","tnmfrc":1,"us_route":null,"us_route_a":null,"us_route_b":null,"us_route_c":null},"type":"Feature"},{"geometry":{"coordinates":[[-121.503086,38.584249],[-121.503068,38.584413]],"type":"LineString"},"id":"REF-SACRAMENTO-HIGHWAYS-46","properties":{"canon_status":"REAL_REFERENCE","county_route":null,"federal_lands_route":null,"fictionality":"REAL","globalid":"{273E3108-02DB-450B-8E8A-22A45E34EC3C}","interstate":"5","interstate_a":"5","interstate_b":null,"interstate_c":null,"loaddate":1533980411000,"mtfcc_code":"S1100","name":"I- 5","objectid":31435275,"permanent_identifier":"468d4775-71aa-4c98-b7a5-3104287830a5","real_world_relation":"REFERENCE_ONLY","shape_Length":23.440794331454704,"source_datadesc":"2016 October MAFTIGER","source_datasetid":"{155E1578-FAD5-4709-A194-6F828C31A01F}","source_featureid":"110873834134","source_id":"REF-SACRAMENTO-HIGHWAYS","source_originator":"U.S. Department of Commerce, U.S. Census Bureau, Geography Division","state_route":"16,99","state_route_a":"16,99","state_route_b":null,"state_route_c":null,"stco_fipscode":"06067","tnmfrc":1,"us_route":null,"us_route_a":null,"us_route_b":null,"us_route_c":null},"type":"Feature"},{"geometry":{"coordinates":[[-121.505469,38.601172],[-121.507331,38.604763],[-121.507461,38.605013]],"type":"LineString"},"id":"REF-SACRAMENTO-HIGHWAYS-47","properties":{"canon_status":"REAL_REFERENCE","county_route":null,"federal_lands_route":null,"fictionality":"REAL","globalid":"{E57F0B00-E662-4AFD-A920-1F420241A8C7}","interstate":"5","interstate_a":"5","interstate_b":null,"interstate_c":null,"loaddate":1533980412000,"mtfcc_code":"S1100","name":"I- 5","objectid":31435696,"permanent_identifier":"e5dd4ae8-f0a1-4791-ae96-ddb4599c5c8e","real_world_relation":"REFERENCE_ONLY","shape_Length":590.3628127809236,"source_datadesc":"2016 October MAFTIGER","source_datasetid":"{155E1578-FAD5-4709-A194-6F828C31A01F}","source_featureid":"110873834134","source_id":"REF-SACRAMENTO-HIGHWAYS","source_originator":"U.S. Department of Commerce, U.S. Census Bureau, Geography Division","state_route":"16,99","state_route_a":"16,99","state_route_b":null,"state_route_c":null,"stco_fipscode":"06067","tnmfrc":1,"us_route":null,"us_route_a":null,"us_route_b":null,"us_route_c":null},"type":"Feature"},{"geometry":{"coordinates":[[-121.475988,38.596411],[-121.475571,38.596659]],"type":"LineString"},"id":"REF-SACRAMENTO-HIGHWAYS-48","properties":{"canon_status":"REAL_REFERENCE","county_route":null,"federal_lands_route":null,"fictionality":"REAL","globalid":"{72CF583E-527F-4BCF-996A-7F5103C2F7F3}","interstate":null,"interstate_a":null,"interstate_b":null,"interstate_c":null,"loaddate":1748519528000,"mtfcc_code":"S1100","name":"Hwy 160 E","objectid":31564473,"permanent_identifier":"95445f04-e3e0-4b2d-81bf-afec9315c3a9","real_world_relation":"REFERENCE_ONLY","shape_Length":58.295423649477634,"source_datadesc":"2021 February MAF/TIGER","source_datasetid":"{7AD8F908-E576-4667-ABBE-3F904F423D64}","source_featureid":"1103940360436","source_id":"REF-SACRAMENTO-HIGHWAYS","source_originator":"U.S. Department of Commerce, U.S. Census Bureau, Geography Division","state_route":"160","state_route_a":"160","state_route_b":null,"state_route_c":null,"stco_fipscode":"06067","tnmfrc":1,"us_route":null,"us_route_a":null,"us_route_b":null,"us_route_c":null},"type":"Feature"},{"geometry":{"coordinates":[[-121.464717,38.578739],[-121.464061,38.58038],[-121.463772,38.58087],[-121.463436,38.581341],[-121.463055,38.581789],[-121.462628,38.582213]],"type":"LineString"},"id":"REF-SACRAMENTO-HIGHWAYS-49","properties":{"canon_status":"REAL_REFERENCE","county_route":null,"federal_lands_route":null,"fictionality":"REAL","globalid":"{1FADC46D-6890-4ED3-B7F7-2618484DE245}","interstate":"Bus,80","interstate_a":"Bus,80","interstate_b":null,"interstate_c":null,"loaddate":1748519528000,"mtfcc_code":"S1100","name":"Capitol City Fwy","objectid":33335504,"permanent_identifier":"9e5417b5-a4ae-4854-8198-f3c1048deb11","real_world_relation":"REFERENCE_ONLY","shape_Length":551.9062729633001,"source_datadesc":"2016 October MAFTIGER","source_datasetid":"{7AD8F908-E576-4667-ABBE-3F904F423D64}","source_featureid":"1104485962253","source_id":"REF-SACRAMENTO-HIGHWAYS","source_originator":"U.S. Department of Commerce, U.S. Census Bureau, Geography Division","state_route":null,"state_route_a":null,"state_route_b":null,"state_route_c":null,"stco_fipscode":"06067","tnmfrc":1,"us_route":null,"us_route_a":null,"us_route_b":null,"us_route_c":null},"type":"Feature"},{"geometry":{"coordinates":[[-121.464998,38.578813],[-121.464434,38.580066],[-121.464254,38.580478],[-121.464124,38.580709],[-121.464029,38.580876],[-121.46376,38.581256],[-121.46345,38.581617],[-121.463099,38.581955],[-121.462775,38.582248]],"type":"LineString"},"id":"REF-SACRAMENTO-HIGHWAYS-50","properties":{"canon_status":"REAL_REFERENCE","county_route":null,"federal_lands_route":null,"fictionality":"REAL","globalid":"{A753F6BC-D9C1-4C45-92FF-810CF9546273}","interstate":"Bus,80","interstate_a":"Bus,80","interstate_b":null,"interstate_c":null,"loaddate":1748519528000,"mtfcc_code":"S1100","name":"Capitol City Fwy","objectid":33335508,"permanent_identifier":"08999532-d0d4-4ae5-8c26-fe4e6d238e91","real_world_relation":"REFERENCE_ONLY","shape_Length":554.0195064564932,"source_datadesc":"2016 October MAFTIGER","source_datasetid":"{7AD8F908-E576-4667-ABBE-3F904F423D64}","source_featureid":"1104485962254","source_id":"REF-SACRAMENTO-HIGHWAYS","source_originator":"U.S. Department of Commerce, U.S. Census Bureau, Geography Division","state_route":null,"state_route_a":null,"state_route_b":null,"state_route_c":null,"stco_fipscode":"06067","tnmfrc":1,"us_route":null,"us_route_a":null,"us_route_b":null,"us_route_c":null},"type":"Feature"}],"type":"FeatureCollection"}
