{"features":[{"geometry":{"coordinates":[[-121.501983,38.58523],[-121.499839,38.584749],[-121.499227,38.584615],[-121.498892,38.584545],[-121.49866,38.584522],[-121.498397,38.584527],[-121.498143,38.584566],[-121.497911,38.584638],[-121.497538,38.584801]],"type":"LineString"},"id":"REF-SACRAMENTO-RAIL-1","properties":{"canon_status":"REAL_REFERENCE","fcode":20201,"fictionality":"REAL","globalid":"{5FEC1710-FBAF-4E7E-B0CE-FC5F7B553260}","lengthkm":0.38561797999999997,"loaddate":1758113402000,"name":null,"objectid":922442,"permanent_identifier":"29d9b61b-6c6d-4a75-be61-e7ac3ecc8e2b","railclassification":null,"railowner":"Union Pacific Railroad Company","railownercode":"UP","railsubdivision":null,"railusage":"O","real_world_relation":"REFERENCE_ONLY","shape_Length":517.1302650270147,"source_datadesc":"FRA Rail Lines 07/2025","source_datasetid":"{14EEFC21-039C-4AB1-8866-0FA5FC6A7AEB}","source_featureid":"324971","source_id":"REF-SACRAMENTO-RAIL","source_originator":"Federal Railroad Administration"},"type":"Feature"},{"geometry":{"coordinates":[[-121.50501,38.586267],[-121.504903,38.586445],[-121.504866,38.586508]],"type":"LineString"},"id":"REF-SACRAMENTO-RAIL-2","properties":{"canon_status":"REAL_REFERENCE","fcode":20201,"fictionality":"REAL","globalid":"{E6B7DCBA-8D94-4F75-9963-73540D137C39}","lengthkm":0.03072673,"loaddate":1758113402000,"name":null,"objectid":923341,"permanent_identifier":"4f816cb5-0b39-4f3f-aea9-5895cf5b7d2d","railclassification":null,"railowner":"Union Pacific Railroad Company","railownercode":"UP","railsubdivision":null,"railusage":"O","real_world_relation":"REFERENCE_ONLY","shape_Length":37.86416602355028,"source_datadesc":"FRA Rail Lines 07/2025","source_datasetid":"{14EEFC21-039C-4AB1-8866-0FA5FC6A7AEB}","source_featureid":"341781","source_id":"REF-SACRAMENTO-RAIL","source_originator":"Federal Railroad Administration"},"type":"Feature"},{"geometry":{"coordinates":[[-121.475037,38.58828],[-121.474822,38.589109],[-121.474687,38.589627],[-121.474515,38.590287],[-121.474428,38.590621],[-121.474415,38.590662],[-121.474359,38.590836],[-121.474352,38.590859],[-121.474351,38.590863],[-121.474285,38.591034],[-121.474276,38.591059],[-121.474248,38.591134],[-121.474209,38.59124],[-121.474175,38.591332],[-121.474151,38.591394],[-121.474051,38.591663],[-121.47399,38.591825]],"type":"LineString"},"id":"REF-SACRAMENTO-RAIL-3","properties":{"canon_status":"REAL_REFERENCE","fcode":20200,"fictionality":"REAL","globalid":"{0282E2C8-EB91-4584-9610-54EC3B11D5D9}","lengthkm":0.42645199,"loaddate":1758113402000,"name":null,"objectid":935412,"permanent_identifier":"e2c8e4e5-7b00-497a-84c1-ac8a000afa2a","railclassification":null,"railowner":"Union Pacific Railroad Company","railownercode":"UP","railsubdivision":"SACRAMENTO","railusage":"M","real_world_relation":"REFERENCE_ONLY","shape_Length":518.5294133562637,"source_datadesc":"FRA Rail Lines 07/2025","source_datasetid":"{14EEFC21-039C-4AB1-8866-0FA5FC6A7AEB}","source_featureid":"527471","source_id":"REF-SACRAMENTO-RAIL","source_originator":"Federal Railroad Administration"},"type":"Feature"},{"geometry":{"coordinates":[[-121.496236,38.585958],[-121.496139,38.586178],[-121.495912,38.586694],[-121.495859,38.586797],[-121.495766,38.586981],[-121.495738,38.587035],[-121.495735,38.587041],[-121.49567,38.587125],[-121.495584,38.587235],[-121.495548,38.587268],[-121.495433,38.587375],[-121.495411,38.587392],[-121.49538,38.587415],[-121.495376,38.587418],[-121.495202,38.587549],[-121.495194,38.587555],[-121.495173,38.58757],[-121.495023,38.587647],[-121.494921,38.5877],[-121.49483,38.587732],[-121.494644,38.587798],[-121.494633,38.587802],[-121.494441,38.587844],[-121.494249,38.587885],[-121.492983,38.588077],[-121.49077,38.588411],[-121.489641,38.588582],[-121.489108,38.588632],[-121.489026,38.58864],[-121.488904,38.588638],[-121.488636,38.588634],[-121.488414,38.58863],[-121.48825,38.588609],[-121.48787,38.58856],[-121.487784,38.588549],[-121.487027,38.588387],[-121.487005,38.588381],[-121.486935,38.588362],[-121.486468,38.588236],[-121.482705,38.587217]],"type":"LineString"},"id":"REF-SACRAMENTO-RAIL-4","properties":{"canon_status":"REAL_REFERENCE","fcode":20200,"fictionality":"REAL","globalid":"{0A59D3C8-D524-4E67-853C-1AF05C701C03}","lengthkm":1.2842462000000001,"loaddate":1758113402000,"name":null,"objectid":935432,"permanent_identifier":"b2f55e09-baa8-425a-8003-577549e10b0d","railclassification":null,"railowner":"Union Pacific Railroad Company","railownercode":"UP","railsubdivision":"MARTINEZ","railusage":"M","real_world_relation":"REFERENCE_ONLY","shape_Length":1702.8924534956518,"source_datadesc":"FRA Rail Lines 07/2025","source_datasetid":"{14EEFC21-039C-4AB1-8866-0FA5FC6A7AEB}","source_featureid":"531549","source_id":"REF-SACRAMENTO-RAIL","source_originator":"Federal Railroad Administration"},"type":"Feature"},{"geometry":{"coordinates":[[-121.503229,38.587582],[-121.502827,38.587667],[-121.501931,38.587789]],"type":"LineString"},"id":"REF-SACRAMENTO-RAIL-5","properties":{"canon_status":"REAL_REFERENCE","fcode":20201,"fictionality":"REAL","globalid":"{EC9AFFD7-6E1F-4654-BB9B-B1F5F20D5530}","lengthkm":0.10954407,"loaddate":1758113402000,"name":null,"objectid":947186,"permanent_identifier":"6d8813a9-4c72-4da7-a397-3c40e1d323d0","railclassification":null,"railowner":"Union Pacific Railroad Company","railownercode":"UP","railsubdivision":null,"railusage":"O","real_world_relation":"REFERENCE_ONLY","shape_Length":147.68383767720672,"source_datadesc":"FRA Rail Lines 07/2025","source_datasetid":"{14EEFC21-039C-4AB1-8866-0FA5FC6A7AEB}","source_featureid":"526796","source_id":"REF-SACRAMENTO-RAIL","source_originator":"Federal Railroad Administration"},"type":"Feature"},{"geometry":{"coordinates":[[-121.504279,38.587071],[-121.503985,38.587215],[-121.503733,38.587319],[-121.503325,38.587432],[-121.503082,38.587476],[-121.50206,38.587608]],"type":"LineString"},"id":"REF-SACRAMENTO-RAIL-6","properties":{"canon_status":"REAL_REFERENCE","fcode":20201,"fictionality":"REAL","globalid":"{DE0E5A50-10C1-4B7F-BB1F-64DC1B47D040}","lengthkm":0.19561404,"loaddate":1758113402000,"name":null,"objectid":951258,"permanent_identifier":"6a1fdcb5-70da-4798-bbeb-5ea21c0f8135","railclassification":null,"railowner":"Union Pacific Railroad Company","railownercode":"UP","railsubdivision":null,"railusage":"O","real_world_relation":"REFERENCE_ONLY","shape_Length":261.6304965224369,"source_datadesc":"FRA Rail Lines 07/2025","source_datasetid":"{14EEFC21-039C-4AB1-8866-0FA5FC6A7AEB}","source_featureid":"324514","source_id":"REF-SACRAMENTO-RAIL","source_originator":"Federal Railroad Administration"},"type":"Feature"},{"geometry":{"coordinates":[[-121.503808,38.585559],[-121.50357,38.585526],[-121.502631,38.585336],[-121.502246,38.585286],[-121.501983,38.58523]],"type":"LineString"},"id":"REF-SACRAMENTO-RAIL-7","properties":{"canon_status":"REAL_REFERENCE","fcode":20201,"fictionality":"REAL","globalid":"{A5C3E495-0729-4736-B308-6BB8CD71E2B1}","lengthkm":0.15503002999999999,"loaddate":1758113402000,"name":null,"objectid":951639,"permanent_identifier":"33b697f1-01a3-4ed3-abe0-8d799dac06fc","railclassification":null,"railowner":"Union Pacific Railroad Company","railownercode":"UP","railsubdivision":null,"railusage":"O","real_world_relation":"REFERENCE_ONLY","shape_Length":208.7204522249007,"source_datadesc":"FRA Rail Lines 07/2025","source_datasetid":"{14EEFC21-039C-4AB1-8866-0FA5FC6A7AEB}","source_featureid":"332114","source_id":"REF-SACRAMENTO-RAIL","source_originator":"Federal Railroad Administration"},"type":"Feature"},{"geometry":{"coordinates":[[-121.504866,38.586508],[-121.504642,38.586749]],"type":"LineString"},"id":"REF-SACRAMENTO-RAIL-8","properties":{"canon_status":"REAL_REFERENCE","fcode":20201,"fictionality":"REAL","globalid":"{AC997C32-B7BF-464C-B516-269D10C25BD0}","lengthkm":0.03383589,"loaddate":1758113402000,"name":null,"objectid":951691,"permanent_identifier":"5dcc82a9-cffe-4ef4-abe1-0cabd5b08079","railclassification":null,"railowner":"Union Pacific Railroad Company","railownercode":"UP","railsubdivision":null,"railusage":"O","real_world_relation":"REFERENCE_ONLY","shape_Length":42.438545232621436,"source_datadesc":"FRA Rail Lines 07/2025","source_datasetid":"{14EEFC21-039C-4AB1-8866-0FA5FC6A7AEB}","source_featureid":"332917","source_id":"REF-SACRAMENTO-RAIL","source_originator":"Federal Railroad Administration"},"type":"Feature"},{"geometry":{"coordinates":[[-121.502302,38.585092],[-121.500884,38.584766],[-121.496806,38.583667]],"type":"LineString"},"id":"REF-SACRAMENTO-RAIL-9","properties":{"canon_status":"REAL_REFERENCE","fcode":20200,"fictionality":"REAL","globalid":"{10D9E318-B10F-4F66-BBAD-C70716A2B12B}","lengthkm":0.48170328,"loaddate":1758113402000,"name":null,"objectid":976222,"permanent_identifier":"4c439222-1d8b-4b75-ae7c-b229b25287a4","railclassification":null,"railowner":null,"railownercode":"SCRT","railsubdivision":null,"railusage":"M","real_world_relation":"REFERENCE_ONLY","shape_Length":644.6789167275446,"source_datadesc":"FRA Rail Lines 07/2025","source_datasetid":"{14EEFC21-039C-4AB1-8866-0FA5FC6A7AEB}","source_featureid":"341685","source_id":"REF-SACRAMENTO-RAIL","source_originator":"Federal Railroad Administration"},"type":"Feature"},{"geometry":{"coordinates":[[-121.47879,38.586158],[-121.478579,38.586101],[-121.476879,38.585646]],"type":"LineString"},"id":"REF-SACRAMENTO-RAIL-10","properties":{"canon_status":"REAL_REFERENCE","fcode":20200,"fictionality":"REAL","globalid":"{D15DE210-5670-4CD4-8718-DA481DA8A705}","lengthkm":0.16806854000000002,"loaddate":1758113402000,"name":null,"objectid":976617,"permanent_identifier":"753105e0-6126-4211-9063-7060f7371929","railclassification":null,"railowner":"Union Pacific Railroad Company","railownercode":"UP","railsubdivision":"MARTINEZ","railusage":"M","real_world_relation":"REFERENCE_ONLY","shape_Length":224.78294102725891,"source_datadesc":"FRA Rail Lines 07/2025","source_datasetid":"{14EEFC21-039C-4AB1-8866-0FA5FC6A7AEB}","source_featureid":"344859","source_id":"REF-SACRAMENTO-RAIL","source_originator":"Federal Railroad Administration"},"type":"Feature"},{"geometry":{"coordinates":[[-121.486691,38.588633],[-121.486804,38.588666],[-121.487381,38.588836],[-121.487865,38.588955],[-121.487942,38.588966],[-121.48832,38.589021],[-121.488598,38.589054],[-121.48882,38.58908],[-121.488902,38.589081],[-121.489023,38.589082],[-121.489136,38.589084],[-121.48964,38.589071],[-121.489803,38.589068],[-121.490116,38.589062],[-121.490528,38.589084],[-121.490566,38.58909],[-121.490908,38.589143],[-121.49124,38.589209],[-121.49188,38.589379],[-121.492883,38.589648],[-121.493327,38.58979],[-121.495435,38.590647],[-121.495747,38.590734],[-121.495803,38.590742],[-121.49607,38.590776],[-121.496183,38.590791],[-121.496503,38.5908],[-121.49801,38.590603],[-121.500794,38.590226],[-121.502487,38.590003],[-121.503081,38.589925],[-121.503761,38.58979],[-121.503898,38.589749],[-121.504117,38.589683],[-121.504357,38.589559],[-121.504528,38.589394],[-121.504585,38.58917],[-121.504598,38.588877],[-121.504603,38.588621],[-121.504623,38.588383],[-121.504661,38.587468],[-121.504695,38.587297],[-121.504739,38.587148],[-121.50501,38.586267]],"type":"LineString"},"id":"REF-SACRAMENTO-RAIL-11","properties":{"canon_status":"REAL_REFERENCE","fcode":20201,"fictionality":"REAL","globalid":"{0550E6AE-DD9D-4DBF-9353-24CC9ED37EBC}","lengthkm":1.9197521200000003,"loaddate":1758113402000,"name":null,"objectid":980929,"permanent_identifier":"5f02e776-99b4-4989-8209-033b6654d145","railclassification":null,"railowner":"Union Pacific Railroad Company","railownercode":"UP","railsubdivision":null,"railusage":"O","real_world_relation":"REFERENCE_ONLY","shape_Length":2527.113892238871,"source_datadesc":"FRA Rail Lines 07/2025","source_datasetid":"{14EEFC21-039C-4AB1-8866-0FA5FC6A7AEB}","source_featureid":"344861","source_id":"REF-SACRAMENTO-RAIL","source_originator":"Federal Railroad Administration"},"type":"Feature"},{"geometry":{"coordinates":[[-121.469469,38.599645],[-121.470137,38.599385],[-121.470787,38.599132],[-121.470798,38.599128],[-121.470819,38.59912],[-121.471595,38.598817],[-121.473875,38.597956],[-121.474334,38.597756],[-121.474724,38.597557],[-121.47503,38.597368],[-121.476194,38.596592],[-121.477091,38.596012],[-121.477419,38.595775],[-121.477655,38.595538],[-121.477821,38.595339],[-121.477979,38.595061],[-121.478259,38.594464],[-121.478412,38.594237],[-121.478622,38.594014],[-121.478885,38.593835],[-121.479147,38.593681],[-121.479698,38.593365]],"type":"LineString"},"id":"REF-SACRAMENTO-RAIL-12","properties":{"canon_status":"REAL_REFERENCE","fcode":20200,"fictionality":"REAL","globalid":"{7FC7AAEC-7591-496E-83B7-D6E9AACD2226}","lengthkm":1.1502987299999998,"loaddate":1758113402000,"name":null,"objectid":990534,"permanent_identifier":"898778f9-009b-42f6-ba31-34bf451aee6f","railclassification":null,"railowner":null,"railownercode":"SCRT","railsubdivision":null,"railusage":"M","real_world_relation":"REFERENCE_ONLY","shape_Length":1487.7016079470693,"source_datadesc":"FRA Rail Lines 07/2025","source_datasetid":"{14EEFC21-039C-4AB1-8866-0FA5FC6A7AEB}","source_featureid":"344208","source_id":"REF-SACRAMENTO-RAIL","source_originator":"Federal Railroad Administration"},"type":"Feature"},{"geometry":{"coordinates":[[-121.483953,38.568773],[-121.483781,38.569171],[-121.483494,38.569834],[-121.483412,38.570025],[-121.483371,38.57012],[-121.482859,38.571304],[-121.482379,38.572414],[-121.481903,38.573515],[-121.481777,38.573806],[-121.481415,38.574644],[-121.481291,38.574931],[-121.48093,38.575765],[-121.48047,38.576829],[-121.480243,38.577352],[-121.479929,38.578079],[-121.479516,38.579035],[-121.479043,38.580128],[-121.478574,38.581213],[-121.478146,38.582203],[-121.477623,38.583411],[-121.477149,38.584507],[-121.477066,38.584699],[-121.476862,38.585171],[-121.476707,38.585529],[-121.47668,38.585593],[-121.476673,38.585608],[-121.476673,38.585608],[-121.476648,38.585667],[-121.476499,38.58601],[-121.476487,38.586039],[-121.47583,38.587558],[-121.475668,38.587932],[-121.474847,38.589831],[-121.474688,38.590273],[-121.474686,38.59028],[-121.474622,38.590457],[-121.474541,38.590647],[-121.47439,38.591002],[-121.474195,38.591399],[-121.474143,38.591506],[-121.47399,38.591825]],"type":"LineString"},"id":"REF-SACRAMENTO-RAIL-13","properties":{"canon_status":"REAL_REFERENCE","fcode":20200,"fictionality":"REAL","globalid":"{6A54DBF5-CE55-490E-8664-E827C630B325}","lengthkm":2.83518626,"loaddate":1758113402000,"name":null,"objectid":990831,"permanent_identifier":"0f9f2f9f-8c18-4b9c-bb24-16651ce682e9","railclassification":null,"railowner":"Union Pacific Railroad Company","railownercode":"UP","railsubdivision":"SACRAMENTO","railusage":"M","real_world_relation":"REFERENCE_ONLY","shape_Length":3465.0291888293837,"source_datadesc":"FRA Rail Lines 07/2025","source_datasetid":"{14EEFC21-039C-4AB1-8866-0FA5FC6A7AEB}","source_featureid":"335285","source_id":"REF-SACRAMENTO-RAIL","source_originator":"Federal Railroad Administration"},"type":"Feature"},{"geometry":{"coordinates":[[-121.475037,38.58828],[-121.475082,38.588144],[-121.475148,38.587945],[-121.47539,38.587214],[-121.475485,38.586995],[-121.475589,38.586804],[-121.475713,38.586595],[-121.475846,38.586424],[-121.476018,38.586271],[-121.476218,38.586148],[-121.476443,38.586035],[-121.476484,38.586014],[-121.476487,38.586014],[-121.476499,38.58601],[-121.47677,38.585938],[-121.477065,38.5859],[-121.477312,38.5859],[-121.47756,38.585929],[-121.477807,38.585976],[-121.477872,38.585988],[-121.478571,38.586117],[-121.47879,38.586158]],"type":"LineString"},"id":"REF-SACRAMENTO-RAIL-14","properties":{"canon_status":"REAL_REFERENCE","fcode":20200,"fictionality":"REAL","globalid":"{2AAB2E2E-4F9B-43BD-A4E5-0E4A27F834C0}","lengthkm":0.49632116000000004,"loaddate":1758113402000,"name":null,"objectid":990935,"permanent_identifier":"59ad0c82-d7e5-4248-9474-4544dd0756bf","railclassification":null,"railowner":"Union Pacific Railroad Company","railownercode":"UP","railsubdivision":"SACRAMENTO","railusage":"M","real_world_relation":"REFERENCE_ONLY","shape_Length":636.1531115371118,"source_datadesc":"FRA Rail Lines 07/2025","source_datasetid":"{14EEFC21-039C-4AB1-8866-0FA5FC6A7AEB}","source_featureid":"344874","source_id":"REF-SACRAMENTO-RAIL","source_originator":"Federal Railroad Administration"},"type":"Feature"},{"geometry":{"coordinates":[[-121.503808,38.585559],[-121.503368,38.585444],[-121.503239,38.58541],[-121.502994,38.585346],[-121.502934,38.58533],[-121.502379,38.585185],[-121.502347,38.585176],[-121.50092,38.58486],[-121.500592,38.584787]],"type":"LineString"},"id":"REF-SACRAMENTO-RAIL-15","properties":{"canon_status":"REAL_REFERENCE","fcode":20200,"fictionality":"REAL","globalid":"{E9B66AD6-0911-4250-A669-C8017204E314}","lengthkm":0.27944454,"loaddate":1758113402000,"name":null,"objectid":992872,"permanent_identifier":"ac7e5c72-1f9c-4c11-a28e-5c7375cdcb52","railclassification":null,"railowner":"Union Pacific Railroad Company","railownercode":"UP","railsubdivision":"MARTINEZ","railusage":"M","real_world_relation":"REFERENCE_ONLY","shape_Length":374.59503323476,"source_datadesc":"FRA Rail Lines 07/2025","source_datasetid":"{14EEFC21-039C-4AB1-8866-0FA5FC6A7AEB}","source_featureid":"536136","source_id":"REF-SACRAMENTO-RAIL","source_originator":"Federal Railroad Administration"},"type":"Feature"},{"geometry":{"coordinates":[[-121.504279,38.587071],[-121.504048,38.587222],[-121.503829,38.587344]],"type":"LineString"},"id":"REF-SACRAMENTO-RAIL-16","properties":{"canon_status":"REAL_REFERENCE","fcode":20201,"fictionality":"REAL","globalid":"{8C2FB392-B5BB-44AF-BA8D-B58C92197852}","lengthkm":0.049021010000000004,"loaddate":1758113402000,"name":null,"objectid":994218,"permanent_identifier":"9657c223-4fba-475d-8c5d-3308905c13ef","railclassification":null,"railowner":"Union Pacific Railroad Company","railownercode":"UP","railsubdivision":null,"railusage":"O","real_world_relation":"REFERENCE_ONLY","shape_Length":63.45379639908079,"source_datadesc":"FRA Rail Lines 07/2025","source_datasetid":"{14EEFC21-039C-4AB1-8866-0FA5FC6A7AEB}","source_featureid":"325011","source_id":"REF-SACRAMENTO-RAIL","source_originator":"Federal Railroad Administration"},"type":"Feature"},{"geometry":{"coordinates":[[-121.498014,38.580116],[-121.497918,38.580205],[-121.497835,38.580246],[-121.497646,38.580239],[-121.497388,38.58017],[-121.496693,38.579956],[-121.496509,38.579899],[-121.496146,38.579782]],"type":"LineString"},"id":"REF-SACRAMENTO-RAIL-17","properties":{"canon_status":"REAL_REFERENCE","fcode":20200,"fictionality":"REAL","globalid":"{D551E407-03FB-4A60-BF37-62D29C84D7EE}","lengthkm":0.17154698000000002,"loaddate":1758113402000,"name":null,"objectid":1004903,"permanent_identifier":"59fc7887-c6f5-4fd4-aa31-facc6ce6603f","railclassification":null,"railowner":null,"railownercode":"SCRT","railsubdivision":null,"railusage":"M","real_world_relation":"REFERENCE_ONLY","shape_Length":227.8727121786571,"source_datadesc":"FRA Rail Lines 07/2025","source_datasetid":"{14EEFC21-039C-4AB1-8866-0FA5FC6A7AEB}","source_featureid":"333192","source_id":"REF-SACRAMENTO-RAIL","source_originator":"Federal Railroad Administration"},"type":"Feature"},{"geometry":{"coordinates":[[-121.470846,38.636922],[-121.470821,38.636792],[-121.469516,38.629904],[-121.469001,38.627187],[-121.468829,38.626279],[-121.468639,38.625276],[-121.467912,38.621439],[-121.467599,38.619783],[-121.467591,38.619744],[-121.467394,38.618704],[-121.46729,38.618155],[-121.467233,38.617852],[-121.467051,38.616892],[-121.466618,38.614607],[-121.466549,38.614206],[-121.466462,38.613697],[-121.466444,38.61353],[-121.466379,38.612926],[-121.466375,38.61285],[-121.466353,38.612408],[-121.466348,38.612322],[-121.466351,38.611982],[-121.466351,38.611932],[-121.466352,38.611898],[-121.466355,38.611512],[-121.466355,38.611466],[-121.466369,38.611268],[-121.466371,38.61124],[-121.466372,38.611227],[-121.466393,38.610924],[-121.466406,38.610751],[-121.466406,38.610745],[-121.466407,38.610742],[-121.466423,38.610611],[-121.466459,38.610333],[-121.466491,38.610082],[-121.466517,38.609942],[-121.466625,38.60937],[-121.466629,38.609349],[-121.466748,38.608867],[-121.466792,38.608688],[-121.466869,38.608438],[-121.467019,38.607949],[-121.467044,38.607883],[-121.467255,38.607314],[-121.467261,38.6073],[-121.467553,38.606625],[-121.467973,38.605653]],"type":"LineString"},"id":"REF-SACRAMENTO-RAIL-18","properties":{"canon_status":"REAL_REFERENCE","fcode":20200,"fictionality":"REAL","globalid":"{97FA63E9-BD4F-4F54-A086-6E72CC658966}","lengthkm":3.72149337,"loaddate":1758113402000,"name":null,"objectid":1019736,"permanent_identifier":"a615c19b-4264-4481-8808-9d37a3626433","railclassification":null,"railowner":"Union Pacific Railroad Company","railownercode":"UP","railsubdivision":"SACRAMENTO","railusage":"M","real_world_relation":"REFERENCE_ONLY","shape_Length":4514.824863001336,"source_datadesc":"FRA Rail Lines 07/2025","source_datasetid":"{14EEFC21-039C-4AB1-8866-0FA5FC6A7AEB}","source_featureid":"329039","source_id":"REF-SACRAMENTO-RAIL","source_originator":"Federal Railroad Administration"},"type":"Feature"},{"geometry":{"coordinates":[[-121.470431,38.599974],[-121.470454,38.599921],[-121.470456,38.599914],[-121.470459,38.599908],[-121.470795,38.599134],[-121.470798,38.599128],[-121.470831,38.599052],[-121.471072,38.598497],[-121.471628,38.597214],[-121.473048,38.593943],[-121.473074,38.593882],[-121.473537,38.592823],[-121.47373,38.59238],[-121.4738,38.59222],[-121.47399,38.591825]],"type":"LineString"},"id":"REF-SACRAMENTO-RAIL-19","properties":{"canon_status":"REAL_REFERENCE","fcode":20200,"fictionality":"REAL","globalid":"{CDA02659-8482-4EE6-8983-A6B5A931E76D}","lengthkm":1.00316662,"loaddate":1758113402000,"name":null,"objectid":1019885,"permanent_identifier":"fb9e12d9-68f7-450a-8a8d-f45f13ed6993","railclassification":null,"railowner":"Union Pacific Railroad Company","railownercode":"UP","railsubdivision":"SACRAMENTO","railusage":"M","real_world_relation":"REFERENCE_ONLY","shape_Length":1226.500093240649,"source_datadesc":"FRA Rail Lines 07/2025","source_datasetid":"{14EEFC21-039C-4AB1-8866-0FA5FC6A7AEB}","source_featureid":"345872","source_id":"REF-SACRAMENTO-RAIL","source_originator":"Federal Railroad Administration"},"type":"Feature"},{"geometry":{"coordinates":[[-121.504642,38.586749],[-121.504372,38.586925]],"type":"LineString"},"id":"REF-SACRAMENTO-RAIL-20","properties":{"canon_status":"REAL_REFERENCE","fcode":20201,"fictionality":"REAL","globalid":"{D93B506F-B2AA-4C63-AA7B-95F05D9D46C9}","lengthkm":0.03039503,"loaddate":1758113402000,"name":null,"objectid":1023781,"permanent_identifier":"ae789a02-6e89-488a-9e90-1417f1f0c012","railclassification":null,"railowner":"Union Pacific Railroad Company","railownercode":"UP","railsubdivision":null,"railusage":"O","real_world_relation":"REFERENCE_ONLY","shape_Length":39.182361554501114,"source_datadesc":"FRA Rail Lines 07/2025","source_datasetid":"{14EEFC21-039C-4AB1-8866-0FA5FC6A7AEB}","source_featureid":"335129","source_id":"REF-SACRAMENTO-RAIL","source_originator":"Federal Railroad Administration"},"type":"Feature"},{"geometry":{"coordinates":[[-121.492376,38.592093],[-121.491174,38.591758],[-121.49089,38.591636],[-121.490742,38.591547],[-121.49062,38.591474],[-121.490343,38.591239],[-121.488579,38.58961]],"type":"LineString"},"id":"REF-SACRAMENTO-RAIL-21","properties":{"canon_status":"REAL_REFERENCE","fcode":20201,"fictionality":"REAL","globalid":"{66CBACE1-C5CB-429A-9E8D-5007686BA5A3}","lengthkm":0.43913796000000005,"loaddate":1758113402000,"name":null,"objectid":1024003,"permanent_identifier":"f0cd7eb4-fa5f-420e-b9cf-59191984a82d","railclassification":null,"railowner":"Union Pacific Railroad Company","railownercode":"UP","railsubdivision":null,"railusage":"O","real_world_relation":"REFERENCE_ONLY","shape_Length":565.4422424731429,"source_datadesc":"FRA Rail Lines 07/2025","source_datasetid":"{14EEFC21-039C-4AB1-8866-0FA5FC6A7AEB}","source_featureid":"339236","source_id":"REF-SACRAMENTO-RAIL","source_originator":"Federal Railroad Administration"},"type":"Feature"},{"geometry":{"coordinates":[[-121.488579,38.58961],[-121.488359,38.589432],[-121.488103,38.589247],[-121.487833,38.589125],[-121.487385,38.588941],[-121.487058,38.588818],[-121.486795,38.588686],[-121.486691,38.588633]],"type":"LineString"},"id":"REF-SACRAMENTO-RAIL-22","properties":{"canon_status":"REAL_REFERENCE","fcode":20201,"fictionality":"REAL","globalid":"{7C51344D-4D80-4B52-A36D-B3A7B8FEFEC3}","lengthkm":0.19484141,"loaddate":1758113402000,"name":null,"objectid":1024300,"permanent_identifier":"7958ce7a-37f7-4437-ab8b-3e709775d31f","railclassification":null,"railowner":"Union Pacific Railroad Company","railownercode":"UP","railsubdivision":null,"railusage":"O","real_world_relation":"REFERENCE_ONLY","shape_Length":254.20776434253247,"source_datadesc":"FRA Rail Lines 07/2025","source_datasetid":"{14EEFC21-039C-4AB1-8866-0FA5FC6A7AEB}","source_featureid":"344860","source_id":"REF-SACRAMENTO-RAIL","source_originator":"Federal Railroad Administration"},"type":"Feature"},{"geometry":{"coordinates":[[-121.496811,38.579679],[-121.498504,38.57575],[-121.498508,38.575661],[-121.498447,38.575558],[-121.498242,38.575441]],"type":"LineString"},"id":"REF-SACRAMENTO-RAIL-23","properties":{"canon_status":"REAL_REFERENCE","fcode":20200,"fictionality":"REAL","globalid":"{1E81D021-6CA9-406C-924E-4B12D21DB9F6}","lengthkm":0.5285721500000001,"loaddate":1758113402000,"name":null,"objectid":1034072,"permanent_identifier":"36e1cb11-17b4-4cc8-9d90-306e6df80cd8","railclassification":null,"railowner":null,"railownercode":"SCRT","railsubdivision":null,"railusage":"M","real_world_relation":"REFERENCE_ONLY","shape_Length":647.6014922945008,"source_datadesc":"FRA Rail Lines 07/2025","source_datasetid":"{14EEFC21-039C-4AB1-8866-0FA5FC6A7AEB}","source_featureid":"326861","source_id":"REF-SACRAMENTO-RAIL","source_originator":"Federal Railroad Administration"},"type":"Feature"},{"geometry":{"coordinates":[[-121.514772,38.587637],[-121.514489,38.587623],[-121.51399,38.587597],[-121.513044,38.587549],[-121.513031,38.587548],[-121.512161,38.587499],[-121.511764,38.587476],[-121.511695,38.587472],[-121.51129,38.587421],[-121.510837,38.587364],[-121.510652,38.587341],[-121.510321,38.587271],[-121.510303,38.587267],[-121.510048,38.587214],[-121.509879,38.587178],[-121.509505,38.587078],[-121.509126,38.586977],[-121.508891,38.586915],[-121.50879,38.586888],[-121.508067,38.586696],[-121.507555,38.586559],[-121.506339,38.586234],[-121.506178,38.586191]],"type":"LineString"},"id":"REF-SACRAMENTO-RAIL-24","properties":{"canon_status":"REAL_REFERENCE","fcode":20200,"fictionality":"REAL","globalid":"{1629FA40-5E09-4178-8448-671DC2F2EE59}","lengthkm":0.7323453700000001,"loaddate":1758113402000,"name":null,"objectid":1034318,"permanent_identifier":"355992d4-2cfc-4322-b77b-c9ce9e57a00c","railclassification":null,"railowner":"Union Pacific Railroad Company","railownercode":"UP","railsubdivision":"MARTINEZ","railusage":"M","real_world_relation":"REFERENCE_ONLY","shape_Length":985.4314778229364,"source_datadesc":"FRA Rail Lines 07/2025","source_datasetid":"{14EEFC21-039C-4AB1-8866-0FA5FC6A7AEB}","source_featureid":"329388","source_id":"REF-SACRAMENTO-RAIL","source_originator":"Federal Railroad Administration"},"type":"Feature"},{"geometry":{"coordinates":[[-121.486691,38.588633],[-121.486422,38.588539],[-121.486237,38.588474],[-121.485624,38.588239],[-121.484968,38.587984],[-121.484222,38.587712],[-121.483326,38.587465],[-121.482705,38.587217]],"type":"LineString"},"id":"REF-SACRAMENTO-RAIL-25","properties":{"canon_status":"REAL_REFERENCE","fcode":20201,"fictionality":"REAL","globalid":"{F927DC38-0BCA-49E8-B25D-E9998CCA1D68}","lengthkm":0.36786799000000003,"loaddate":1758113402000,"name":null,"objectid":1038054,"permanent_identifier":"f111650e-2822-466b-b905-46e88ca74670","railclassification":null,"railowner":"Union Pacific Railroad Company","railownercode":"UP","railsubdivision":null,"railusage":"O","real_world_relation":"REFERENCE_ONLY","shape_Length":487.92099616511445,"source_datadesc":"FRA Rail Lines 07/2025","source_datasetid":"{14EEFC21-039C-4AB1-8866-0FA5FC6A7AEB}","source_featureid":"331048","source_id":"REF-SACRAMENTO-RAIL","source_originator":"Federal Railroad Administration"},"type":"Feature"},{"geometry":{"coordinates":[[-121.503583,38.587453],[-121.503229,38.587582]],"type":"LineString"},"id":"REF-SACRAMENTO-RAIL-26","properties":{"canon_status":"REAL_REFERENCE","fcode":20201,"fictionality":"REAL","globalid":"{8706CD95-918B-428A-9A9B-A31FB9CABB47}","lengthkm":0.03282541,"loaddate":1758113402000,"name":null,"objectid":1038075,"permanent_identifier":"3a7eeb8c-cc48-412d-b1af-e043ff2bb357","railclassification":null,"railowner":"Union Pacific Railroad Company","railownercode":"UP","railsubdivision":null,"railusage":"O","real_world_relation":"REFERENCE_ONLY","shape_Length":43.50039413132187,"source_datadesc":"FRA Rail Lines 07/2025","source_datasetid":"{14EEFC21-039C-4AB1-8866-0FA5FC6A7AEB}","source_featureid":"331511","source_id":"REF-SACRAMENTO-RAIL","source_originator":"Federal Railroad Administration"},"type":"Feature"},{"geometry":{"coordinates":[[-121.503829,38.587344],[-121.503433,38.587455],[-121.503154,38.587519],[-121.502135,38.587653]],"type":"LineString"},"id":"REF-SACRAMENTO-RAIL-27","properties":{"canon_status":"REAL_REFERENCE","fcode":20201,"fictionality":"REAL","globalid":"{4ECF7670-EAA9-4E7C-83B2-24D35C1D400C}","lengthkm":0.14437237,"loaddate":1758113402000,"name":null,"objectid":1038314,"permanent_identifier":"d8a75d47-b4ff-4f0d-800b-4ac4bfde8e00","railclassification":null,"railowner":"Union Pacific Railroad Company","railownercode":"UP","railsubdivision":null,"railusage":"O","real_world_relation":"REFERENCE_ONLY","shape_Length":194.26885789813505,"source_datadesc":"FRA Rail Lines 07/2025","source_datasetid":"{14EEFC21-039C-4AB1-8866-0FA5FC6A7AEB}","source_featureid":"336063","source_id":"REF-SACRAMENTO-RAIL","source_originator":"Federal Railroad Administration"},"type":"Feature"},{"geometry":{"coordinates":[[-121.504372,38.586925],[-121.504159,38.587048],[-121.503883,38.587184],[-121.503559,38.587257],[-121.503181,38.587314],[-121.502572,38.587403]],"type":"LineString"},"id":"REF-SACRAMENTO-RAIL-28","properties":{"canon_status":"REAL_REFERENCE","fcode":20201,"fictionality":"REAL","globalid":"{22C93341-B670-4935-A6CD-135B79934130}","lengthkm":0.1612674,"loaddate":1758113402000,"name":null,"objectid":1038667,"permanent_identifier":"f61fbe45-89cb-4c0e-936a-dd1d2ad8b923","railclassification":null,"railowner":"Union Pacific Railroad Company","railownercode":"UP","railsubdivision":null,"railusage":"O","real_world_relation":"REFERENCE_ONLY","shape_Length":215.108040702916,"source_datadesc":"FRA Rail Lines 07/2025","source_datasetid":"{14EEFC21-039C-4AB1-8866-0FA5FC6A7AEB}","source_featureid":"343210","source_id":"REF-SACRAMENTO-RAIL","source_originator":"Federal Railroad Administration"},"type":"Feature"},{"geometry":{"coordinates":[[-121.469469,38.599645],[-121.469018,38.599841],[-121.468747,38.599999],[-121.468524,38.600163],[-121.468222,38.600448],[-121.468025,38.600727],[-121.467789,38.601211],[-121.467627,38.601575],[-121.467478,38.601873],[-121.467351,38.602045],[-121.467158,38.602224],[-121.46694,38.602375],[-121.466717,38.602505],[-121.466358,38.602684],[-121.463816,38.603916],[-121.459313,38.606083],[-121.459003,38.60623],[-121.458749,38.606287]],"type":"LineString"},"id":"REF-SACRAMENTO-RAIL-29","properties":{"canon_status":"REAL_REFERENCE","fcode":20200,"fictionality":"REAL","globalid":"{88AC20CC-49C1-4CCF-89F6-51333B284C44}","lengthkm":1.21049739,"loaddate":1758113402000,"name":null,"objectid":1048246,"permanent_identifier":"5407582e-6896-4baf-b4e0-05ff7ff2c761","railclassification":null,"railowner":null,"railownercode":"SCRT","railsubdivision":null,"railusage":"M","real_world_relation":"REFERENCE_ONLY","shape_Length":1565.390144566627,"source_datadesc":"FRA Rail Lines 07/2025","source_datasetid":"{14EEFC21-039C-4AB1-8866-0FA5FC6A7AEB}","source_featureid":"332454","source_id":"REF-SACRAMENTO-RAIL","source_originator":"Federal Railroad Administration"},"type":"Feature"},{"geometry":{"coordinates":[[-121.476879,38.585646],[-121.47668,38.585593],[-121.476675,38.585592],[-121.476671,38.58559],[-121.476413,38.585521],[-121.470393,38.58391]],"type":"LineString"},"id":"REF-SACRAMENTO-RAIL-30","properties":{"canon_status":"REAL_REFERENCE","fcode":20200,"fictionality":"REAL","globalid":"{00E7F2E8-8D04-4131-859C-28581CA78755}","lengthkm":0.57067843,"loaddate":1758113402000,"name":null,"objectid":1048451,"permanent_identifier":"84d90379-9afc-4b53-813c-34f36c059b69","railclassification":null,"railowner":"Union Pacific Railroad Company","railownercode":"UP","railsubdivision":"MARTINEZ","railusage":"M","real_world_relation":"REFERENCE_ONLY","shape_Length":763.2404767439492,"source_datadesc":"FRA Rail Lines 07/2025","source_datasetid":"{14EEFC21-039C-4AB1-8866-0FA5FC6A7AEB}","source_featureid":"324873","source_id":"REF-SACRAMENTO-RAIL","source_originator":"Federal Railroad Administration"},"type":"Feature"},{"geometry":{"coordinates":[[-121.503229,38.587582],[-121.502851,38.587698],[-121.501931,38.587827]],"type":"LineString"},"id":"REF-SACRAMENTO-RAIL-31","properties":{"canon_status":"REAL_REFERENCE","fcode":20201,"fictionality":"REAL","globalid":"{D5A5F816-E611-4718-95EB-644A0CDA1C30}","lengthkm":0.11103471,"loaddate":1758113402000,"name":null,"objectid":1052531,"permanent_identifier":"9019087a-4d6e-4cc3-bfb3-c83ef45b192c","railclassification":null,"railowner":"Union Pacific Railroad Company","railownercode":"UP","railsubdivision":null,"railusage":"O","real_world_relation":"REFERENCE_ONLY","shape_Length":149.31272975782937,"source_datadesc":"FRA Rail Lines 07/2025","source_datasetid":"{14EEFC21-039C-4AB1-8866-0FA5FC6A7AEB}","source_featureid":"336542","source_id":"REF-SACRAMENTO-RAIL","source_originator":"Federal Railroad Administration"},"type":"Feature"},{"geometry":{"coordinates":[[-121.503583,38.587453],[-121.503169,38.587563],[-121.502848,38.587615],[-121.502123,38.587712],[-121.501478,38.587799]],"type":"LineString"},"id":"REF-SACRAMENTO-RAIL-32","properties":{"canon_status":"REAL_REFERENCE","fcode":20201,"fictionality":"REAL","globalid":"{E83BB5A3-1686-43A7-88DF-5EB3FCD6B3DF}","lengthkm":0.17810574,"loaddate":1758113402000,"name":null,"objectid":1052584,"permanent_identifier":"28deb588-7254-414e-8077-1fed7f32b41e","railclassification":null,"railowner":"Union Pacific Railroad Company","railownercode":"UP","railsubdivision":null,"railusage":"O","real_world_relation":"REFERENCE_ONLY","shape_Length":239.98773747340203,"source_datadesc":"FRA Rail Lines 07/2025","source_datasetid":"{14EEFC21-039C-4AB1-8866-0FA5FC6A7AEB}","source_featureid":"337536","source_id":"REF-SACRAMENTO-RAIL","source_originator":"Federal Railroad Administration"},"type":"Feature"},{"geometry":{"coordinates":[[-121.496561,38.580267],[-121.496566,38.580102],[-121.496535,38.580019],[-121.496426,38.57994],[-121.496146,38.579782]],"type":"LineString"},"id":"REF-SACRAMENTO-RAIL-33","properties":{"canon_status":"REAL_REFERENCE","fcode":20200,"fictionality":"REAL","globalid":"{290E2715-2A8E-48C5-B7B9-2CA188BC1671}","lengthkm":0.07195963000000001,"loaddate":1758113402000,"name":null,"objectid":1062621,"permanent_identifier":"b0ea4ae8-e1ba-4446-ad45-0dfa926acb1c","railclassification":null,"railowner":null,"railownercode":"SCRT","railsubdivision":null,"railusage":"M","real_world_relation":"REFERENCE_ONLY","shape_Length":90.72390975213708,"source_datadesc":"FRA Rail Lines 07/2025","source_datasetid":"{14EEFC21-039C-4AB1-8866-0FA5FC6A7AEB}","source_featureid":"341629","source_id":"REF-SACRAMENTO-RAIL","source_originator":"Federal Railroad Administration"},"type":"Feature"},{"geometry":{"coordinates":[[-121.499749,38.5846],[-121.499577,38.584562],[-121.499505,38.584546],[-121.499245,38.584488],[-121.499073,38.58445],[-121.499066,38.584449],[-121.499,38.584443],[-121.498803,38.584424],[-121.498576,38.584403],[-121.498569,38.584402],[-121.498317,38.584435],[-121.498097,38.584464],[-121.498063,38.584475],[-121.497775,38.58457],[-121.497501,38.584661],[-121.497488,38.584668],[-121.497193,38.584819],[-121.49705,38.584892],[-121.496891,38.585014],[-121.496698,38.585162],[-121.49668,38.585183],[-121.496572,38.585306],[-121.496564,38.585316],[-121.496538,38.585345],[-121.496455,38.585486],[-121.496411,38.58556],[-121.496335,38.585733],[-121.496315,38.585779],[-121.496236,38.585958]],"type":"LineString"},"id":"REF-SACRAMENTO-RAIL-34","properties":{"canon_status":"REAL_REFERENCE","fcode":20200,"fictionality":"REAL","globalid":"{49E0AF59-3CCE-45A8-A14C-2B976A8E9F9D}","lengthkm":0.38423433000000007,"loaddate":1758113402000,"name":null,"objectid":1062851,"permanent_identifier":"55050206-cfa2-45ce-850c-05ae09286ccf","railclassification":null,"railowner":"Union Pacific Railroad Company","railownercode":"UP","railsubdivision":"MARTINEZ","railusage":"M","real_world_relation":"REFERENCE_ONLY","shape_Length":500.1816126317785,"source_datadesc":"FRA Rail Lines 07/2025","source_datasetid":"{14EEFC21-039C-4AB1-8866-0FA5FC6A7AEB}","source_featureid":"327446","source_id":"REF-SACRAMENTO-RAIL","source_originator":"Federal Railroad Administration"},"type":"Feature"},{"geometry":{"coordinates":[[-121.470393,38.58391],[-121.471286,38.584176],[-121.471963,38.584377],[-121.472874,38.584653],[-121.473066,38.584711],[-121.473219,38.584758],[-121.473724,38.584939],[-121.473774,38.58496],[-121.473776,38.58496],[-121.473777,38.584961],[-121.474047,38.585072],[-121.474142,38.585128],[-121.474352,38.585253],[-121.474411,38.585301],[-121.4746,38.585453],[-121.47462,38.585472],[-121.474706,38.585552],[-121.474778,38.585618],[-121.474857,38.585691],[-121.474907,38.585759],[-121.475018,38.585909],[-121.475047,38.585948],[-121.4751,38.58605],[-121.475123,38.586094],[-121.47518,38.586205],[-121.475199,38.586268],[-121.475256,38.586462],[-121.475259,38.586475],[-121.475301,38.586712],[-121.475304,38.586728],[-121.475312,38.58696],[-121.475313,38.587004],[-121.475275,38.587242],[-121.475253,38.587338],[-121.475037,38.58828]],"type":"LineString"},"id":"REF-SACRAMENTO-RAIL-35","properties":{"canon_status":"REAL_REFERENCE","fcode":20200,"fictionality":"REAL","globalid":"{627B1BE2-0F94-45D5-B193-CFF044CFE073}","lengthkm":0.7424047300000001,"loaddate":1758113402000,"name":null,"objectid":1062921,"permanent_identifier":"c9066f65-9d68-4817-8f3a-c8c0e1fc0e7a","railclassification":null,"railowner":"Union Pacific Railroad Company","railownercode":"UP","railsubdivision":"SACRAMENTO","railusage":"M","real_world_relation":"REFERENCE_ONLY","shape_Length":947.3035097165844,"source_datadesc":"FRA Rail Lines 07/2025","source_datasetid":"{14EEFC21-039C-4AB1-8866-0FA5FC6A7AEB}","source_featureid":"337576","source_id":"REF-SACRAMENTO-RAIL","source_originator":"Federal Railroad Administration"},"type":"Feature"},{"geometry":{"coordinates":[[-121.504697,38.586746],[-121.504408,38.587048],[-121.50415,38.587309],[-121.503961,38.587472],[-121.503625,38.587672],[-121.503199,38.587872],[-121.502866,38.587982],[-121.502581,38.588032],[-121.50224,38.588048],[-121.501916,38.588051],[-121.501511,38.58806],[-121.501307,38.58807]],"type":"LineString"},"id":"REF-SACRAMENTO-RAIL-36","properties":{"canon_status":"REAL_REFERENCE","fcode":20201,"fictionality":"REAL","globalid":"{DAC85F13-7728-457F-AF40-C81198D040E9}","lengthkm":0.34242684,"loaddate":1758113402000,"name":null,"objectid":1066319,"permanent_identifier":"6dbc6aa2-7bf3-455a-961f-afff3a4b1a6a","railclassification":null,"railowner":"Union Pacific Railroad Company","railownercode":"UP","railsubdivision":null,"railusage":"O","real_world_relation":"REFERENCE_ONLY","shape_Length":449.10086522615313,"source_datadesc":"FRA Rail Lines 07/2025","source_datasetid":"{14EEFC21-039C-4AB1-8866-0FA5FC6A7AEB}","source_featureid":"327539","source_id":"REF-SACRAMENTO-RAIL","source_originator":"Federal Railroad Administration"},"type":"Feature"},{"geometry":{"coordinates":[[-121.496806,38.583667],[-121.495424,38.583303],[-121.495327,38.58321],[-121.495306,38.583124],[-121.495354,38.582976],[-121.495923,38.581668],[-121.496071,38.581407],[-121.496207,38.581153],[-121.496561,38.580267]],"type":"LineString"},"id":"REF-SACRAMENTO-RAIL-37","properties":{"canon_status":"REAL_REFERENCE","fcode":20200,"fictionality":"REAL","globalid":"{8CA78784-3AEE-41CB-9693-11EFC6723491}","lengthkm":0.49731889,"loaddate":1758113402000,"name":null,"objectid":1076793,"permanent_identifier":"842f90cf-dd2f-4601-9fea-6ad023f1d372","railclassification":null,"railowner":null,"railownercode":"SCRT","railsubdivision":null,"railusage":"M","real_world_relation":"REFERENCE_ONLY","shape_Length":622.5007405631716,"source_datadesc":"FRA Rail Lines 07/2025","source_datasetid":"{14EEFC21-039C-4AB1-8866-0FA5FC6A7AEB}","source_featureid":"325355","source_id":"REF-SACRAMENTO-RAIL","source_originator":"Federal Railroad Administration"},"type":"Feature"},{"geometry":{"coordinates":[[-121.504866,38.586508],[-121.504697,38.586746]],"type":"LineString"},"id":"REF-SACRAMENTO-RAIL-38","properties":{"canon_status":"REAL_REFERENCE","fcode":20201,"fictionality":"REAL","globalid":"{AB00BF97-848B-4837-8C57-AFE47F51EE99}","lengthkm":0.03130214,"loaddate":1758113402000,"name":null,"objectid":1080459,"permanent_identifier":"65ba56f8-8eed-4e91-83c1-168bfa5490e4","railclassification":null,"railowner":"Union Pacific Railroad Company","railownercode":"UP","railsubdivision":null,"railusage":"O","real_world_relation":"REFERENCE_ONLY","shape_Length":38.79473117730697,"source_datadesc":"FRA Rail Lines 07/2025","source_datasetid":"{14EEFC21-039C-4AB1-8866-0FA5FC6A7AEB}","source_featureid":"325227","source_id":"REF-SACRAMENTO-RAIL","source_originator":"Federal Railroad Administration"},"type":"Feature"},{"geometry":{"coordinates":[[-121.504642,38.586749],[-121.504399,38.586973],[-121.504279,38.587071]],"type":"LineString"},"id":"REF-SACRAMENTO-RAIL-39","properties":{"canon_status":"REAL_REFERENCE","fcode":20201,"fictionality":"REAL","globalid":"{3F488538-A73A-4D88-A0ED-48856486FEF5}","lengthkm":0.04829445,"loaddate":1758113402000,"name":null,"objectid":1080471,"permanent_identifier":"0871490e-9cc3-4963-a2d4-4e4d11c09314","railclassification":null,"railowner":"Union Pacific Railroad Company","railownercode":"UP","railsubdivision":null,"railusage":"O","real_world_relation":"REFERENCE_ONLY","shape_Length":61.19059943172358,"source_datadesc":"FRA Rail Lines 07/2025","source_datasetid":"{14EEFC21-039C-4AB1-8866-0FA5FC6A7AEB}","source_featureid":"325512","source_id":"REF-SACRAMENTO-RAIL","source_originator":"Federal Railroad Administration"},"type":"Feature"},{"geometry":{"coordinates":[[-121.497538,38.584801],[-121.497223,38.584944],[-121.497065,38.585034],[-121.496939,38.585126],[-121.496813,38.585237],[-121.496705,38.585344],[-121.496602,38.585465],[-121.496498,38.585622],[-121.496397,38.5858],[-121.496236,38.585958]],"type":"LineString"},"id":"REF-SACRAMENTO-RAIL-40","properties":{"canon_status":"REAL_REFERENCE","fcode":20201,"fictionality":"REAL","globalid":"{06DD0FAB-E54B-4C04-B8E0-CFDD49B90322}","lengthkm":0.17703581000000002,"loaddate":1758113402000,"name":null,"objectid":1081456,"permanent_identifier":"f601962c-1b3a-4973-b3d6-c75b467858d3","railclassification":null,"railowner":"Union Pacific Railroad Company","railownercode":"UP","railsubdivision":null,"railusage":"O","real_world_relation":"REFERENCE_ONLY","shape_Length":224.46651422551741,"source_datadesc":"FRA Rail Lines 07/2025","source_datasetid":"{14EEFC21-039C-4AB1-8866-0FA5FC6A7AEB}","source_featureid":"343968","source_id":"REF-SACRAMENTO-RAIL","source_originator":"Federal Railroad Administration"},"type":"Feature"},{"geometry":{"coordinates":[[-121.479698,38.593365],[-121.480267,38.593059],[-121.480753,38.592856],[-121.481759,38.592486],[-121.482503,38.592149],[-121.483544,38.591634],[-121.485938,38.590418],[-121.486152,38.590188],[-121.486397,38.589604],[-121.486795,38.588686],[-121.486804,38.588666],[-121.486823,38.588622],[-121.486933,38.588367],[-121.486935,38.588362],[-121.48827,38.585281],[-121.491149,38.57867],[-121.491306,38.578567],[-121.491499,38.578563],[-121.491937,38.57867],[-121.496146,38.579782]],"type":"LineString"},"id":"REF-SACRAMENTO-RAIL-41","properties":{"canon_status":"REAL_REFERENCE","fcode":20200,"fictionality":"REAL","globalid":"{11FF7B79-4035-4C43-8F94-96B3170EA14B}","lengthkm":2.51056286,"loaddate":1758113402000,"name":null,"objectid":1091167,"permanent_identifier":"c89657ec-5715-4d27-a604-884855497843","railclassification":null,"railowner":null,"railownercode":"SCRT","railsubdivision":null,"railusage":"M","real_world_relation":"REFERENCE_ONLY","shape_Length":3175.1636958077756,"source_datadesc":"FRA Rail Lines 07/2025","source_datasetid":"{14EEFC21-039C-4AB1-8866-0FA5FC6A7AEB}","source_featureid":"325774","source_id":"REF-SACRAMENTO-RAIL","source_originator":"Federal Railroad Administration"},"type":"Feature"},{"geometry":{"coordinates":[[-121.496561,38.580267],[-121.496693,38.579956],[-121.496811,38.579679]],"type":"LineString"},"id":"REF-SACRAMENTO-RAIL-42","properties":{"canon_status":"REAL_REFERENCE","fcode":20200,"fictionality":"REAL","globalid":"{0D1EA954-EE7F-443D-9FB1-06D96C5F5B89}","lengthkm":0.07212713999999999,"loaddate":1758113402000,"name":null,"objectid":1091169,"permanent_identifier":"25134190-2e16-4c55-879f-bf6febc4431a","railclassification":null,"railowner":null,"railownercode":"SCRT","railsubdivision":null,"railusage":"M","real_world_relation":"REFERENCE_ONLY","shape_Length":88.11974790866583,"source_datadesc":"FRA Rail Lines 07/2025","source_datasetid":"{14EEFC21-039C-4AB1-8866-0FA5FC6A7AEB}","source_featureid":"329955","source_id":"REF-SACRAMENTO-RAIL","source_originator":"Federal Railroad Administration"},"type":"Feature"},{"geometry":{"coordinates":[[-121.470393,38.58391],[-121.469596,38.583713],[-121.469279,38.583635],[-121.46897,38.583574],[-121.468204,38.583424],[-121.46819,38.583422],[-121.466222,38.58318],[-121.465746,38.583121],[-121.465225,38.583026],[-121.46512,38.583007],[-121.46447,38.582857],[-121.464442,38.582849],[-121.46359,38.582605],[-121.463511,38.582582],[-121.462633,38.582291],[-121.462119,38.58212],[-121.461333,38.581859],[-121.461167,38.581804],[-121.461062,38.581769],[-121.460745,38.581664],[-121.460679,38.581642],[-121.460168,38.58152],[-121.45993,38.581464],[-121.459776,38.581442],[-121.459332,38.581378],[-121.45922,38.581362],[-121.458875,38.581336],[-121.458731,38.581325],[-121.458439,38.581322],[-121.458137,38.581318],[-121.457957,38.581329],[-121.457559,38.581352],[-121.457345,38.581378],[-121.456899,38.581432],[-121.456704,38.581468],[-121.456248,38.581553],[-121.456095,38.581592],[-121.455713,38.581688],[-121.455611,38.581713],[-121.455595,38.581718],[-121.455477,38.581754],[-121.454957,38.581914]],"type":"LineString"},"id":"REF-SACRAMENTO-RAIL-43","properties":{"canon_status":"REAL_REFERENCE","fcode":20200,"fictionality":"REAL","globalid":"{45099844-7DE7-4028-9B36-60D01CEBBAAA}","lengthkm":1.3320348800000001,"loaddate":1758113402000,"name":null,"objectid":1091462,"permanent_identifier":"95eb4cdc-6475-4b53-a0a1-1ad8e5e787a2","railclassification":null,"railowner":"Union Pacific Railroad Company","railownercode":"UP","railsubdivision":"MARTINEZ","railusage":"M","real_world_relation":"REFERENCE_ONLY","shape_Length":1787.9888681824111,"source_datadesc":"FRA Rail Lines 07/2025","source_datasetid":"{14EEFC21-039C-4AB1-8866-0FA5FC6A7AEB}","source_featureid":"334529","source_id":"REF-SACRAMENTO-RAIL","source_originator":"Federal Railroad Administration"},"type":"Feature"},{"geometry":{"coordinates":[[-121.482705,38.587217],[-121.482625,38.587196],[-121.481453,38.586878],[-121.481438,38.586874],[-121.480202,38.58654],[-121.47879,38.586158]],"type":"LineString"},"id":"REF-SACRAMENTO-RAIL-44","properties":{"canon_status":"REAL_REFERENCE","fcode":20200,"fictionality":"REAL","globalid":"{DE3E736A-8434-4AAB-9E9E-29BF4D38C6D0}","lengthkm":0.34493556000000003,"loaddate":1758113402000,"name":null,"objectid":1091467,"permanent_identifier":"75cf5ab2-c7f1-484f-98ff-49b48bb5d082","railclassification":null,"railowner":"Union Pacific Railroad Company","railownercode":"UP","railsubdivision":"MARTINEZ","railusage":"M","real_world_relation":"REFERENCE_ONLY","shape_Length":461.21777740566074,"source_datadesc":"FRA Rail Lines 07/2025","source_datasetid":"{14EEFC21-039C-4AB1-8866-0FA5FC6A7AEB}","source_featureid":"334731","source_id":"REF-SACRAMENTO-RAIL","source_originator":"Federal Railroad Administration"},"type":"Feature"},{"geometry":{"coordinates":[[-121.500592,38.584787],[-121.499749,38.5846]],"type":"LineString"},"id":"REF-SACRAMENTO-RAIL-45","properties":{"canon_status":"REAL_REFERENCE","fcode":20200,"fictionality":"REAL","globalid":"{41853B07-2E0F-4DD3-9C7C-08051469B1B3}","lengthkm":0.07269914,"loaddate":1758113402000,"name":null,"objectid":1093522,"permanent_identifier":"0cbd2726-6c4e-4794-a297-db94fb6c96b3","railclassification":null,"railowner":"Union Pacific Railroad Company","railownercode":"UP","railsubdivision":"MARTINEZ","railusage":"M","real_world_relation":"REFERENCE_ONLY","shape_Length":97.60074595225399,"source_datadesc":"FRA Rail Lines 07/2025","source_datasetid":"{14EEFC21-039C-4AB1-8866-0FA5FC6A7AEB}","source_featureid":"536137","source_id":"REF-SACRAMENTO-RAIL","source_originator":"Federal Railroad Administration"},"type":"Feature"},{"geometry":{"coordinates":[[-121.503829,38.587344],[-121.503583,38.587453]],"type":"LineString"},"id":"REF-SACRAMENTO-RAIL-46","properties":{"canon_status":"REAL_REFERENCE","fcode":20201,"fictionality":"REAL","globalid":"{9E3041F4-6D43-4DAC-9059-12D72EC8EAB9}","lengthkm":0.02388919,"loaddate":1758113402000,"name":null,"objectid":1095299,"permanent_identifier":"05fd5725-d48a-43de-a100-6ad9ca94e3da","railclassification":null,"railowner":"Union Pacific Railroad Company","railownercode":"UP","railsubdivision":null,"railusage":"O","real_world_relation":"REFERENCE_ONLY","shape_Length":31.423642908927313,"source_datadesc":"FRA Rail Lines 07/2025","source_datasetid":"{14EEFC21-039C-4AB1-8866-0FA5FC6A7AEB}","source_featureid":"332993","source_id":"REF-SACRAMENTO-RAIL","source_originator":"Federal Railroad Administration"},"type":"Feature"},{"geometry":{"coordinates":[[-121.504697,38.586746],[-121.504483,38.587046],[-121.504285,38.587281],[-121.504072,38.587483],[-121.503742,38.587752],[-121.503382,38.58799],[-121.50313,38.588131],[-121.502779,38.588303],[-121.502542,38.588394]],"type":"LineString"},"id":"REF-SACRAMENTO-RAIL-47","properties":{"canon_status":"REAL_REFERENCE","fcode":20201,"fictionality":"REAL","globalid":"{70E12AAE-F4AF-40EE-AF7F-FABAFD75CB88}","lengthkm":0.26748843,"loaddate":1758113402000,"name":null,"objectid":1095327,"permanent_identifier":"686f595b-7c0f-4662-bce6-cbfe25e69417","railclassification":null,"railowner":"Union Pacific Railroad Company","railownercode":"UP","railsubdivision":null,"railusage":"O","real_world_relation":"REFERENCE_ONLY","shape_Length":341.8235333386956,"source_datadesc":"FRA Rail Lines 07/2025","source_datasetid":"{14EEFC21-039C-4AB1-8866-0FA5FC6A7AEB}","source_featureid":"333636","source_id":"REF-SACRAMENTO-RAIL","source_originator":"Federal Railroad Administration"},"type":"Feature"},{"geometry":{"coordinates":[[-121.50501,38.586267],[-121.505147,38.585989],[-121.505151,38.585981],[-121.505166,38.585949],[-121.505179,38.585924],[-121.505266,38.585746],[-121.5053,38.585644],[-121.505414,38.585201],[-121.505589,38.584708],[-121.505852,38.583976],[-121.506307,38.582658],[-121.506416,38.582334],[-121.506424,38.582311],[-121.506871,38.581098],[-121.506957,38.5809],[-121.507007,38.580786],[-121.507049,38.580658],[-121.507085,38.580546],[-121.507167,38.580139],[-121.507237,38.579798],[-121.50765,38.578849],[-121.50802,38.577984],[-121.508219,38.577653],[-121.508384,38.577371],[-121.508704,38.576744],[-121.508937,38.57626],[-121.509086,38.575993],[-121.509206,38.575813],[-121.509288,38.575692],[-121.509579,38.575346]],"type":"LineString"},"id":"REF-SACRAMENTO-RAIL-48","properties":{"canon_status":"REAL_REFERENCE","fcode":20200,"fictionality":"REAL","globalid":"{17355D24-4BCD-44F9-BE93-90231EB70496}","lengthkm":1.3441074000000002,"loaddate":1758113402000,"name":null,"objectid":1109885,"permanent_identifier":"53cb8e58-f846-4c14-be46-7a2465aff77a","railclassification":null,"railowner":null,"railownercode":"SSRR","railsubdivision":null,"railusage":"M","real_world_relation":"REFERENCE_ONLY","shape_Length":1642.7884484417636,"source_datadesc":"FRA Rail Lines 07/2025","source_datasetid":"{14EEFC21-039C-4AB1-8866-0FA5FC6A7AEB}","source_featureid":"337641","source_id":"REF-SACRAMENTO-RAIL","source_originator":"Federal Railroad Administration"},"type":"Feature"},{"geometry":{"coordinates":[[-121.496811,38.579679],[-121.49671,38.579803],[-121.496588,38.579844],[-121.496439,38.579837],[-121.496146,38.579782]],"type":"LineString"},"id":"REF-SACRAMENTO-RAIL-49","properties":{"canon_status":"REAL_REFERENCE","fcode":20200,"fictionality":"REAL","globalid":"{D8D9C3AE-DBE0-4F67-B458-9F5CCC0F9365}","lengthkm":0.06509765,"loaddate":1758113402000,"name":null,"objectid":1120017,"permanent_identifier":"b8f1e553-f279-41f7-a260-ab0a0cf88b7c","railclassification":null,"railowner":null,"railownercode":"SCRT","railsubdivision":null,"railusage":"M","real_world_relation":"REFERENCE_ONLY","shape_Length":85.8638348094452,"source_datadesc":"FRA Rail Lines 07/2025","source_datasetid":"{14EEFC21-039C-4AB1-8866-0FA5FC6A7AEB}","source_featureid":"325596","source_id":"REF-SACRAMENTO-RAIL","source_originator":"Federal Railroad Administration"},"type":"Feature"},{"geometry":{"coordinates":[[-121.467973,38.605653],[-121.468907,38.603495],[-121.468953,38.603389],[-121.469085,38.603083],[-121.470185,38.60054],[-121.470231,38.600434],[-121.470431,38.599974]],"type":"LineString"},"id":"REF-SACRAMENTO-RAIL-50","properties":{"canon_status":"REAL_REFERENCE","fcode":20200,"fictionality":"REAL","globalid":"{7626B27A-16C9-46E1-9299-AB15EEEE2C6D}","lengthkm":0.69858476,"loaddate":1758113402000,"name":null,"objectid":1120334,"permanent_identifier":"82d1b6a9-1a33-414e-a6f7-2ddca5170727","railclassification":null,"railowner":"Union Pacific Railroad Company","railownercode":"UP","railsubdivision":"SACRAMENTO","railusage":"M","real_world_relation":"REFERENCE_ONLY","shape_Length":854.0225186107276,"source_datadesc":"FRA Rail Lines 07/2025","source_datasetid":"{14EEFC21-039C-4AB1-8866-0FA5FC6A7AEB}","source_featureid":"338088","source_id":"REF-SACRAMENTO-RAIL","source_originator":"Federal Railroad Administration"},"type":"Feature"},{"geometry":{"coordinates":[[-121.501983,38.58523],[-121.501616,38.58517],[-121.501387,38.585161],[-121.501193,38.585163],[-121.501054,38.585161],[-121.500894,38.58515],[-121.500721,38.585126],[-121.49875,38.584682],[-121.498503,38.584647],[-121.498305,38.584636],[-121.498003,38.584672],[-121.497821,38.584714],[-121.497538,38.584801]],"type":"LineString"},"id":"REF-SACRAMENTO-RAIL-51","properties":{"canon_status":"REAL_REFERENCE","fcode":20201,"fictionality":"REAL","globalid":"{EDDF2116-7F7E-46CC-B714-1E240F343EFB}","lengthkm":0.37827817,"loaddate":1758113402000,"name":null,"objectid":1124559,"permanent_identifier":"ae67284e-1bc3-40ed-b0e7-d38b82ba3fce","railclassification":null,"railowner":"Union Pacific Railroad Company","railownercode":"UP","railsubdivision":null,"railusage":"O","real_world_relation":"REFERENCE_ONLY","shape_Length":509.1043141139425,"source_datadesc":"FRA Rail Lines 07/2025","source_datasetid":"{14EEFC21-039C-4AB1-8866-0FA5FC6A7AEB}","source_featureid":"341352","source_id":"REF-SACRAMENTO-RAIL","source_originator":"Federal Railroad Administration"},"type":"Feature"},{"geometry":{"coordinates":[[-121.498242,38.575441],[-121.499637,38.575809],[-121.499725,38.575898],[-121.499747,38.576056],[-121.498014,38.580116]],"type":"LineString"},"id":"REF-SACRAMENTO-RAIL-52","properties":{"canon_status":"REAL_REFERENCE","fcode":20200,"fictionality":"REAL","globalid":"{D94D0EB9-12C1-4BE0-BCBA-FFDC15CA50A0}","lengthkm":0.65276663,"loaddate":1758113402000,"name":null,"objectid":1134297,"permanent_identifier":"92fb4766-9127-4bbf-b730-2ec539417410","railclassification":null,"railowner":null,"railownercode":"SCRT","railsubdivision":null,"railusage":"M","real_world_relation":"REFERENCE_ONLY","shape_Length":812.0158313045728,"source_datadesc":"FRA Rail Lines 07/2025","source_datasetid":"{14EEFC21-039C-4AB1-8866-0FA5FC6A7AEB}","source_featureid":"326125","source_id":"REF-SACRAMENTO-RAIL","source_originator":"Federal Railroad Administration"},"type":"Feature"},{"geometry":{"coordinates":[[-121.498014,38.580116],[-121.496592,38.583334],[-121.496588,38.58344],[-121.496675,38.583564],[-121.496806,38.583667]],"type":"LineString"},"id":"REF-SACRAMENTO-RAIL-53","properties":{"canon_status":"REAL_REFERENCE","fcode":20200,"fictionality":"REAL","globalid":"{7BE12F49-1E3A-4B13-BF63-538345576856}","lengthkm":0.44154065,"loaddate":1758113402000,"name":null,"objectid":1134299,"permanent_identifier":"f200bc5b-03be-4028-95a8-e79062ea5b4b","railclassification":null,"railowner":null,"railownercode":"SCRT","railsubdivision":null,"railusage":"M","real_world_relation":"REFERENCE_ONLY","shape_Length":540.8327286432807,"source_datadesc":"FRA Rail Lines 07/2025","source_datasetid":"{14EEFC21-039C-4AB1-8866-0FA5FC6A7AEB}","source_featureid":"334426","source_id":"REF-SACRAMENTO-RAIL","source_originator":"Federal Railroad Administration"},"type":"Feature"},{"geometry":{"coordinates":[[-121.506178,38.586191],[-121.505334,38.585966],[-121.505219,38.585935],[-121.505179,38.585924],[-121.505178,38.585924],[-121.50515,38.585917],[-121.505073,38.585896],[-121.505072,38.585896],[-121.504769,38.585815],[-121.504514,38.585747],[-121.50395,38.585596],[-121.503808,38.585559]],"type":"LineString"},"id":"REF-SACRAMENTO-RAIL-54","properties":{"canon_status":"REAL_REFERENCE","fcode":20200,"fictionality":"REAL","globalid":"{C9CBBEA6-2C97-4B9D-85FE-35DBCFD832A9}","lengthkm":0.20840833,"loaddate":1758113402000,"name":null,"objectid":1134621,"permanent_identifier":"d214457b-555e-4e97-a630-e237b3c92dc6","railclassification":null,"railowner":"Union Pacific Railroad Company","railownercode":"UP","railsubdivision":"MARTINEZ","railusage":"M","real_world_relation":"REFERENCE_ONLY","shape_Length":278.75709728936886,"source_datadesc":"FRA Rail Lines 07/2025","source_datasetid":"{14EEFC21-039C-4AB1-8866-0FA5FC6A7AEB}","source_featureid":"331525","source_id":"REF-SACRAMENTO-RAIL","source_originator":"Federal Railroad Administration"},"type":"Feature"},{"geometry":{"coordinates":[[-121.504372,38.586925],[-121.504072,38.586991],[-121.501949,38.587286]],"type":"LineString"},"id":"REF-SACRAMENTO-RAIL-55","properties":{"canon_status":"REAL_REFERENCE","fcode":20201,"fictionality":"REAL","globalid":"{19F17E2B-26DC-45BF-B953-78FAB2EEB266}","lengthkm":0.20365834,"loaddate":1758113402000,"name":null,"objectid":1147765,"permanent_identifier":"646dfa72-3b1a-41a2-ac78-68da91468067","railclassification":null,"railowner":"Union Pacific Railroad Company","railownercode":"UP","railsubdivision":null,"railusage":"O","real_world_relation":"REFERENCE_ONLY","shape_Length":274.7620244934723,"source_datadesc":"FRA Rail Lines 07/2025","source_datasetid":"{14EEFC21-039C-4AB1-8866-0FA5FC6A7AEB}","source_featureid":"519395","source_id":"REF-SACRAMENTO-RAIL","source_originator":"Federal Railroad Administration"},"type":"Feature"}],"type":"FeatureCollection"}
