{"features":[{"geometry":{"coordinates":[[-108.000738,41.658173],[-107.999654,41.658134],[-107.999274,41.65813],[-107.999082,41.65814],[-107.995614,41.65833],[-107.992868,41.658541],[-107.991231,41.6588],[-107.990406,41.658983],[-107.989722,41.659116],[-107.988105,41.659696],[-107.986652,41.660328],[-107.986416,41.66043],[-107.985694,41.660803],[-107.985503,41.660901],[-107.985489,41.660908],[-107.984814,41.661345],[-107.983783,41.662057],[-107.981729,41.663427],[-107.980818,41.664035],[-107.977145,41.666484],[-107.976145,41.667567]],"type":"LineString"},"id":"REF-WAMSUTTER-FRA-RAIL-1","properties":{"BRANCH":null,"CNTYFIPS":"037","COUNTRY":"US","DIVISION":null,"FRAARCID":309739,"FRADISTRCT":8,"FRFRANODE":337639,"KM":2.4102862991492837,"MILES":1.4976794759707592,"NET":"S","OBJECTID":7477,"PASSNGR":null,"RROWNER1":"UP","RROWNER2":null,"RROWNER3":null,"STATEAB":"WY","STCNTYFIPS":"56037","STFIPS":"56","STRACNET":null,"SUBDIV":null,"Shape__Length":0.02719630014851418,"TIMEZONE":"M","TOFRANODE":337648,"TRACKS":0,"TRKRGHTS1":null,"TRKRGHTS2":null,"TRKRGHTS3":null,"TRKRGHTS4":null,"TRKRGHTS5":null,"TRKRGHTS6":null,"TRKRGHTS7":null,"TRKRGHTS8":null,"TRKRGHTS9":null,"YARDNAME":null,"canon_status":"REAL_REFERENCE","fictionality":"REAL","real_world_relation":"REFERENCE_ONLY","source_id":"REF-WAMSUTTER-FRA-RAIL"},"type":"Feature"},{"geometry":{"coordinates":[[-107.97503,41.672127],[-107.97418,41.671223]],"type":"LineString"},"id":"REF-WAMSUTTER-FRA-RAIL-2","properties":{"BRANCH":null,"CNTYFIPS":"037","COUNTRY":"US","DIVISION":null,"FRAARCID":309740,"FRADISTRCT":8,"FRFRANODE":337651,"KM":0.12289648440062655,"MILES":0.07636418230512416,"NET":"O","OBJECTID":7478,"PASSNGR":null,"RROWNER1":"UP","RROWNER2":null,"RROWNER3":null,"STATEAB":"WY","STCNTYFIPS":"56037","STFIPS":"56","STRACNET":null,"SUBDIV":null,"Shape__Length":0.001241446416051451,"TIMEZONE":"M","TOFRANODE":337654,"TRACKS":0,"TRKRGHTS1":null,"TRKRGHTS2":null,"TRKRGHTS3":null,"TRKRGHTS4":null,"TRKRGHTS5":null,"TRKRGHTS6":null,"TRKRGHTS7":null,"TRKRGHTS8":null,"TRKRGHTS9":null,"YARDNAME":null,"canon_status":"REAL_REFERENCE","fictionality":"REAL","real_world_relation":"REFERENCE_ONLY","source_id":"REF-WAMSUTTER-FRA-RAIL"},"type":"Feature"},{"geometry":{"coordinates":[[-107.97418,41.671223],[-107.973418,41.670854],[-107.972521,41.670608],[-107.972307,41.670637],[-107.971777,41.670711]],"type":"LineString"},"id":"REF-WAMSUTTER-FRA-RAIL-3","properties":{"BRANCH":null,"CNTYFIPS":"037","COUNTRY":"US","DIVISION":null,"FRAARCID":309741,"FRADISTRCT":8,"FRFRANODE":337654,"KM":0.21813832713131978,"MILES":0.13554460131250093,"NET":"O","OBJECTID":7479,"PASSNGR":null,"RROWNER1":"UP","RROWNER2":null,"RROWNER3":null,"STATEAB":"WY","STCNTYFIPS":"56037","STFIPS":"56","STRACNET":null,"SUBDIV":null,"Shape__Length":0.002528339003730771,"TIMEZONE":"M","TOFRANODE":337657,"TRACKS":0,"TRKRGHTS1":null,"TRKRGHTS2":null,"TRKRGHTS3":null,"TRKRGHTS4":null,"TRKRGHTS5":null,"TRKRGHTS6":null,"TRKRGHTS7":null,"TRKRGHTS8":null,"TRKRGHTS9":null,"YARDNAME":null,"canon_status":"REAL_REFERENCE","fictionality":"REAL","real_world_relation":"REFERENCE_ONLY","source_id":"REF-WAMSUTTER-FRA-RAIL"},"type":"Feature"},{"geometry":{"coordinates":[[-107.97418,41.671223],[-107.974101,41.671087],[-107.973936,41.670801],[-107.973811,41.670271],[-107.973847,41.669635],[-107.97389,41.669555],[-107.97418,41.669022]],"type":"LineString"},"id":"REF-WAMSUTTER-FRA-RAIL-4","properties":{"BRANCH":null,"CNTYFIPS":"037","COUNTRY":"US","DIVISION":null,"FRAARCID":309742,"FRADISTRCT":8,"FRFRANODE":337654,"KM":0.25507953190739574,"MILES":0.15849875585849382,"NET":"O","OBJECTID":7480,"PASSNGR":null,"RROWNER1":"UP","RROWNER2":null,"RROWNER3":null,"STATEAB":"WY","STCNTYFIPS":"56037","STFIPS":"56","STRACNET":null,"SUBDIV":null,"Shape__Length":0.0023666046940580936,"TIMEZONE":"M","TOFRANODE":337653,"TRACKS":0,"TRKRGHTS1":null,"TRKRGHTS2":null,"TRKRGHTS3":null,"TRKRGHTS4":null,"TRKRGHTS5":null,"TRKRGHTS6":null,"TRKRGHTS7":null,"TRKRGHTS8":null,"TRKRGHTS9":null,"YARDNAME":null,"canon_status":"REAL_REFERENCE","fictionality":"REAL","real_world_relation":"REFERENCE_ONLY","source_id":"REF-WAMSUTTER-FRA-RAIL"},"type":"Feature"},{"geometry":{"coordinates":[[-107.97418,41.669022],[-107.971777,41.670711]],"type":"LineString"},"id":"REF-WAMSUTTER-FRA-RAIL-5","properties":{"BRANCH":null,"CNTYFIPS":"037","COUNTRY":"US","DIVISION":null,"FRAARCID":309743,"FRADISTRCT":8,"FRFRANODE":337653,"KM":0.27434118699887156,"MILES":0.1704673695098733,"NET":"O","OBJECTID":7481,"PASSNGR":null,"RROWNER1":"UP","RROWNER2":null,"RROWNER3":null,"STATEAB":"WY","STCNTYFIPS":"56037","STFIPS":"56","STRACNET":null,"SUBDIV":null,"Shape__Length":0.0029376466561422195,"TIMEZONE":"M","TOFRANODE":337657,"TRACKS":0,"TRKRGHTS1":null,"TRKRGHTS2":null,"TRKRGHTS3":null,"TRKRGHTS4":null,"TRKRGHTS5":null,"TRKRGHTS6":null,"TRKRGHTS7":null,"TRKRGHTS8":null,"TRKRGHTS9":null,"YARDNAME":null,"canon_status":"REAL_REFERENCE","fictionality":"REAL","real_world_relation":"REFERENCE_ONLY","source_id":"REF-WAMSUTTER-FRA-RAIL"},"type":"Feature"},{"geometry":{"coordinates":[[-107.97494,41.668411],[-107.97418,41.669022]],"type":"LineString"},"id":"REF-WAMSUTTER-FRA-RAIL-6","properties":{"BRANCH":null,"CNTYFIPS":"037","COUNTRY":"US","DIVISION":null,"FRAARCID":309744,"FRADISTRCT":8,"FRFRANODE":337652,"KM":0.09277193707223622,"MILES":0.05764569385312404,"NET":"O","OBJECTID":7482,"PASSNGR":null,"RROWNER1":"UP","RROWNER2":null,"RROWNER3":null,"STATEAB":"WY","STCNTYFIPS":"56037","STFIPS":"56","STRACNET":null,"SUBDIV":null,"Shape__Length":0.0009748892140249397,"TIMEZONE":"M","TOFRANODE":337653,"TRACKS":0,"TRKRGHTS1":null,"TRKRGHTS2":null,"TRKRGHTS3":null,"TRKRGHTS4":null,"TRKRGHTS5":null,"TRKRGHTS6":null,"TRKRGHTS7":null,"TRKRGHTS8":null,"TRKRGHTS9":null,"YARDNAME":null,"canon_status":"REAL_REFERENCE","fictionality":"REAL","real_world_relation":"REFERENCE_ONLY","source_id":"REF-WAMSUTTER-FRA-RAIL"},"type":"Feature"},{"geometry":{"coordinates":[[-107.971777,41.670711],[-107.971211,41.671092],[-107.970218,41.671841],[-107.968805,41.672776],[-107.96782,41.673361],[-107.966732,41.673843]],"type":"LineString"},"id":"REF-WAMSUTTER-FRA-RAIL-7","properties":{"BRANCH":null,"CNTYFIPS":"037","COUNTRY":"US","DIVISION":null,"FRAARCID":309745,"FRADISTRCT":8,"FRFRANODE":337657,"KM":0.5473904500863042,"MILES":0.3401319763241445,"NET":"O","OBJECTID":7483,"PASSNGR":null,"RROWNER1":"UP","RROWNER2":null,"RROWNER3":null,"STATEAB":"WY","STCNTYFIPS":"56037","STFIPS":"56","STRACNET":null,"SUBDIV":null,"Shape__Length":0.00595558231205315,"TIMEZONE":"M","TOFRANODE":337670,"TRACKS":0,"TRKRGHTS1":null,"TRKRGHTS2":null,"TRKRGHTS3":null,"TRKRGHTS4":null,"TRKRGHTS5":null,"TRKRGHTS6":null,"TRKRGHTS7":null,"TRKRGHTS8":null,"TRKRGHTS9":null,"YARDNAME":null,"canon_status":"REAL_REFERENCE","fictionality":"REAL","real_world_relation":"REFERENCE_ONLY","source_id":"REF-WAMSUTTER-FRA-RAIL"},"type":"Feature"},{"geometry":{"coordinates":[[-107.971782,41.670622],[-107.97078,41.671048],[-107.970019,41.671561],[-107.967969,41.67289],[-107.964593,41.674847],[-107.960443,41.677252],[-107.954928,41.680535],[-107.954318,41.681125]],"type":"LineString"},"id":"REF-WAMSUTTER-FRA-RAIL-8","properties":{"BRANCH":null,"CNTYFIPS":"037","COUNTRY":"US","DIVISION":null,"FRAARCID":309746,"FRADISTRCT":8,"FRFRANODE":337656,"KM":1.8682280875306043,"MILES":1.1608607923939376,"NET":"S","OBJECTID":7484,"PASSNGR":null,"RROWNER1":"UP","RROWNER2":null,"RROWNER3":null,"STATEAB":"WY","STCNTYFIPS":"56037","STFIPS":"56","STRACNET":null,"SUBDIV":null,"Shape__Length":0.02041514735666127,"TIMEZONE":"M","TOFRANODE":337680,"TRACKS":0,"TRKRGHTS1":null,"TRKRGHTS2":null,"TRKRGHTS3":null,"TRKRGHTS4":null,"TRKRGHTS5":null,"TRKRGHTS6":null,"TRKRGHTS7":null,"TRKRGHTS8":null,"TRKRGHTS9":null,"YARDNAME":null,"canon_status":"REAL_REFERENCE","fictionality":"REAL","real_world_relation":"REFERENCE_ONLY","source_id":"REF-WAMSUTTER-FRA-RAIL"},"type":"Feature"},{"geometry":{"coordinates":[[-107.971782,41.670622],[-107.971232,41.671007],[-107.970758,41.671339],[-107.9704,41.671576],[-107.970164,41.671732],[-107.969877,41.671921],[-107.969794,41.671976],[-107.96926,41.67233],[-107.969031,41.672481],[-107.968976,41.672513],[-107.968744,41.672651],[-107.968238,41.67295],[-107.966933,41.673723],[-107.966921,41.673731],[-107.966904,41.67374],[-107.966753,41.67383],[-107.966732,41.673843]],"type":"LineString"},"id":"REF-WAMSUTTER-FRA-RAIL-9","properties":{"BRANCH":"#N\\A","CNTYFIPS":"037","COUNTRY":"US","DIVISION":"ROCKY MOUNTAIN","FRAARCID":309261,"FRADISTRCT":8,"FRFRANODE":337656,"KM":0.5524235246443715,"MILES":0.34325937760809505,"NET":"M","OBJECTID":267786,"PASSNGR":null,"RROWNER1":"UP","RROWNER2":null,"RROWNER3":null,"STATEAB":"WY","STCNTYFIPS":"56037","STFIPS":"56","STRACNET":"S","SUBDIV":"RAWLINS","Shape__Length":0.00599275648857969,"TIMEZONE":"M","TOFRANODE":337670,"TRACKS":2,"TRKRGHTS1":null,"TRKRGHTS2":null,"TRKRGHTS3":null,"TRKRGHTS4":null,"TRKRGHTS5":null,"TRKRGHTS6":null,"TRKRGHTS7":null,"TRKRGHTS8":null,"TRKRGHTS9":null,"YARDNAME":null,"canon_status":"REAL_REFERENCE","fictionality":"REAL","real_world_relation":"REFERENCE_ONLY","source_id":"REF-WAMSUTTER-FRA-RAIL"},"type":"Feature"},{"geometry":{"coordinates":[[-108.263441,41.627731],[-108.262894,41.628136],[-108.262432,41.628477],[-108.262243,41.628645],[-108.261929,41.628864],[-108.260707,41.629719],[-108.260438,41.62988],[-108.260187,41.630029],[-108.259037,41.630845],[-108.258374,41.631286],[-108.258339,41.631309],[-108.25832,41.631322],[-108.258275,41.631352],[-108.257761,41.631662],[-108.257423,41.631866],[-108.257144,41.632018],[-108.25667,41.632277],[-108.25588,41.632669],[-108.255858,41.632679],[-108.255033,41.633049],[-108.255001,41.633061],[-108.254938,41.633085],[-108.254269,41.63334],[-108.253333,41.633696],[-108.252954,41.63381],[-108.251967,41.634109],[-108.251756,41.634172],[-108.251743,41.634176],[-108.251691,41.634188],[-108.251228,41.634293],[-108.250819,41.634387],[-108.250003,41.634573],[-108.249894,41.634598],[-108.249373,41.634687],[-108.248893,41.634769],[-108.24833,41.634842],[-108.247604,41.634937],[-108.232573,41.636717],[-108.227391,41.63733],[-108.225384,41.637568],[-108.223151,41.637832],[-108.221644,41.638011],[-108.22061,41.638133],[-108.218163,41.638414],[-108.217853,41.63845],[-108.216381,41.638567],[-108.216007,41.638597],[-108.21541,41.63861],[-108.214465,41.638631],[-108.21429,41.638625],[-108.213159,41.638588],[-108.212668,41.638572],[-108.211609,41.638499],[-108.208468,41.638284],[-108.20557,41.638086],[-108.201847,41.637831],[-108.200173,41.637716],[-108.198469,41.637626],[-108.198169,41.637622],[-108.197389,41.63761],[-108.197218,41.637608],[-108.196041,41.637642],[-108.195942,41.637645],[-108.195643,41.637666],[-108.194874,41.637721],[-108.194815,41.637727],[-108.194383,41.637775],[-108.194045,41.637812],[-108.193807,41.637838],[-108.192937,41.637974],[-108.192379,41.638062],[-108.19179,41.638186],[-108.190915,41.638371],[-108.189884,41.638633],[-108.184468,41.64001],[-108.178918,41.641421],[-108.178779,41.641456],[-108.177395,41.64177],[-108.177183,41.641818],[-108.176463,41.641945],[-108.175796,41.642063],[-108.175673,41.642078],[-108.174843,41.642177],[-108.174345,41.642237],[-108.173942,41.642266],[-108.172972,41.642336],[-108.172533,41.642368],[-108.169321,41.642529],[-108.165513,41.642721],[-108.161133,41.642941],[-108.157393,41.643129],[-108.157297,41.643134],[-108.156317,41.643222],[-108.155487,41.643297],[-108.15522,41.643338],[-108.155071,41.64336],[-108.154394,41.643463],[-108.154312,41.643476],[-108.154224,41.643489],[-108.153732,41.643564],[-108.153514,41.643609],[-108.153184,41.643678],[-108.152638,41.643792],[-108.152317,41.643871],[-108.150984,41.644197],[-108.149665,41.644539],[-108.14657,41.64534],[-108.14252,41.64639],[-108.138573,41.647412],[-108.138057,41.647546],[-108.129913,41.649656],[-108.12937,41.649797],[-108.127656,41.650241],[-108.127574,41.650262],[-108.126167,41.650626],[-108.124984,41.650933],[-108.124683,41.651011],[-108.123232,41.651332],[-108.122966,41.651391],[-108.122307,41.651497],[-108.121738,41.651588]],"type":"LineString"},"id":"REF-WAMSUTTER-FRA-RAIL-10","properties":{"BRANCH":"#N\\A","CNTYFIPS":"037","COUNTRY":"US","DIVISION":"ROCKY MOUNTAIN","FRAARCID":309461,"FRADISTRCT":8,"FRFRANODE":337325,"KM":12.328831542036372,"MILES":7.660765432606881,"NET":"M","OBJECTID":267799,"PASSNGR":null,"RROWNER1":"UP","RROWNER2":null,"RROWNER3":null,"STATEAB":"WY","STCNTYFIPS":"56037","STFIPS":"56","STRACNET":"S","SUBDIV":"RAWLINS","Shape__Length":0.1453462174201554,"TIMEZONE":"M","TOFRANODE":337458,"TRACKS":2,"TRKRGHTS1":null,"TRKRGHTS2":null,"TRKRGHTS3":null,"TRKRGHTS4":null,"TRKRGHTS5":null,"TRKRGHTS6":null,"TRKRGHTS7":null,"TRKRGHTS8":null,"TRKRGHTS9":null,"YARDNAME":null,"canon_status":"REAL_REFERENCE","fictionality":"REAL","real_world_relation":"REFERENCE_ONLY","source_id":"REF-WAMSUTTER-FRA-RAIL"},"type":"Feature"},{"geometry":{"coordinates":[[-107.834737,41.697689],[-107.833887,41.697373],[-107.831085,41.696331],[-107.830549,41.696131],[-107.829568,41.695766],[-107.828904,41.695519],[-107.828797,41.695479],[-107.828618,41.695413],[-107.828269,41.695283],[-107.826302,41.694552],[-107.826044,41.694455],[-107.825555,41.694274],[-107.82436,41.693829],[-107.822441,41.693115],[-107.821552,41.692784]],"type":"LineString"},"id":"REF-WAMSUTTER-FRA-RAIL-11","properties":{"BRANCH":"#N\\A","CNTYFIPS":"037","COUNTRY":"US","DIVISION":"ROCKY MOUNTAIN","FRAARCID":309537,"FRADISTRCT":8,"FRFRANODE":337759,"KM":1.2253458352785447,"MILES":0.7613930797808759,"NET":"M","OBJECTID":267831,"PASSNGR":null,"RROWNER1":"UP","RROWNER2":null,"RROWNER3":null,"STATEAB":"WY","STCNTYFIPS":"56037","STFIPS":"56","STRACNET":"S","SUBDIV":"RAWLINS","Shape__Length":0.014067874422939934,"TIMEZONE":"M","TOFRANODE":337764,"TRACKS":2,"TRKRGHTS1":null,"TRKRGHTS2":null,"TRKRGHTS3":null,"TRKRGHTS4":null,"TRKRGHTS5":null,"TRKRGHTS6":null,"TRKRGHTS7":null,"TRKRGHTS8":null,"TRKRGHTS9":null,"YARDNAME":null,"canon_status":"REAL_REFERENCE","fictionality":"REAL","real_world_relation":"REFERENCE_ONLY","source_id":"REF-WAMSUTTER-FRA-RAIL"},"type":"Feature"},{"geometry":{"coordinates":[[-107.821552,41.692784],[-107.819062,41.691858],[-107.817657,41.691336],[-107.817303,41.691204],[-107.816792,41.691034],[-107.816177,41.69083],[-107.815508,41.690607],[-107.814862,41.690436],[-107.813892,41.690179],[-107.812698,41.689943],[-107.812191,41.689843],[-107.810789,41.68965],[-107.810342,41.689589],[-107.809383,41.689488],[-107.809093,41.689458],[-107.808193,41.689363],[-107.807244,41.689264],[-107.806573,41.689193],[-107.806032,41.689136],[-107.805023,41.68903],[-107.801796,41.688691],[-107.800594,41.688565],[-107.799726,41.688474],[-107.798733,41.688369],[-107.796884,41.688175],[-107.79681,41.688167],[-107.796247,41.688108],[-107.795477,41.688057],[-107.795044,41.688028],[-107.794519,41.688023],[-107.794414,41.688022],[-107.794054,41.688018],[-107.793302,41.688049],[-107.793119,41.688057],[-107.792398,41.688127],[-107.792378,41.688129],[-107.792074,41.688159],[-107.791873,41.688193],[-107.791502,41.688255],[-107.790658,41.688396],[-107.790656,41.688396],[-107.790429,41.688452],[-107.789674,41.688638],[-107.78945,41.688693],[-107.788327,41.689053],[-107.78805,41.689165],[-107.787859,41.689242],[-107.78722,41.689501],[-107.786807,41.689706],[-107.786481,41.689868],[-107.786292,41.689962],[-107.78386,41.69117],[-107.780871,41.692655],[-107.778872,41.693673],[-107.777903,41.694166],[-107.776807,41.694724],[-107.77638,41.694941],[-107.775596,41.695332],[-107.768926,41.698662],[-107.767285,41.699481],[-107.765953,41.700146],[-107.765769,41.700238],[-107.765644,41.700301]],"type":"LineString"},"id":"REF-WAMSUTTER-FRA-RAIL-12","properties":{"BRANCH":"#N\\A","CNTYFIPS":"037","COUNTRY":"US","DIVISION":"ROCKY MOUNTAIN","FRAARCID":309538,"FRADISTRCT":8,"FRFRANODE":337764,"KM":5.1304368287956486,"MILES":3.187899273195781,"NET":"M","OBJECTID":267832,"PASSNGR":null,"RROWNER1":"UP","RROWNER2":null,"RROWNER3":null,"STATEAB":"WY","STCNTYFIPS":"56037","STFIPS":"56","STRACNET":"S","SUBDIV":"RAWLINS","Shape__Length":0.05923193602624693,"TIMEZONE":"M","TOFRANODE":337790,"TRACKS":2,"TRKRGHTS1":null,"TRKRGHTS2":null,"TRKRGHTS3":null,"TRKRGHTS4":null,"TRKRGHTS5":null,"TRKRGHTS6":null,"TRKRGHTS7":null,"TRKRGHTS8":null,"TRKRGHTS9":null,"YARDNAME":null,"canon_status":"REAL_REFERENCE","fictionality":"REAL","real_world_relation":"REFERENCE_ONLY","source_id":"REF-WAMSUTTER-FRA-RAIL"},"type":"Feature"},{"geometry":{"coordinates":[[-107.954318,41.681125],[-107.952402,41.682247],[-107.949013,41.684232],[-107.947724,41.684987],[-107.946731,41.68555],[-107.946574,41.685629],[-107.945991,41.685921],[-107.94574,41.686047],[-107.9453,41.68624],[-107.944842,41.686442],[-107.944685,41.686504],[-107.943563,41.686945],[-107.939815,41.68838],[-107.938345,41.688943],[-107.938304,41.688958],[-107.938288,41.688964],[-107.93825,41.688979],[-107.938136,41.689023],[-107.934881,41.690269],[-107.927954,41.69292],[-107.924206,41.694355],[-107.923917,41.694459],[-107.922414,41.695001],[-107.921989,41.695137],[-107.92011,41.695736],[-107.919558,41.695907],[-107.909917,41.698894],[-107.90431,41.700631],[-107.902316,41.701249],[-107.900318,41.701868],[-107.900077,41.701935],[-107.898857,41.702275],[-107.898217,41.702453],[-107.898197,41.702457],[-107.898011,41.702496],[-107.897485,41.702605],[-107.89737,41.702629],[-107.897329,41.702637],[-107.896443,41.702821],[-107.896284,41.702843],[-107.896038,41.702877],[-107.895666,41.702929],[-107.89566,41.70293],[-107.895624,41.702935],[-107.894981,41.703024],[-107.894852,41.703042],[-107.894309,41.703088],[-107.89429,41.70309],[-107.894256,41.703093],[-107.89286,41.703211],[-107.892701,41.703221],[-107.888874,41.703453],[-107.88766,41.703527],[-107.885392,41.703664],[-107.874991,41.704296],[-107.872298,41.704459],[-107.87138,41.704515],[-107.870489,41.704569],[-107.86937,41.704637],[-107.868788,41.704672],[-107.867591,41.704713],[-107.867257,41.704725],[-107.866779,41.704721],[-107.86619,41.704715],[-107.865853,41.704712],[-107.865828,41.704711],[-107.865394,41.704685],[-107.865199,41.704673],[-107.864463,41.704629],[-107.864446,41.704628],[-107.864331,41.704615],[-107.863381,41.704507],[-107.863038,41.704468],[-107.862969,41.70446],[-107.862623,41.7044],[-107.862572,41.704391],[-107.861914,41.704278],[-107.861589,41.704222],[-107.861488,41.704204],[-107.861276,41.704168],[-107.860757,41.704054],[-107.859524,41.703783],[-107.859071,41.703677],[-107.858231,41.70348],[-107.857399,41.703286],[-107.854913,41.702704],[-107.853687,41.702417],[-107.851571,41.701922],[-107.846309,41.700691],[-107.845352,41.700467],[-107.844792,41.700336],[-107.840923,41.699431],[-107.84017,41.699255],[-107.83932,41.699056],[-107.838413,41.698844],[-107.838379,41.698835],[-107.837404,41.698576],[-107.837058,41.698484],[-107.83659,41.698336],[-107.836087,41.698177],[-107.835677,41.69803],[-107.835116,41.69783],[-107.834737,41.697689]],"type":"LineString"},"id":"REF-WAMSUTTER-FRA-RAIL-13","properties":{"BRANCH":"#N\\A","CNTYFIPS":"037","COUNTRY":"US","DIVISION":"ROCKY MOUNTAIN","FRAARCID":309584,"FRADISTRCT":8,"FRFRANODE":337680,"KM":10.680082837340667,"MILES":6.636282533240247,"NET":"M","OBJECTID":267845,"PASSNGR":null,"RROWNER1":"UP","RROWNER2":null,"RROWNER3":null,"STATEAB":"WY","STCNTYFIPS":"56037","STFIPS":"56","STRACNET":"S","SUBDIV":"RAWLINS","Shape__Length":0.12461287908561607,"TIMEZONE":"M","TOFRANODE":337759,"TRACKS":2,"TRKRGHTS1":null,"TRKRGHTS2":null,"TRKRGHTS3":null,"TRKRGHTS4":null,"TRKRGHTS5":null,"TRKRGHTS6":null,"TRKRGHTS7":null,"TRKRGHTS8":null,"TRKRGHTS9":null,"YARDNAME":null,"canon_status":"REAL_REFERENCE","fictionality":"REAL","real_world_relation":"REFERENCE_ONLY","source_id":"REF-WAMSUTTER-FRA-RAIL"},"type":"Feature"},{"geometry":{"coordinates":[[-107.966732,41.673843],[-107.965028,41.674851],[-107.964775,41.675001],[-107.955177,41.680622],[-107.955149,41.680639],[-107.954318,41.681125]],"type":"LineString"},"id":"REF-WAMSUTTER-FRA-RAIL-14","properties":{"BRANCH":"#N\\A","CNTYFIPS":"037","COUNTRY":"US","DIVISION":"ROCKY MOUNTAIN","FRAARCID":309593,"FRADISTRCT":8,"FRFRANODE":337670,"KM":1.3124965620706446,"MILES":0.8155459224861312,"NET":"M","OBJECTID":267848,"PASSNGR":null,"RROWNER1":"UP","RROWNER2":null,"RROWNER3":null,"STATEAB":"WY","STCNTYFIPS":"56037","STFIPS":"56","STRACNET":"S","SUBDIV":"RAWLINS","Shape__Length":0.014391942811228194,"TIMEZONE":"M","TOFRANODE":337680,"TRACKS":2,"TRKRGHTS1":null,"TRKRGHTS2":null,"TRKRGHTS3":null,"TRKRGHTS4":null,"TRKRGHTS5":null,"TRKRGHTS6":null,"TRKRGHTS7":null,"TRKRGHTS8":null,"TRKRGHTS9":null,"YARDNAME":null,"canon_status":"REAL_REFERENCE","fictionality":"REAL","real_world_relation":"REFERENCE_ONLY","source_id":"REF-WAMSUTTER-FRA-RAIL"},"type":"Feature"},{"geometry":{"coordinates":[[-107.97494,41.668411],[-107.974675,41.668596],[-107.972552,41.670083],[-107.972509,41.670113],[-107.971782,41.670622]],"type":"LineString"},"id":"REF-WAMSUTTER-FRA-RAIL-15","properties":{"BRANCH":"#N\\A","CNTYFIPS":"037","COUNTRY":"US","DIVISION":"ROCKY MOUNTAIN","FRAARCID":309594,"FRADISTRCT":8,"FRFRANODE":337652,"KM":0.3597873136326669,"MILES":0.22356102490085378,"NET":"M","OBJECTID":267849,"PASSNGR":null,"RROWNER1":"UP","RROWNER2":null,"RROWNER3":null,"STATEAB":"WY","STCNTYFIPS":"56037","STFIPS":"56","STRACNET":"S","SUBDIV":"RAWLINS","Shape__Length":0.003854704587511941,"TIMEZONE":"M","TOFRANODE":337656,"TRACKS":2,"TRKRGHTS1":null,"TRKRGHTS2":null,"TRKRGHTS3":null,"TRKRGHTS4":null,"TRKRGHTS5":null,"TRKRGHTS6":null,"TRKRGHTS7":null,"TRKRGHTS8":null,"TRKRGHTS9":null,"YARDNAME":null,"canon_status":"REAL_REFERENCE","fictionality":"REAL","real_world_relation":"REFERENCE_ONLY","source_id":"REF-WAMSUTTER-FRA-RAIL"},"type":"Feature"},{"geometry":{"coordinates":[[-107.976145,41.667567],[-107.9759,41.667739],[-107.97494,41.668411]],"type":"LineString"},"id":"REF-WAMSUTTER-FRA-RAIL-16","properties":{"BRANCH":"#N\\A","CNTYFIPS":"037","COUNTRY":"US","DIVISION":"ROCKY MOUNTAIN","FRAARCID":309624,"FRADISTRCT":8,"FRFRANODE":337648,"KM":0.13736965835790152,"MILES":0.08535737767598774,"NET":"M","OBJECTID":267852,"PASSNGR":null,"RROWNER1":"UP","RROWNER2":null,"RROWNER3":null,"STATEAB":"WY","STCNTYFIPS":"56037","STFIPS":"56","STRACNET":"S","SUBDIV":"RAWLINS","Shape__Length":0.001471738383466521,"TIMEZONE":"M","TOFRANODE":337652,"TRACKS":2,"TRKRGHTS1":null,"TRKRGHTS2":null,"TRKRGHTS3":null,"TRKRGHTS4":null,"TRKRGHTS5":null,"TRKRGHTS6":null,"TRKRGHTS7":null,"TRKRGHTS8":null,"TRKRGHTS9":null,"YARDNAME":null,"canon_status":"REAL_REFERENCE","fictionality":"REAL","real_world_relation":"REFERENCE_ONLY","source_id":"REF-WAMSUTTER-FRA-RAIL"},"type":"Feature"},{"geometry":{"coordinates":[[-108.000738,41.658173],[-107.998007,41.658319],[-107.995469,41.658455],[-107.993789,41.658563],[-107.99332,41.658614],[-107.993284,41.658618],[-107.993172,41.658631],[-107.992571,41.658697],[-107.992387,41.658717],[-107.991399,41.658883],[-107.991248,41.658915],[-107.990587,41.659058],[-107.990157,41.659171],[-107.989734,41.659282],[-107.989676,41.659297],[-107.989082,41.659486],[-107.988677,41.659614],[-107.98849,41.659683],[-107.987973,41.659875],[-107.987362,41.660136],[-107.987224,41.660195],[-107.98716,41.660222],[-107.987101,41.660247],[-107.986207,41.660688],[-107.986155,41.660717],[-107.985655,41.660995],[-107.985635,41.661006],[-107.985099,41.66135],[-107.984712,41.661599],[-107.984226,41.661912],[-107.984182,41.66194],[-107.981861,41.663565],[-107.978923,41.665622],[-107.977076,41.666915],[-107.977026,41.66695],[-107.976145,41.667567]],"type":"LineString"},"id":"REF-WAMSUTTER-FRA-RAIL-17","properties":{"BRANCH":"#N\\A","CNTYFIPS":"037","COUNTRY":"US","DIVISION":"ROCKY MOUNTAIN","FRAARCID":309644,"FRADISTRCT":8,"FRFRANODE":337639,"KM":2.396483827130626,"MILES":1.4891030346296203,"NET":"M","OBJECTID":267860,"PASSNGR":null,"RROWNER1":"UP","RROWNER2":null,"RROWNER3":null,"STATEAB":"WY","STCNTYFIPS":"56037","STFIPS":"56","STRACNET":"S","SUBDIV":"RAWLINS","Shape__Length":0.02708169585835065,"TIMEZONE":"M","TOFRANODE":337648,"TRACKS":2,"TRKRGHTS1":null,"TRKRGHTS2":null,"TRKRGHTS3":null,"TRKRGHTS4":null,"TRKRGHTS5":null,"TRKRGHTS6":null,"TRKRGHTS7":null,"TRKRGHTS8":null,"TRKRGHTS9":null,"YARDNAME":null,"canon_status":"REAL_REFERENCE","fictionality":"REAL","real_world_relation":"REFERENCE_ONLY","source_id":"REF-WAMSUTTER-FRA-RAIL"},"type":"Feature"},{"geometry":{"coordinates":[[-108.121738,41.651588],[-108.121468,41.651631],[-108.120085,41.65178],[-108.119932,41.651789],[-108.11898,41.651846],[-108.118724,41.651862],[-108.118595,41.65187],[-108.118387,41.651882],[-108.116952,41.651959],[-108.110821,41.652287],[-108.109992,41.652331],[-108.105861,41.652552],[-108.100002,41.652865],[-108.090486,41.653374],[-108.089681,41.653417],[-108.088791,41.653465],[-108.083102,41.653769],[-108.079305,41.653972],[-108.075091,41.654197],[-108.072082,41.654358],[-108.064921,41.654741],[-108.052312,41.655415],[-108.046981,41.6557],[-108.039332,41.656109],[-108.03704,41.656232],[-108.022752,41.656996],[-108.003842,41.658007],[-108.000738,41.658173]],"type":"LineString"},"id":"REF-WAMSUTTER-FRA-RAIL-18","properties":{"BRANCH":"#N\\A","CNTYFIPS":"037","COUNTRY":"US","DIVISION":"ROCKY MOUNTAIN","FRAARCID":318339,"FRADISTRCT":8,"FRFRANODE":337458,"KM":10.105872762312273,"MILES":6.279485647920363,"NET":"M","OBJECTID":268415,"PASSNGR":null,"RROWNER1":"UP","RROWNER2":null,"RROWNER3":null,"STATEAB":"WY","STCNTYFIPS":"56037","STFIPS":"56","STRACNET":"S","SUBDIV":"RAWLINS","Shape__Length":0.12118178759985684,"TIMEZONE":"M","TOFRANODE":337639,"TRACKS":2,"TRKRGHTS1":null,"TRKRGHTS2":null,"TRKRGHTS3":null,"TRKRGHTS4":null,"TRKRGHTS5":null,"TRKRGHTS6":null,"TRKRGHTS7":null,"TRKRGHTS8":null,"TRKRGHTS9":null,"YARDNAME":null,"canon_status":"REAL_REFERENCE","fictionality":"REAL","real_world_relation":"REFERENCE_ONLY","source_id":"REF-WAMSUTTER-FRA-RAIL"},"type":"Feature"}],"type":"FeatureCollection"}
