{"features":[{"geometry":{"coordinates":[[[-106.078238,43.479681],[-106.078236,43.472499],[-106.073869,43.47257],[-106.073167,43.250018],[-106.073768,43.126667],[-106.075667,43.126866],[-106.072669,42.778165],[-106.077069,42.777965],[-106.076169,42.737665],[-106.074369,42.737665],[-106.074369,42.721965],[-106.070669,42.722065],[-106.070569,42.718584],[-106.075669,42.718464],[-106.075669,42.706165],[-106.073669,42.706165],[-106.073669,42.695365],[-106.075769,42.695265],[-106.076583,42.536292],[-106.074745,42.493093],[-106.075852,42.433218],[-105.556042,42.430583],[-105.556184,42.406253],[-105.575546,42.406228],[-105.575642,42.377314],[-105.614656,42.377436],[-105.613865,42.304455],[-105.599427,42.304809],[-105.599416,42.297536],[-105.563802,42.297293],[-105.535878,42.29455],[-105.5267,42.296137],[-105.526399,42.288859],[-105.375541,42.290139],[-105.378682,42.319018],[-105.358592,42.319265],[-105.360831,42.333529],[-105.361737,42.376319],[-105.352229,42.376393],[-105.351964,42.404892],[-105.34206,42.404929],[-105.342101,42.419065],[-105.332486,42.419104],[-105.332638,42.431106],[-105.282258,42.431328],[-105.284719,42.577504],[-105.286511,42.605826],[-105.096279,42.608511],[-104.892437,42.608939],[-104.893479,42.78282],[-104.89848,42.78303],[-104.899373,42.804524],[-104.89765,42.873828],[-104.898598,43.117763],[-104.896966,43.145635],[-104.899941,43.49964],[-106.078068,43.494471],[-106.078238,43.479681]]],"type":"Polygon"},"id":"REF-WYOMING-COUNTIES-1","properties":{"AREALAND":11020383678,"AREAWATER":26070602,"BASENAME":"Converse","CENTLAT":"+42.9712758","CENTLON":"-105.5073828","COUNTY":"009","COUNTYCC":"H1","COUNTYNS":"01605070","FUNCSTAT":"A","GEOID":"56009","INTPTLAT":"+42.9846244","INTPTLON":"-105.5247531","LSADC":"06","MTFCC":"G4020","NAME":"Converse County","OBJECTID":202,"OID":"27590237010874","STATE":"56","canon_status":"REAL_REFERENCE","fictionality":"REAL","real_world_relation":"REFERENCE_ONLY","source_id":"REF-WYOMING-COUNTIES"},"type":"Feature"},{"geometry":{"coordinates":[[[-106.02524,44.979575],[-106.023103,44.86882],[-106.017575,44.868785],[-106.014275,44.857784],[-106.014977,44.707082],[-106.010677,44.693182],[-106.008477,44.521081],[-106.014477,44.52098],[-106.016632,44.374981],[-106.016504,44.169729],[-106.011377,44.169735],[-106.00957,44.083553],[-106.009201,43.821579],[-106.017598,43.821489],[-106.018862,43.624972],[-106.017366,43.494969],[-105.079797,43.498445],[-105.081769,43.592115],[-105.078784,43.827021],[-105.081407,43.826928],[-105.079281,44.176182],[-105.082181,44.176175],[-105.084467,44.216633],[-105.083715,44.269231],[-105.085076,44.324184],[-105.082698,44.527607],[-105.086151,44.527708],[-105.085451,44.786801],[-105.076861,44.786193],[-105.074791,44.87107],[-105.076696,44.871072],[-105.076601,44.999926],[-105.913149,45.000238],[-105.928174,44.993487],[-106.024815,44.993495],[-106.02524,44.979575]]],"type":"Polygon"},"id":"REF-WYOMING-COUNTIES-2","properties":{"AREALAND":12437291821,"AREAWATER":11010427,"BASENAME":"Campbell","CENTLAT":"+44.2455041","CENTLON":"-105.5483190","COUNTY":"005","COUNTYCC":"H1","COUNTYNS":"01605068","FUNCSTAT":"A","GEOID":"56005","INTPTLAT":"+44.1911356","INTPTLON":"-105.5260686","LSADC":"06","MTFCC":"G4020","NAME":"Campbell County","OBJECTID":275,"OID":"27590234791170","STATE":"56","canon_status":"REAL_REFERENCE","fictionality":"REAL","real_world_relation":"REFERENCE_ONLY","source_id":"REF-WYOMING-COUNTIES"},"type":"Feature"},{"geometry":{"coordinates":[[[-105.278875,41.116397],[-105.280675,41.321448],[-105.280201,41.395378],[-105.277599,41.395473],[-105.277425,41.39951],[-105.278973,41.741995],[-105.271809,41.742029],[-105.271746,41.986095],[-105.273344,42.00716],[-105.27375,42.088824],[-105.281139,42.088888],[-105.281442,42.321518],[-105.28391,42.431402],[-105.332638,42.431106],[-105.332486,42.419104],[-105.342101,42.419065],[-105.34206,42.404929],[-105.351964,42.404892],[-105.352229,42.376393],[-105.361737,42.376319],[-105.360831,42.333529],[-105.358592,42.319265],[-105.378682,42.319018],[-105.375541,42.290139],[-105.526399,42.288859],[-105.5267,42.296137],[-105.535878,42.29455],[-105.563802,42.297293],[-105.599416,42.297536],[-105.599427,42.304809],[-105.613865,42.304455],[-105.614656,42.377436],[-105.575642,42.377314],[-105.575546,42.406228],[-105.556184,42.406253],[-105.556042,42.430583],[-106.073403,42.433236],[-106.074919,42.086649],[-106.073062,41.977194],[-106.071318,41.498916],[-106.068406,41.395028],[-106.208075,41.393767],[-106.208141,41.39504],[-106.322885,41.395141],[-106.323343,41.124972],[-106.321165,40.999123],[-106.061181,40.996999],[-105.27686,40.998172],[-105.276837,41.045683],[-105.278738,41.045582],[-105.278875,41.116397]]],"type":"Polygon"},"id":"REF-WYOMING-COUNTIES-3","properties":{"AREALAND":11070062779,"AREAWATER":89554044,"BASENAME":"Albany","CENTLAT":"+41.6521883","CENTLON":"-105.7243929","COUNTY":"001","COUNTYCC":"H1","COUNTYNS":"01605066","FUNCSTAT":"A","GEOID":"56001","INTPTLAT":"+41.6655141","INTPTLON":"-105.7218826","LSADC":"06","MTFCC":"G4020","NAME":"Albany County","OBJECTID":437,"OID":"27590229495436","STATE":"56","canon_status":"REAL_REFERENCE","fictionality":"REAL","real_world_relation":"REFERENCE_ONLY","source_id":"REF-WYOMING-COUNTIES"},"type":"Feature"},{"geometry":{"coordinates":[[[-111.054556,44.999735],[-111.053447,44.666268],[-110.667867,44.666291],[-110.667899,44.582792],[-110.375334,44.583016],[-110.376864,44.580209],[-110.372555,44.574609],[-110.372719,44.570868],[-110.374661,44.568468],[-110.382604,44.566514],[-110.384504,44.563845],[-110.370369,44.559564],[-110.36014,44.553548],[-110.339299,44.548417],[-110.333501,44.547712],[-110.331552,44.548841],[-110.330966,44.553711],[-110.31815,44.554623],[-110.315348,44.55611],[-110.305424,44.552895],[-110.29485,44.546923],[-110.290148,44.542735],[-110.289228,44.5397],[-110.290395,44.538076],[-110.295245,44.537539],[-110.295046,44.534954],[-110.298469,44.530092],[-110.295371,44.527853],[-110.290644,44.528659],[-110.285789,44.526336],[-110.276483,44.515797],[-110.279132,44.51115],[-110.279864,44.505574],[-110.278003,44.498492],[-110.284341,44.489708],[-110.282247,44.476563],[-110.284986,44.472723],[-110.288772,44.472724],[-110.291019,44.470315],[-110.288812,44.451524],[-110.292653,44.443386],[-110.292364,44.437948],[-110.293652,44.435873],[-110.296294,44.435391],[-110.296296,44.430419],[-110.289681,44.425583],[-110.286743,44.419392],[-110.278024,44.413945],[-110.260043,44.409449],[-110.254879,44.404832],[-110.253853,44.389783],[-110.24273,44.387174],[-110.241029,44.384667],[-110.234973,44.381646],[-110.228784,44.374722],[-110.2295,44.370974],[-110.226801,44.361568],[-110.228099,44.358407],[-110.226864,44.351899],[-110.223924,44.34791],[-110.225925,44.342103],[-110.225334,44.338799],[-110.220192,44.33278],[-110.202513,44.327763],[-110.201488,44.324058],[-110.20278,44.322905],[-110.201251,44.322752],[-110.200218,44.320156],[-110.201334,44.319898],[-110.201786,44.32273],[-110.201953,44.319207],[-110.203093,44.319953],[-110.205194,44.31745],[-110.20644,44.318427],[-110.203183,44.313291],[-110.204949,44.315261],[-110.209803,44.314381],[-110.203373,44.307845],[-110.203842,44.30561],[-110.198263,44.306492],[-110.189267,44.300374],[-110.185979,44.302827],[-110.186561,44.30828],[-110.182115,44.309425],[-110.181321,44.308114],[-110.184091,44.305022],[-110.183436,44.301906],[-110.180082,44.301567],[-110.178328,44.303944],[-110.174429,44.304534],[-110.172383,44.301471],[-110.175767,44.298535],[-110.171362,44.296167],[-110.16904,44.296313],[-110.166196,44.300057],[-110.16221,44.299043],[-110.161539,44.297162],[-110.155836,44.293734],[-110.1511,44.292464],[-110.144793,44.283187],[-110.145408,44.278279],[-110.140727,44.276094],[-110.141163,44.274034],[-110.150532,44.270509],[-110.146833,44.265463],[-110.139942,44.263222],[-110.142684,44.258627],[-110.144728,44.258031],[-110.143376,44.253988],[-110.137106,44.249017],[-110.134143,44.250591],[-110.131745,44.249952],[-110.134418,44.243862],[-110.133272,44.24025],[-110.137121,44.238798],[-110.138026,44.236837],[-110.131149,44.229821],[-110.132957,44.225563],[-110.128063,44.222292],[-110.123769,44.21493],[-110.123667,44.211487],[-110.118817,44.215787],[-110.114938,44.216496],[-110.113463,44.21287],[-110.109745,44.210114],[-110.110898,44.209007],[-110.116367,44.210118],[-110.117598,44.208163],[-110.121962,44.207073],[-110.123519,44.203768],[-110.119094,44.198673],[-110.117131,44.198469],[-110.114977,44.200747],[-110.111997,44.199891],[-110.108851,44.19334],[-110.112772,44.191599],[-110.120969,44.194947],[-110.123774,44.192474],[-110.114469,44.18949],[-110.119889,44.186426],[-110.116842,44.183071],[-110.11761,44.181201],[-110.114892,44.181675],[-110.114782,44.184722],[-110.107243,44.186374],[-110.105395,44.1846],[-110.109181,44.178386],[-110.114875,44.179539],[-110.11642,44.177555],[-110.119911,44.176937],[-110.120102,44.174835],[-110.122834,44.175012],[-110.120066,44.170329],[-110.116108,44.168171],[-110.121768,44.165486],[-110.120239,44.163556],[-110.120859,44.161709],[-110.127823,44.159158],[-110.126018,44.154589],[-110.123678,44.153038],[-110.128209,44.151188],[-110.124658,44.149481],[-110.126863,44.142829],[-110.123843,44.143982],[-110.12428,44.141287],[-110.120679,44.139822],[-110.12121,44.136677],[-110.115928,44.135685],[-110.119404,44.13464],[-110.119596,44.132578],[-110.053357,44.132628],[-110.053179,44.008022],[-110.048973,44.008784],[-110.043994,44.004502],[-110.031584,44.000972],[-110.032739,43.996449],[-110.023739,43.985949],[-110.023239,43.982449],[-110.018938,43.979949],[-110.018638,43.968249],[-110.017238,43.966849],[-110.001737,43.966849],[-110.000176,43.962087],[-110.002037,43.955449],[-109.999723,43.952319],[-109.993871,43.949557],[-109.990073,43.949066],[-109.982137,43.954235],[-109.971968,43.955627],[-109.966805,43.961393],[-109.958858,43.964571],[-109.955507,43.964147],[-109.945203,43.958221],[-109.939349,43.958172],[-109.932292,43.950718],[-109.92761,43.94999],[-109.922058,43.946085],[-109.884402,43.948573],[-109.858754,43.957988],[-109.854929,43.950261],[-109.857928,43.94901],[-109.858449,43.942046],[-109.865259,43.940001],[-109.873953,43.9336],[-109.873613,43.930179],[-109.872492,43.927946],[-109.865916,43.926271],[-109.85655,43.924837],[-109.851863,43.926594],[-109.854189,43.924063],[-109.848947,43.919806],[-109.850131,43.912598],[-109.847881,43.908123],[-109.859275,43.900759],[-109.847789,43.900231],[-109.837112,43.894677],[-109.832579,43.895071],[-109.830787,43.88979],[-109.817584,43.883277],[-109.816575,43.880534],[-109.824613,43.877168],[-109.82537,43.875094],[-109.830312,43.874586],[-109.831908,43.871786],[-109.828665,43.866669],[-109.821388,43.867322],[-109.813785,43.861761],[-109.825737,43.855333],[-109.834664,43.855229],[-109.841208,43.852714],[-109.847701,43.853195],[-109.851253,43.849281],[-109.855166,43.848255],[-109.856494,43.841696],[-109.849785,43.837087],[-109.855102,43.835137],[-109.856481,43.828369],[-109.842594,43.819502],[-109.827549,43.82438],[-109.825909,43.816173],[-109.817256,43.815775],[-109.809248,43.809508],[-109.801142,43.808605],[-109.798962,43.806266],[-109.787369,43.801156],[-109.786386,43.804804],[-109.780599,43.807125],[-109.78003,43.811695],[-109.768734,43.814521],[-109.765431,43.816852],[-109.763926,43.820601],[-109.757158,43.817315],[-109.752709,43.817425],[-109.750722,43.821002],[-109.742631,43.827504],[-109.735727,43.827229],[-109.731757,43.833181],[-109.722493,43.832969],[-109.719811,43.83758],[-109.716659,43.838115],[-109.709091,43.835727],[-109.706325,43.836658],[-109.702643,43.841031],[-109.689562,43.839472],[-109.685697,43.844239],[-109.676531,43.842695],[-109.672083,43.845108],[-109.665893,43.845726],[-109.665752,43.857133],[-109.669623,43.85996],[-109.672482,43.868096],[-109.667966,43.874445],[-109.666828,43.88058],[-109.661418,43.878578],[-109.656211,43.881304],[-109.653911,43.885063],[-109.653017,43.886766],[-109.656065,43.895969],[-109.654365,43.907116],[-109.648107,43.912997],[-109.644464,43.920753],[-109.641808,43.922785],[-109.636486,43.922755],[-109.628807,43.927008],[-109.620192,43.925732],[-109.613713,43.927479],[-109.605356,43.938775],[-109.60733,43.94561],[-109.605466,43.947962],[-109.600828,43.948929],[-109.594999,43.945589],[-109.587778,43.93835],[-109.584312,43.937883],[-109.576057,43.942583],[-109.566943,43.95482],[-109.559914,43.954636],[-109.552653,43.960572],[-109.542332,43.961352],[-109.53966,43.956943],[-109.534465,43.953883],[-109.53196,43.949455],[-109.512105,43.939018],[-109.503182,43.93882],[-109.491979,43.945388],[-109.489742,43.94829],[-109.476047,43.948835],[-109.472731,43.945128],[-109.470542,43.938806],[-109.472393,43.932177],[-109.454726,43.927657],[-109.451544,43.929544],[-109.442361,43.930434],[-109.438166,43.919802],[-109.4339,43.91404],[-109.426862,43.910039],[-109.413418,43.909252],[-109.410936,43.903988],[-109.404952,43.901982],[-109.406266,43.899043],[-109.401758,43.892008],[-109.402502,43.888398],[-109.398464,43.884341],[-109.391721,43.882681],[-109.38017,43.882799],[-109.374021,43.877447],[-109.373599,43.873756],[-109.376328,43.870923],[-109.372649,43.859419],[-109.369898,43.857226],[-109.371466,43.856646],[-109.372201,43.852991],[-109.371155,43.850869],[-109.36749,43.84974],[-109.36728,43.843478],[-109.349319,43.839907],[-109.340966,43.840171],[-109.335997,43.842099],[-109.325802,43.837751],[-109.321608,43.834034],[-109.322911,43.832459],[-109.322097,43.829094],[-109.316212,43.824194],[-109.316867,43.819164],[-109.312949,43.813293],[-109.272587,43.813551],[-109.272548,43.81612],[-109.133171,43.816],[-109.093603,43.817619],[-109.092395,43.838063],[-109.092878,43.904474],[-108.912783,43.904754],[-108.915985,43.990854],[-108.791779,43.991053],[-108.792277,44.079616],[-108.550758,44.079403],[-108.550562,44.168455],[-108.573797,44.168468],[-108.57342,44.520811],[-108.592494,44.52093],[-108.592296,44.871444],[-108.620462,44.871481],[-108.621315,45.000361],[-109.0807,44.99944],[-109.103228,45.005815],[-109.761106,45.001802],[-109.825663,45.003224],[-110.105776,45.003533],[-110.183221,44.996953],[-110.284774,44.997359],[-110.325198,44.999677],[-110.407116,44.999496],[-110.445743,44.993682],[-110.704476,44.992174],[-110.790119,45.000883],[-111.054556,45.000955],[-111.054556,44.999735]]],"type":"Polygon"},"id":"REF-WYOMING-COUNTIES-4","properties":{"AREALAND":17972027718,"AREAWATER":67638745,"BASENAME":"Park","CENTLAT":"+44.5204352","CENTLON":"-109.5859885","COUNTY":"029","COUNTYCC":"H1","COUNTYNS":"01605079","FUNCSTAT":"A","GEOID":"56029","INTPTLAT":"+44.4923865","INTPTLON":"-109.5935975","LSADC":"06","MTFCC":"G4020","NAME":"Park County","OBJECTID":438,"OID":"27590242469580","STATE":"56","canon_status":"REAL_REFERENCE","fictionality":"REAL","real_world_relation":"REFERENCE_ONLY","source_id":"REF-WYOMING-COUNTIES"},"type":"Feature"},{"geometry":{"coordinates":[[[-107.296437,44.559101],[-106.428897,44.556777],[-106.428897,44.561777],[-106.179185,44.56208],[-106.179485,44.56378],[-106.009676,44.563981],[-106.010677,44.693182],[-106.014977,44.707082],[-106.014275,44.857784],[-106.017575,44.868785],[-106.023103,44.86882],[-106.024815,44.993495],[-107.084886,44.9966],[-107.138121,45.000128],[-107.31495,45.00103],[-107.911523,45.000678],[-107.907916,44.99593],[-107.899768,44.996295],[-107.894003,44.991285],[-107.890435,44.991865],[-107.88189,44.985894],[-107.883583,44.980916],[-107.87655,44.9633],[-107.879279,44.949667],[-107.882358,44.942448],[-107.881863,44.933425],[-107.872117,44.928471],[-107.869341,44.924799],[-107.856822,44.916641],[-107.852532,44.915634],[-107.853188,44.908917],[-107.849518,44.905672],[-107.850672,44.902726],[-107.848535,44.898469],[-107.851899,44.898621],[-107.856624,44.894691],[-107.860997,44.894281],[-107.860889,44.880885],[-107.865018,44.873639],[-107.861751,44.868508],[-107.855021,44.867477],[-107.849762,44.862279],[-107.84443,44.860646],[-107.840598,44.849847],[-107.837323,44.846539],[-107.83178,44.844995],[-107.832586,44.838277],[-107.828976,44.836123],[-107.827741,44.831501],[-107.832725,44.825112],[-107.825631,44.825286],[-107.824372,44.823257],[-107.829308,44.82157],[-107.819026,44.820639],[-107.816278,44.817522],[-107.81817,44.809224],[-107.831622,44.799787],[-107.832319,44.790161],[-107.824967,44.791797],[-107.812827,44.789316],[-107.780461,44.772654],[-107.764817,44.773451],[-107.754388,44.770591],[-107.752136,44.765627],[-107.753493,44.761698],[-107.752288,44.758636],[-107.754122,44.75798],[-107.745572,44.754332],[-107.748949,44.746042],[-107.743554,44.741476],[-107.745732,44.73504],[-107.744462,44.728989],[-107.747599,44.725146],[-107.75128,44.723457],[-107.743467,44.715423],[-107.737157,44.713207],[-107.728192,44.716455],[-107.717502,44.710649],[-107.69834,44.705013],[-107.694792,44.708346],[-107.685549,44.705513],[-107.68283,44.706112],[-107.681123,44.702894],[-107.681361,44.696537],[-107.684184,44.692676],[-107.681224,44.688198],[-107.676531,44.68675],[-107.669708,44.679578],[-107.656716,44.683758],[-107.65511,44.689266],[-107.651549,44.69032],[-107.650707,44.692314],[-107.643326,44.693281],[-107.63919,44.691227],[-107.630824,44.693199],[-107.622585,44.693041],[-107.619669,44.695629],[-107.619704,44.698813],[-107.615891,44.701297],[-107.612184,44.697941],[-107.604667,44.694957],[-107.595719,44.69502],[-107.589684,44.688429],[-107.580044,44.689531],[-107.573689,44.68299],[-107.566324,44.682993],[-107.556621,44.678596],[-107.549172,44.678793],[-107.549576,44.673518],[-107.54787,44.670679],[-107.548919,44.667015],[-107.538999,44.664934],[-107.529836,44.666152],[-107.519269,44.660654],[-107.529902,44.651313],[-107.533829,44.651136],[-107.53506,44.648468],[-107.534643,44.646548],[-107.529591,44.643916],[-107.529886,44.639363],[-107.527203,44.634292],[-107.524028,44.633004],[-107.512254,44.633366],[-107.506804,44.635941],[-107.500171,44.642098],[-107.494862,44.642029],[-107.49025,44.635387],[-107.490615,44.632866],[-107.487635,44.627087],[-107.480724,44.623176],[-107.47754,44.616796],[-107.469641,44.612286],[-107.463761,44.612096],[-107.457387,44.607744],[-107.448174,44.607392],[-107.443127,44.605583],[-107.43277,44.607747],[-107.43518,44.612037],[-107.424345,44.611381],[-107.4225,44.608508],[-107.422672,44.603274],[-107.418832,44.600754],[-107.413159,44.598864],[-107.404275,44.599955],[-107.397209,44.598627],[-107.392902,44.595963],[-107.383472,44.595354],[-107.385161,44.589769],[-107.380756,44.584574],[-107.374869,44.581981],[-107.376618,44.579995],[-107.373008,44.574287],[-107.373438,44.56973],[-107.369621,44.559837],[-107.296437,44.559101]]],"type":"Polygon"},"id":"REF-WYOMING-COUNTIES-5","properties":{"AREALAND":6535473432,"AREAWATER":7987953,"BASENAME":"Sheridan","CENTLAT":"+44.7908412","CENTLON":"-106.8790288","COUNTY":"033","COUNTYCC":"H1","COUNTYNS":"01605081","FUNCSTAT":"A","GEOID":"56033","INTPTLAT":"+44.7813692","INTPTLON":"-106.8812114","LSADC":"06","MTFCC":"G4020","NAME":"Sheridan County","OBJECTID":481,"OID":"27590242990801","STATE":"56","canon_status":"REAL_REFERENCE","fictionality":"REAL","real_world_relation":"REFERENCE_ONLY","source_id":"REF-WYOMING-COUNTIES"},"type":"Feature"},{"geometry":{"coordinates":[[[-105.081407,43.826963],[-105.078784,43.827021],[-105.081769,43.592115],[-105.079797,43.498445],[-104.733763,43.501735],[-104.054786,43.503328],[-104.054487,44.180381],[-104.375484,44.181622],[-105.079281,44.176182],[-105.081407,43.826963]]],"type":"Polygon"},"id":"REF-WYOMING-COUNTIES-6","properties":{"AREALAND":6210804116,"AREAWATER":5225499,"BASENAME":"Weston","CENTLAT":"+43.8402384","CENTLON":"-104.5678437","COUNTY":"045","COUNTYCC":"H1","COUNTYNS":"01605086","FUNCSTAT":"A","GEOID":"56045","INTPTLAT":"+43.8462133","INTPTLON":"-104.5700202","LSADC":"06","MTFCC":"G4020","NAME":"Weston County","OBJECTID":1250,"OID":"27590493470436","STATE":"56","canon_status":"REAL_REFERENCE","fictionality":"REAL","real_world_relation":"REFERENCE_ONLY","source_id":"REF-WYOMING-COUNTIES"},"type":"Feature"},{"geometry":{"coordinates":[[[-104.461132,44.180747],[-104.054487,44.180381],[-104.055913,44.874986],[-104.057696,44.997363],[-105.076601,44.999926],[-105.076696,44.871072],[-105.074791,44.87107],[-105.076861,44.786193],[-105.085451,44.786801],[-105.0856,44.769128],[-105.086151,44.527708],[-105.082698,44.527607],[-105.085076,44.324184],[-105.083715,44.269231],[-105.084494,44.220474],[-105.082181,44.176175],[-104.461132,44.180747]]],"type":"Polygon"},"id":"REF-WYOMING-COUNTIES-7","properties":{"AREALAND":7393068910,"AREAWATER":28186052,"BASENAME":"Crook","CENTLAT":"+44.5880461","CENTLON":"-104.5699392","COUNTY":"011","COUNTYCC":"H1","COUNTYNS":"01605071","FUNCSTAT":"A","GEOID":"56011","INTPTLAT":"+44.5892657","INTPTLON":"-104.5672975","LSADC":"06","MTFCC":"G4020","NAME":"Crook County","OBJECTID":1284,"OID":"27590237920084","STATE":"56","canon_status":"REAL_REFERENCE","fictionality":"REAL","real_world_relation":"REFERENCE_ONLY","source_id":"REF-WYOMING-COUNTIES"},"type":"Feature"},{"geometry":{"coordinates":[[[-109.565094,40.99839],[-109.232505,41.002107],[-109.173905,41.000875],[-108.526029,40.999592],[-107.918421,41.002036],[-107.917104,41.398499],[-107.92988,41.39853],[-107.929736,41.659596],[-107.50972,41.657452],[-107.510054,41.740513],[-107.50549,41.74053],[-107.503821,42.087957],[-107.522321,42.087957],[-107.522722,42.261756],[-108.375655,42.263672],[-109.496761,42.263318],[-110.053708,42.270744],[-110.054409,42.007048],[-110.046407,42.006726],[-110.046507,41.749988],[-110.048908,41.474038],[-110.048483,40.997295],[-109.565094,40.99839]]],"type":"Polygon"},"id":"REF-WYOMING-COUNTIES-8","properties":{"AREALAND":27005754435,"AREAWATER":166230267,"BASENAME":"Sweetwater","CENTLAT":"+41.6595243","CENTLON":"-108.8803938","COUNTY":"037","COUNTYCC":"H1","COUNTYNS":"01609192","FUNCSTAT":"A","GEOID":"56037","INTPTLAT":"+41.6603282","INTPTLON":"-108.8756774","LSADC":"06","MTFCC":"G4020","NAME":"Sweetwater County","OBJECTID":1506,"OID":"27590243744311","STATE":"56","canon_status":"REAL_REFERENCE","fictionality":"REAL","real_world_relation":"REFERENCE_ONLY","source_id":"REF-WYOMING-COUNTIES"},"type":"Feature"},{"geometry":{"coordinates":[[[-108.622147,44.983118],[-108.620462,44.871481],[-108.592296,44.871444],[-108.592494,44.52093],[-108.57342,44.520811],[-108.573797,44.168468],[-107.742134,44.168016],[-107.684857,44.166401],[-107.375628,44.167882],[-107.146808,44.165666],[-107.145001,44.324004],[-107.150781,44.324468],[-107.15547,44.322328],[-107.159819,44.325789],[-107.159562,44.33002],[-107.156644,44.332146],[-107.163863,44.335157],[-107.172614,44.335163],[-107.176329,44.338188],[-107.176027,44.342596],[-107.178912,44.345652],[-107.189051,44.347495],[-107.187745,44.350331],[-107.188691,44.353346],[-107.184891,44.3588],[-107.173118,44.360454],[-107.161404,44.368635],[-107.165462,44.373868],[-107.176505,44.376645],[-107.174063,44.382106],[-107.17402,44.388079],[-107.17007,44.390061],[-107.169212,44.393507],[-107.177829,44.402425],[-107.182797,44.403443],[-107.188471,44.398665],[-107.199692,44.399607],[-107.198783,44.402741],[-107.20188,44.416457],[-107.200066,44.421307],[-107.204354,44.426131],[-107.203537,44.430914],[-107.200364,44.433113],[-107.203853,44.435748],[-107.200143,44.441656],[-107.202038,44.446305],[-107.210886,44.445026],[-107.218582,44.449563],[-107.221528,44.443623],[-107.242507,44.438359],[-107.254544,44.441295],[-107.261013,44.44766],[-107.278729,44.450819],[-107.274671,44.455701],[-107.278625,44.459196],[-107.300365,44.458929],[-107.304386,44.46402],[-107.302753,44.466184],[-107.303434,44.468324],[-107.300711,44.470536],[-107.301958,44.472188],[-107.300547,44.472529],[-107.301198,44.474152],[-107.299665,44.476268],[-107.305232,44.483346],[-107.298484,44.484564],[-107.297041,44.48921],[-107.298539,44.496213],[-107.294159,44.500707],[-107.301435,44.506419],[-107.310938,44.508835],[-107.314604,44.513057],[-107.314615,44.515831],[-107.327054,44.522119],[-107.322943,44.530534],[-107.324311,44.533231],[-107.330116,44.536069],[-107.330284,44.543806],[-107.337705,44.539628],[-107.353778,44.542192],[-107.355568,44.545251],[-107.360467,44.547074],[-107.360162,44.550314],[-107.36543,44.555049],[-107.371447,44.556944],[-107.369334,44.55915],[-107.373438,44.56973],[-107.373008,44.574287],[-107.376618,44.579995],[-107.374731,44.581645],[-107.380756,44.584574],[-107.384882,44.589201],[-107.383472,44.595354],[-107.392902,44.595963],[-107.397209,44.598627],[-107.404275,44.599955],[-107.413159,44.598864],[-107.418832,44.600754],[-107.422672,44.603274],[-107.4225,44.608508],[-107.424345,44.611381],[-107.43518,44.612037],[-107.43277,44.607747],[-107.443127,44.605583],[-107.448174,44.607392],[-107.457387,44.607744],[-107.463761,44.612096],[-107.469641,44.612286],[-107.47754,44.616796],[-107.480724,44.623176],[-107.487635,44.627087],[-107.490615,44.632866],[-107.49025,44.635387],[-107.494862,44.642029],[-107.500171,44.642098],[-107.506804,44.635941],[-107.512254,44.633366],[-107.524028,44.633004],[-107.527203,44.634292],[-107.529886,44.639363],[-107.529591,44.643916],[-107.534643,44.646548],[-107.53506,44.648468],[-107.533829,44.651136],[-107.529902,44.651313],[-107.519269,44.660654],[-107.529836,44.666152],[-107.538999,44.664934],[-107.548919,44.667015],[-107.54787,44.670679],[-107.549576,44.673518],[-107.549172,44.678793],[-107.556621,44.678596],[-107.566324,44.682993],[-107.573689,44.68299],[-107.580044,44.689531],[-107.589684,44.688429],[-107.595719,44.69502],[-107.604667,44.694957],[-107.612184,44.697941],[-107.615891,44.701297],[-107.619704,44.698813],[-107.619669,44.695629],[-107.622585,44.693041],[-107.630824,44.693199],[-107.63919,44.691227],[-107.643326,44.693281],[-107.650707,44.692314],[-107.651549,44.69032],[-107.65511,44.689266],[-107.656716,44.683758],[-107.669708,44.679578],[-107.676531,44.68675],[-107.681224,44.688198],[-107.684184,44.692676],[-107.681361,44.696537],[-107.681123,44.702894],[-107.68283,44.706112],[-107.685549,44.705513],[-107.694792,44.708346],[-107.69834,44.705013],[-107.717502,44.710649],[-107.728192,44.716455],[-107.737157,44.713207],[-107.743467,44.715423],[-107.75128,44.723457],[-107.747599,44.725146],[-107.744462,44.728989],[-107.745732,44.73504],[-107.743554,44.741476],[-107.748949,44.746042],[-107.745572,44.754332],[-107.754122,44.75798],[-107.752288,44.758636],[-107.753493,44.761698],[-107.752136,44.765627],[-107.754388,44.770591],[-107.764817,44.773451],[-107.780461,44.772654],[-107.812827,44.789316],[-107.824967,44.791797],[-107.832319,44.790161],[-107.831622,44.799787],[-107.81817,44.809224],[-107.816465,44.818495],[-107.819026,44.820639],[-107.829308,44.82157],[-107.824372,44.823257],[-107.825631,44.825286],[-107.832725,44.825112],[-107.827741,44.831501],[-107.828976,44.836123],[-107.832586,44.838277],[-107.83178,44.844995],[-107.837323,44.846539],[-107.840598,44.849847],[-107.84443,44.860646],[-107.849762,44.862279],[-107.855021,44.867477],[-107.861751,44.868508],[-107.865018,44.873639],[-107.860889,44.880885],[-107.860997,44.894281],[-107.856624,44.894691],[-107.851899,44.898621],[-107.848535,44.898469],[-107.850672,44.902726],[-107.849518,44.905672],[-107.853188,44.908917],[-107.852532,44.915634],[-107.856822,44.916641],[-107.869341,44.924799],[-107.872117,44.928471],[-107.881863,44.933425],[-107.882358,44.942448],[-107.879279,44.949667],[-107.87655,44.9633],[-107.883583,44.980916],[-107.881662,44.98546],[-107.890003,44.991656],[-107.894003,44.991285],[-107.900721,44.996526],[-107.907916,44.99593],[-107.911523,45.000678],[-108.621315,45.000361],[-108.622147,44.983118]]],"type":"Polygon"},"id":"REF-WYOMING-COUNTIES-9","properties":{"AREALAND":8124681808,"AREAWATER":55228617,"BASENAME":"Big Horn","CENTLAT":"+44.5264405","CENTLON":"-107.9941156","COUNTY":"003","COUNTYCC":"H1","COUNTYNS":"01605067","FUNCSTAT":"A","GEOID":"56003","INTPTLAT":"+44.5251167","INTPTLON":"-107.9948477","LSADC":"06","MTFCC":"G4020","NAME":"Big Horn County","OBJECTID":1554,"OID":"27590230862046","STATE":"56","canon_status":"REAL_REFERENCE","fictionality":"REAL","real_world_relation":"REFERENCE_ONLY","source_id":"REF-WYOMING-COUNTIES"},"type":"Feature"},{"geometry":{"coordinates":[[[-111.053447,44.666268],[-111.052434,44.478411],[-111.048974,44.474072],[-111.049077,44.02013],[-111.047349,43.999921],[-111.046612,43.914095],[-111.044893,43.315719],[-110.927902,43.31596],[-110.927884,43.313501],[-110.813996,43.31394],[-110.813993,43.235178],[-110.578656,43.235224],[-110.57838,43.29164],[-110.343959,43.291165],[-110.344218,43.377918],[-110.05731,43.377768],[-110.057506,43.464756],[-110.05157,43.464783],[-110.051231,43.508744],[-110.051437,43.814449],[-110.053637,43.814549],[-110.053357,44.132628],[-110.119596,44.132578],[-110.119404,44.13464],[-110.115928,44.135685],[-110.12121,44.136677],[-110.120679,44.139822],[-110.12428,44.141287],[-110.123843,44.143982],[-110.126863,44.142829],[-110.124658,44.149481],[-110.128209,44.151188],[-110.123678,44.153038],[-110.126018,44.154589],[-110.127823,44.159158],[-110.120859,44.161709],[-110.120239,44.163556],[-110.121768,44.165486],[-110.116108,44.168171],[-110.120066,44.170329],[-110.122834,44.175012],[-110.120102,44.174835],[-110.119911,44.176937],[-110.11642,44.177555],[-110.114875,44.179539],[-110.109181,44.178386],[-110.105395,44.1846],[-110.107243,44.186374],[-110.114782,44.184722],[-110.114892,44.181675],[-110.11761,44.181201],[-110.116842,44.183071],[-110.119889,44.186426],[-110.114469,44.18949],[-110.123774,44.192474],[-110.120969,44.194947],[-110.112772,44.191599],[-110.108851,44.19334],[-110.111997,44.199891],[-110.114977,44.200747],[-110.117131,44.198469],[-110.119094,44.198673],[-110.123519,44.203768],[-110.121962,44.207073],[-110.117598,44.208163],[-110.116367,44.210118],[-110.110898,44.209007],[-110.109745,44.210114],[-110.113463,44.21287],[-110.114938,44.216496],[-110.118817,44.215787],[-110.123667,44.211487],[-110.123769,44.21493],[-110.128063,44.222292],[-110.132957,44.225563],[-110.131149,44.229821],[-110.138026,44.236837],[-110.137121,44.238798],[-110.133272,44.24025],[-110.134418,44.243862],[-110.131745,44.249952],[-110.134143,44.250591],[-110.137106,44.249017],[-110.143376,44.253988],[-110.144728,44.258031],[-110.142684,44.258627],[-110.139942,44.263222],[-110.146833,44.265463],[-110.150532,44.270509],[-110.141163,44.274034],[-110.140727,44.276094],[-110.145408,44.278279],[-110.144793,44.283187],[-110.1511,44.292464],[-110.155836,44.293734],[-110.161539,44.297162],[-110.16221,44.299043],[-110.166196,44.300057],[-110.16904,44.296313],[-110.171362,44.296167],[-110.175767,44.298535],[-110.172383,44.301471],[-110.174429,44.304534],[-110.178328,44.303944],[-110.180082,44.301567],[-110.183436,44.301906],[-110.184091,44.305022],[-110.181321,44.308114],[-110.182115,44.309425],[-110.186561,44.30828],[-110.185979,44.302827],[-110.189267,44.300374],[-110.198263,44.306492],[-110.203842,44.30561],[-110.203373,44.307845],[-110.209803,44.314381],[-110.204949,44.315261],[-110.203183,44.313291],[-110.20644,44.318427],[-110.205194,44.31745],[-110.203093,44.319953],[-110.201953,44.319207],[-110.201786,44.32273],[-110.201334,44.319898],[-110.200218,44.320156],[-110.201251,44.322752],[-110.20278,44.322905],[-110.201488,44.324058],[-110.202513,44.327763],[-110.220192,44.33278],[-110.225334,44.338799],[-110.225925,44.342103],[-110.223924,44.34791],[-110.226864,44.351899],[-110.228099,44.358407],[-110.226801,44.361568],[-110.2295,44.370974],[-110.228784,44.374722],[-110.234973,44.381646],[-110.241029,44.384667],[-110.24273,44.387174],[-110.253853,44.389783],[-110.254879,44.404832],[-110.260043,44.409449],[-110.278024,44.413945],[-110.286743,44.419392],[-110.289681,44.425583],[-110.296296,44.430419],[-110.296294,44.435391],[-110.293652,44.435873],[-110.292364,44.437948],[-110.292653,44.443386],[-110.288812,44.451524],[-110.291019,44.470315],[-110.288772,44.472724],[-110.284986,44.472723],[-110.282247,44.476563],[-110.284341,44.489708],[-110.278003,44.498492],[-110.279864,44.505574],[-110.279132,44.51115],[-110.276483,44.515797],[-110.285789,44.526336],[-110.290644,44.528659],[-110.295371,44.527853],[-110.298469,44.530092],[-110.295046,44.534954],[-110.295245,44.537539],[-110.289559,44.538712],[-110.290148,44.542735],[-110.299408,44.549826],[-110.313214,44.555781],[-110.330966,44.553711],[-110.331521,44.548885],[-110.333501,44.547712],[-110.36014,44.553548],[-110.370369,44.559564],[-110.384504,44.563845],[-110.382604,44.566514],[-110.374661,44.568468],[-110.372719,44.570868],[-110.372555,44.574609],[-110.376864,44.580209],[-110.375334,44.583016],[-110.667899,44.582792],[-110.667867,44.666291],[-111.053447,44.666268]]],"type":"Polygon"},"id":"REF-WYOMING-COUNTIES-10","properties":{"AREALAND":10351781970,"AREAWATER":570867186,"BASENAME":"Teton","CENTLAT":"+43.9326744","CENTLON":"-110.5893739","COUNTY":"039","COUNTYCC":"H1","COUNTYNS":"01605083","FUNCSTAT":"A","GEOID":"56039","INTPTLAT":"+44.0486620","INTPTLON":"-110.4260870","LSADC":"06","MTFCC":"G4020","NAME":"Teton County","OBJECTID":1673,"OID":"27590240997190","STATE":"56","canon_status":"REAL_REFERENCE","fictionality":"REAL","real_world_relation":"REFERENCE_ONLY","source_id":"REF-WYOMING-COUNTIES"},"type":"Feature"},{"geometry":{"coordinates":[[[-111.046818,41.156019],[-111.046815,40.997875],[-110.545871,40.996332],[-110.505074,40.994804],[-110.274112,40.994817],[-110.048483,40.997295],[-110.048,41.578015],[-111.045837,41.579845],[-111.046818,41.156019]]],"type":"Polygon"},"id":"REF-WYOMING-COUNTIES-11","properties":{"AREALAND":5391645092,"AREAWATER":16612478,"BASENAME":"Uinta","CENTLAT":"+41.2874272","CENTLON":"-110.5475579","COUNTY":"041","COUNTYCC":"H1","COUNTYNS":"01605084","FUNCSTAT":"A","GEOID":"56041","INTPTLAT":"+41.2847255","INTPTLON":"-110.5589468","LSADC":"06","MTFCC":"G4020","NAME":"Uinta County","OBJECTID":1688,"OID":"27590483902178","STATE":"56","canon_status":"REAL_REFERENCE","fictionality":"REAL","real_world_relation":"REFERENCE_ONLY","source_id":"REF-WYOMING-COUNTIES"},"type":"Feature"},{"geometry":{"coordinates":[[[-104.371258,41.001496],[-104.053249,41.001406],[-104.05254,41.564274],[-104.652992,41.565014],[-104.653338,41.653007],[-105.278236,41.656655],[-105.277425,41.39951],[-105.277599,41.395473],[-105.280201,41.395378],[-105.280675,41.321448],[-105.278738,41.045582],[-105.276837,41.045683],[-105.27686,40.998172],[-104.855273,40.998048],[-104.625519,41.001428],[-104.371258,41.001496]]],"type":"Polygon"},"id":"REF-WYOMING-COUNTIES-12","properties":{"AREALAND":6956354985,"AREAWATER":4348085,"BASENAME":"Laramie","CENTLAT":"+41.3071287","CENTLON":"-104.6894180","COUNTY":"021","COUNTYCC":"H1","COUNTYNS":"01605075","FUNCSTAT":"A","GEOID":"56021","INTPTLAT":"+41.2928302","INTPTLON":"-104.6603950","LSADC":"06","MTFCC":"G4020","NAME":"Laramie County","OBJECTID":1720,"OID":"27590229495438","STATE":"56","canon_status":"REAL_REFERENCE","fictionality":"REAL","real_world_relation":"REFERENCE_ONLY","source_id":"REF-WYOMING-COUNTIES"},"type":"Feature"},{"geometry":{"coordinates":[[[-110.589006,43.040187],[-110.587662,42.779188],[-110.623434,42.779205],[-110.623477,42.710181],[-110.590074,42.710087],[-110.590131,42.448435],[-110.543329,42.448536],[-110.541634,42.277491],[-110.424823,42.279938],[-110.424923,42.276138],[-110.206516,42.276541],[-110.206916,42.270641],[-110.053708,42.270744],[-109.496761,42.263318],[-109.043864,42.263684],[-109.043801,42.433644],[-109.069477,42.433477],[-109.072851,42.693514],[-109.134466,42.694289],[-109.134119,42.699713],[-109.137701,42.705117],[-109.128412,42.708387],[-109.132253,42.710227],[-109.134349,42.717815],[-109.137324,42.721312],[-109.147908,42.727562],[-109.143282,42.733226],[-109.133275,42.733086],[-109.134035,42.735697],[-109.132315,42.737485],[-109.141432,42.738755],[-109.142096,42.741284],[-109.146368,42.742878],[-109.158475,42.742982],[-109.160213,42.743783],[-109.160677,42.74807],[-109.179467,42.751045],[-109.178738,42.754724],[-109.182575,42.75607],[-109.184613,42.760327],[-109.195257,42.768537],[-109.2019,42.768362],[-109.205737,42.770708],[-109.209797,42.770424],[-109.213567,42.766846],[-109.214602,42.761795],[-109.217449,42.760048],[-109.221024,42.762701],[-109.226089,42.763255],[-109.232233,42.768017],[-109.236555,42.768822],[-109.235751,42.773752],[-109.237357,42.77674],[-109.226716,42.788002],[-109.227371,42.789568],[-109.225946,42.790938],[-109.222486,42.79162],[-109.220113,42.79026],[-109.210344,42.793143],[-109.21363,42.799178],[-109.215851,42.800884],[-109.231559,42.803899],[-109.236875,42.809523],[-109.240128,42.808801],[-109.243755,42.805263],[-109.24797,42.806156],[-109.260375,42.81592],[-109.260641,42.81941],[-109.264004,42.824157],[-109.269477,42.825129],[-109.271168,42.832008],[-109.277019,42.836148],[-109.281195,42.84296],[-109.278893,42.846009],[-109.282324,42.846702],[-109.283015,42.848469],[-109.285159,42.846475],[-109.29166,42.845797],[-109.300063,42.849692],[-109.301355,42.851685],[-109.31536,42.856131],[-109.319427,42.859193],[-109.320561,42.862484],[-109.324434,42.864973],[-109.326438,42.87186],[-109.330457,42.874952],[-109.329193,42.877035],[-109.329836,42.881802],[-109.331792,42.883443],[-109.330629,42.886523],[-109.331911,42.89542],[-109.339516,42.898813],[-109.345358,42.918896],[-109.356412,42.924745],[-109.359591,42.933453],[-109.370341,42.945574],[-109.384112,42.939288],[-109.39112,42.940339],[-109.397757,42.939198],[-109.400758,42.942931],[-109.400155,42.945743],[-109.404788,42.950605],[-109.411206,42.955459],[-109.420891,42.957283],[-109.428757,42.960662],[-109.427794,42.962379],[-109.431278,42.964144],[-109.432364,42.968151],[-109.44023,42.967579],[-109.443486,42.970352],[-109.450675,42.971159],[-109.454103,42.96999],[-109.455597,42.975083],[-109.463196,42.981297],[-109.459757,42.982973],[-109.459432,42.987076],[-109.466658,42.991951],[-109.472564,42.990475],[-109.475572,42.994077],[-109.487026,42.993953],[-109.488793,42.995621],[-109.49241,42.995579],[-109.493819,43.000703],[-109.502407,43.010511],[-109.506174,43.01063],[-109.514582,43.00714],[-109.517763,43.011043],[-109.522983,43.009399],[-109.529025,43.013857],[-109.539686,43.013093],[-109.543154,43.010373],[-109.552579,43.012538],[-109.555406,43.021674],[-109.553709,43.024841],[-109.555679,43.027601],[-109.553816,43.032695],[-109.548706,43.036712],[-109.552052,43.039959],[-109.560643,43.039634],[-109.558942,43.044051],[-109.559831,43.047758],[-109.564891,43.046621],[-109.570752,43.049336],[-109.563453,43.051029],[-109.55315,43.058584],[-109.552094,43.060467],[-109.55461,43.062128],[-109.551757,43.067322],[-109.553003,43.072302],[-109.558577,43.074407],[-109.561597,43.077784],[-109.560052,43.082821],[-109.565287,43.085128],[-109.570173,43.091588],[-109.568341,43.09436],[-109.570372,43.099652],[-109.57729,43.099598],[-109.581194,43.101488],[-109.584933,43.108943],[-109.595682,43.11827],[-109.60395,43.118978],[-109.612008,43.124951],[-109.617231,43.124421],[-109.621556,43.126524],[-109.624876,43.13378],[-109.623784,43.136376],[-109.626539,43.138195],[-109.626557,43.141148],[-109.630885,43.148685],[-109.629484,43.151767],[-109.630743,43.154759],[-109.630078,43.163348],[-109.634916,43.165918],[-109.643681,43.162128],[-109.651451,43.167036],[-109.655661,43.176064],[-109.654644,43.180649],[-109.656243,43.181739],[-109.654834,43.186718],[-109.66081,43.199112],[-109.658595,43.201503],[-109.665544,43.204406],[-109.664781,43.206088],[-109.670457,43.209565],[-109.670738,43.212729],[-109.6761,43.21526],[-109.675778,43.22406],[-109.670094,43.228701],[-109.672788,43.233169],[-109.677653,43.235866],[-109.676972,43.244366],[-109.673813,43.247971],[-109.678841,43.250625],[-109.681987,43.254661],[-109.682556,43.258905],[-109.692716,43.26503],[-109.683775,43.268698],[-109.681216,43.272364],[-109.678696,43.273152],[-109.67971,43.276182],[-109.685508,43.281921],[-109.685665,43.285735],[-109.680658,43.287232],[-109.681577,43.293235],[-109.673593,43.296676],[-109.671916,43.300879],[-109.67396,43.305077],[-109.672396,43.305928],[-109.672104,43.308739],[-109.677642,43.313486],[-109.679715,43.318152],[-109.686379,43.318771],[-109.694182,43.324807],[-109.700433,43.33499],[-109.700635,43.342826],[-109.694436,43.350665],[-109.694612,43.357227],[-109.696214,43.359326],[-109.694125,43.365356],[-109.704705,43.368686],[-109.708037,43.374223],[-109.710757,43.374402],[-109.726004,43.369927],[-109.734029,43.365604],[-109.754462,43.365905],[-109.754717,43.4632],[-110.057506,43.464756],[-110.05731,43.377768],[-110.344218,43.377918],[-110.343959,43.291165],[-110.57838,43.29164],[-110.578584,43.126307],[-110.587993,43.126147],[-110.589006,43.040187]]],"type":"Polygon"},"id":"REF-WYOMING-COUNTIES-13","properties":{"AREALAND":12655929009,"AREAWATER":127353625,"BASENAME":"Sublette","CENTLAT":"+42.7660519","CENTLON":"-109.9136489","COUNTY":"035","COUNTYCC":"H1","COUNTYNS":"01605082","FUNCSTAT":"A","GEOID":"56035","INTPTLAT":"+42.7679284","INTPTLON":"-109.9161701","LSADC":"06","MTFCC":"G4020","NAME":"Sublette County","OBJECTID":1874,"OID":"27590227754658","STATE":"56","canon_status":"REAL_REFERENCE","fictionality":"REAL","real_world_relation":"REFERENCE_ONLY","source_id":"REF-WYOMING-COUNTIES"},"type":"Feature"},{"geometry":{"coordinates":[[[-106.322742,41.382647],[-106.322885,41.395141],[-106.208141,41.39504],[-106.208075,41.393767],[-106.068406,41.395028],[-106.071318,41.498916],[-106.073062,41.977194],[-106.074919,42.086649],[-106.073403,42.433236],[-106.322186,42.433236],[-106.476459,42.430771],[-106.624983,42.430488],[-106.955837,42.433441],[-107.522923,42.434356],[-107.522321,42.087957],[-107.503821,42.087957],[-107.50549,41.74053],[-107.510054,41.740513],[-107.50972,41.657452],[-107.929736,41.659596],[-107.92988,41.39853],[-107.917104,41.398499],[-107.918421,41.002036],[-107.000606,41.003444],[-106.455715,41.002118],[-106.321165,40.999123],[-106.323343,41.124972],[-106.322742,41.382647]]],"type":"Polygon"},"id":"REF-WYOMING-COUNTIES-14","properties":{"AREALAND":20455066915,"AREAWATER":171534267,"BASENAME":"Carbon","CENTLAT":"+41.6930448","CENTLON":"-106.9322298","COUNTY":"007","COUNTYCC":"H1","COUNTYNS":"01605069","FUNCSTAT":"A","GEOID":"56007","INTPTLAT":"+41.7022224","INTPTLON":"-106.9251668","LSADC":"06","MTFCC":"G4020","NAME":"Carbon County","OBJECTID":1876,"OID":"27590229495437","STATE":"56","canon_status":"REAL_REFERENCE","fictionality":"REAL","real_world_relation":"REFERENCE_ONLY","source_id":"REF-WYOMING-COUNTIES"},"type":"Feature"},{"geometry":{"coordinates":[[[-111.047234,42.469096],[-111.045837,41.579845],[-110.048,41.578015],[-110.046408,42.006948],[-110.054409,42.007048],[-110.053708,42.270744],[-110.206916,42.270641],[-110.206516,42.276541],[-110.424923,42.276138],[-110.424823,42.279938],[-110.541634,42.277491],[-110.543329,42.448536],[-110.590131,42.448435],[-110.590074,42.710087],[-110.623477,42.710181],[-110.623434,42.779205],[-110.587662,42.779188],[-110.589006,43.040187],[-110.587993,43.126147],[-110.578584,43.126307],[-110.578656,43.235224],[-110.813993,43.235178],[-110.813996,43.31394],[-110.927884,43.313501],[-110.927902,43.31596],[-111.044893,43.315719],[-111.043547,42.719502],[-111.047234,42.469096]]],"type":"Polygon"},"id":"REF-WYOMING-COUNTIES-15","properties":{"AREALAND":10555073818,"AREAWATER":49947330,"BASENAME":"Lincoln","CENTLAT":"+42.2605604","CENTLON":"-110.6541838","COUNTY":"023","COUNTYCC":"H1","COUNTYNS":"01605076","FUNCSTAT":"A","GEOID":"56023","INTPTLAT":"+42.2299932","INTPTLON":"-110.6829614","LSADC":"06","MTFCC":"G4020","NAME":"Lincoln County","OBJECTID":1908,"OID":"27590240997189","STATE":"56","canon_status":"REAL_REFERENCE","fictionality":"REAL","real_world_relation":"REFERENCE_ONLY","source_id":"REF-WYOMING-COUNTIES"},"type":"Feature"},{"geometry":{"coordinates":[[[-104.430656,42.610008],[-104.253136,42.611964],[-104.052838,42.611767],[-104.054786,43.503328],[-104.733763,43.501735],[-104.899941,43.49964],[-104.896966,43.145635],[-104.898598,43.117763],[-104.89765,42.873828],[-104.899373,42.804524],[-104.89848,42.78303],[-104.893479,42.78282],[-104.892437,42.608939],[-104.764221,42.61024],[-104.611847,42.608787],[-104.430656,42.610008]]],"type":"Polygon"},"id":"REF-WYOMING-COUNTIES-16","properties":{"AREALAND":6801380697,"AREAWATER":4969450,"BASENAME":"Niobrara","CENTLAT":"+43.0556992","CENTLON":"-104.4753734","COUNTY":"027","COUNTYCC":"H1","COUNTYNS":"01605078","FUNCSTAT":"A","GEOID":"56027","INTPTLAT":"+43.0621590","INTPTLON":"-104.4683727","LSADC":"06","MTFCC":"G4020","NAME":"Niobrara County","OBJECTID":1997,"OID":"27590242021130","STATE":"56","canon_status":"REAL_REFERENCE","fictionality":"REAL","real_world_relation":"REFERENCE_ONLY","source_id":"REF-WYOMING-COUNTIES"},"type":"Feature"},{"geometry":{"coordinates":[[[-106.072904,42.869747],[-106.075667,43.126866],[-106.073768,43.126667],[-106.073869,43.47257],[-106.078236,43.472499],[-106.078068,43.494471],[-106.594897,43.49147],[-107.11092,43.492362],[-107.110734,43.500286],[-107.534897,43.501362],[-107.535032,43.472759],[-107.517031,43.472659],[-107.515729,43.21306],[-107.516929,43.21316],[-107.516728,43.12796],[-107.502327,43.12806],[-107.501425,42.781458],[-107.543526,42.781558],[-107.542025,42.434356],[-106.955837,42.433441],[-106.624983,42.430488],[-106.476459,42.430771],[-106.322186,42.433236],[-106.075852,42.433218],[-106.074745,42.493093],[-106.076583,42.536292],[-106.075769,42.695265],[-106.073669,42.695365],[-106.073669,42.706165],[-106.075669,42.706165],[-106.075669,42.718464],[-106.070569,42.718584],[-106.070669,42.722065],[-106.074369,42.721965],[-106.074369,42.737665],[-106.076169,42.737665],[-106.077069,42.777965],[-106.072669,42.778165],[-106.072904,42.869747]]],"type":"Polygon"},"id":"REF-WYOMING-COUNTIES-17","properties":{"AREALAND":13831920272,"AREAWATER":90977263,"BASENAME":"Natrona","CENTLAT":"+42.9614975","CENTLON":"-106.7985179","COUNTY":"025","COUNTYCC":"H1","COUNTYNS":"01605077","FUNCSTAT":"A","GEOID":"56025","INTPTLAT":"+42.9812994","INTPTLON":"-106.7706516","LSADC":"06","MTFCC":"G4020","NAME":"Natrona County","OBJECTID":2168,"OID":"27590241695414","STATE":"56","canon_status":"REAL_REFERENCE","fictionality":"REAL","real_world_relation":"REFERENCE_ONLY","source_id":"REF-WYOMING-COUNTIES"},"type":"Feature"},{"geometry":{"coordinates":[[[-105.079031,42.608236],[-105.286511,42.605826],[-105.284719,42.577504],[-105.282258,42.431328],[-105.28391,42.431402],[-105.283757,42.380567],[-105.281929,42.361039],[-105.281442,42.321518],[-105.281139,42.088888],[-105.27375,42.088824],[-105.273344,42.00716],[-105.271746,41.986095],[-105.271809,41.742029],[-105.278973,41.741995],[-105.278236,41.656655],[-104.653338,41.653007],[-104.653254,42.037481],[-104.655027,42.216785],[-104.655639,42.609468],[-104.829,42.610064],[-104.92327,42.608371],[-105.079031,42.608236]]],"type":"Polygon"},"id":"REF-WYOMING-COUNTIES-18","properties":{"AREALAND":5390953598,"AREAWATER":76102037,"BASENAME":"Platte","CENTLAT":"+42.1320214","CENTLON":"-104.9657951","COUNTY":"031","COUNTYCC":"H1","COUNTYNS":"01605080","FUNCSTAT":"A","GEOID":"56031","INTPTLAT":"+42.1315927","INTPTLON":"-104.9539626","LSADC":"06","MTFCC":"G4020","NAME":"Platte County","OBJECTID":2572,"OID":"27590237010875","STATE":"56","canon_status":"REAL_REFERENCE","fictionality":"REAL","real_world_relation":"REFERENCE_ONLY","source_id":"REF-WYOMING-COUNTIES"},"type":"Feature"},{"geometry":{"coordinates":[[[-109.313028,43.8126],[-109.309503,43.805454],[-109.302868,43.805151],[-109.296096,43.801411],[-109.287866,43.801404],[-109.28494,43.803043],[-109.274597,43.796873],[-109.26854,43.781136],[-109.262135,43.774146],[-109.247986,43.770728],[-109.245166,43.766937],[-109.234904,43.76389],[-109.229872,43.758569],[-109.222707,43.747327],[-109.209433,43.733101],[-109.206858,43.723707],[-109.200963,43.719498],[-109.196528,43.711668],[-109.182874,43.7055],[-109.180893,43.702487],[-109.171448,43.699198],[-109.171638,43.619764],[-108.934141,43.619163],[-108.933831,43.604719],[-108.814276,43.605255],[-108.814276,43.575555],[-108.694672,43.575755],[-108.695072,43.532255],[-108.576167,43.532556],[-108.576167,43.503256],[-108.456962,43.503156],[-108.456973,43.474279],[-108.33777,43.474061],[-108.337861,43.459765],[-108.250654,43.459535],[-108.156305,43.459611],[-108.156285,43.470628],[-107.595137,43.472279],[-107.595157,43.646427],[-107.716218,43.645766],[-107.715876,43.733343],[-107.956577,43.733446],[-107.956448,43.818666],[-108.174938,43.818968],[-108.172657,43.820221],[-108.175471,43.822612],[-108.187089,43.824181],[-108.194184,43.828308],[-108.196523,43.828212],[-108.197784,43.82518],[-108.201652,43.825824],[-108.19908,43.831702],[-108.192832,43.835241],[-108.191944,43.839474],[-108.185255,43.848255],[-108.309694,43.846619],[-108.309747,43.858004],[-108.312625,43.859543],[-108.309711,43.860992],[-108.30936,43.903255],[-108.429563,43.903355],[-108.427064,43.992054],[-108.489431,43.991866],[-108.490254,44.07976],[-108.792277,44.079616],[-108.791779,43.991053],[-108.915985,43.990854],[-108.912783,43.904754],[-109.092878,43.904474],[-109.092395,43.838063],[-109.093603,43.817619],[-109.133171,43.816],[-109.272548,43.81612],[-109.272587,43.813551],[-109.313028,43.8126]]],"type":"Polygon"},"id":"REF-WYOMING-COUNTIES-19","properties":{"AREALAND":5191453525,"AREAWATER":5100560,"BASENAME":"Hot Springs","CENTLAT":"+43.7192946","CENTLON":"-108.4411775","COUNTY":"017","COUNTYCC":"H1","COUNTYNS":"01605074","FUNCSTAT":"A","GEOID":"56017","INTPTLAT":"+43.7202092","INTPTLON":"-108.4350765","LSADC":"06","MTFCC":"G4020","NAME":"Hot Springs County","OBJECTID":2658,"OID":"27590460807032","STATE":"56","canon_status":"REAL_REFERENCE","fictionality":"REAL","real_world_relation":"REFERENCE_ONLY","source_id":"REF-WYOMING-COUNTIES"},"type":"Feature"},{"geometry":{"coordinates":[[[-107.37129,44.557221],[-107.36543,44.555049],[-107.360162,44.550314],[-107.360467,44.547074],[-107.355568,44.545251],[-107.353778,44.542192],[-107.337705,44.539628],[-107.330284,44.543806],[-107.330116,44.536069],[-107.324311,44.533231],[-107.322943,44.530534],[-107.327054,44.522119],[-107.314615,44.515831],[-107.314604,44.513057],[-107.310938,44.508835],[-107.301435,44.506419],[-107.294159,44.500707],[-107.298539,44.496213],[-107.297041,44.48921],[-107.298484,44.484564],[-107.305232,44.483346],[-107.299665,44.476268],[-107.301198,44.474152],[-107.300547,44.472529],[-107.301958,44.472188],[-107.300711,44.470536],[-107.303434,44.468324],[-107.302753,44.466184],[-107.304386,44.46402],[-107.300365,44.458929],[-107.278625,44.459196],[-107.274671,44.455701],[-107.278729,44.450819],[-107.261013,44.44766],[-107.254544,44.441295],[-107.242507,44.438359],[-107.221528,44.443623],[-107.218582,44.449563],[-107.210886,44.445026],[-107.202038,44.446305],[-107.200143,44.441656],[-107.203853,44.435748],[-107.200364,44.433113],[-107.203537,44.430914],[-107.204354,44.426131],[-107.200066,44.421307],[-107.20188,44.416457],[-107.198783,44.402741],[-107.199692,44.399607],[-107.188471,44.398665],[-107.182797,44.403443],[-107.177829,44.402425],[-107.169212,44.393507],[-107.17007,44.390061],[-107.17402,44.388079],[-107.174063,44.382106],[-107.176505,44.376645],[-107.165462,44.373868],[-107.161404,44.368635],[-107.173118,44.360454],[-107.184891,44.3588],[-107.188691,44.353346],[-107.187745,44.350331],[-107.189051,44.347495],[-107.178912,44.345652],[-107.176027,44.342596],[-107.176329,44.338188],[-107.172614,44.335163],[-107.163863,44.335157],[-107.156644,44.332146],[-107.159562,44.33002],[-107.159819,44.325789],[-107.15547,44.322328],[-107.150781,44.324468],[-107.145001,44.324004],[-107.146808,44.165666],[-107.128584,44.165692],[-107.127622,43.815961],[-107.113655,43.816092],[-107.113639,43.555781],[-107.110799,43.555571],[-107.11092,43.492362],[-106.594897,43.49147],[-106.017366,43.494969],[-106.018862,43.624972],[-106.017598,43.821489],[-106.009201,43.821579],[-106.00957,44.083553],[-106.011377,44.169735],[-106.016504,44.169729],[-106.016712,44.304461],[-106.014477,44.52098],[-106.008477,44.521081],[-106.009676,44.563981],[-106.179485,44.56378],[-106.179185,44.56208],[-106.428897,44.561777],[-106.428897,44.556777],[-107.369621,44.559837],[-107.37129,44.557221]]],"type":"Polygon"},"id":"REF-WYOMING-COUNTIES-20","properties":{"AREALAND":10759204101,"AREAWATER":52952168,"BASENAME":"Johnson","CENTLAT":"+44.0376527","CENTLON":"-106.5843963","COUNTY":"019","COUNTYCC":"H1","COUNTYNS":"01609191","FUNCSTAT":"A","GEOID":"56019","INTPTLAT":"+44.0440477","INTPTLON":"-106.5885406","LSADC":"06","MTFCC":"G4020","NAME":"Johnson County","OBJECTID":2787,"OID":"27590239980143","STATE":"56","canon_status":"REAL_REFERENCE","fictionality":"REAL","real_world_relation":"REFERENCE_ONLY","source_id":"REF-WYOMING-COUNTIES"},"type":"Feature"},{"geometry":{"coordinates":[[[-109.325773,42.86878],[-109.32414,42.864465],[-109.320561,42.862484],[-109.319427,42.859193],[-109.31536,42.856131],[-109.301355,42.851685],[-109.300063,42.849692],[-109.29166,42.845797],[-109.285159,42.846475],[-109.283015,42.848469],[-109.282324,42.846702],[-109.278893,42.846009],[-109.281195,42.84296],[-109.277019,42.836148],[-109.271168,42.832008],[-109.269477,42.825129],[-109.264004,42.824157],[-109.260641,42.81941],[-109.260375,42.81592],[-109.24797,42.806156],[-109.243755,42.805263],[-109.240128,42.808801],[-109.236875,42.809523],[-109.231559,42.803899],[-109.214144,42.799833],[-109.210344,42.793143],[-109.220113,42.79026],[-109.222486,42.79162],[-109.225946,42.790938],[-109.227371,42.789568],[-109.226716,42.788002],[-109.237357,42.77674],[-109.235751,42.773752],[-109.236096,42.768458],[-109.232233,42.768017],[-109.226089,42.763255],[-109.221024,42.762701],[-109.217449,42.760048],[-109.214602,42.761795],[-109.213567,42.766846],[-109.209797,42.770424],[-109.205737,42.770708],[-109.2019,42.768362],[-109.195257,42.768537],[-109.184613,42.760327],[-109.182575,42.75607],[-109.178738,42.754724],[-109.179467,42.751045],[-109.160677,42.74807],[-109.160213,42.743783],[-109.158475,42.742982],[-109.146368,42.742878],[-109.142096,42.741284],[-109.141432,42.738755],[-109.132315,42.737485],[-109.134035,42.735697],[-109.133275,42.733086],[-109.143282,42.733226],[-109.147908,42.727562],[-109.137324,42.721312],[-109.134349,42.717815],[-109.132253,42.710227],[-109.128412,42.708387],[-109.137701,42.705117],[-109.134119,42.699713],[-109.134466,42.694289],[-109.072851,42.693514],[-109.069477,42.433477],[-109.043801,42.433644],[-109.043864,42.263684],[-107.522722,42.261756],[-107.522923,42.434356],[-107.542025,42.434356],[-107.543526,42.781558],[-107.501425,42.781458],[-107.502327,43.12806],[-107.516728,43.12796],[-107.516929,43.21316],[-107.515729,43.21306],[-107.517031,43.472659],[-107.535032,43.472759],[-107.534897,43.501362],[-107.595105,43.501397],[-107.595137,43.472279],[-108.156285,43.470628],[-108.156305,43.459611],[-108.337861,43.459765],[-108.33777,43.474061],[-108.456973,43.474279],[-108.456962,43.503156],[-108.576167,43.503256],[-108.576167,43.532556],[-108.695072,43.532255],[-108.694672,43.575755],[-108.814276,43.575555],[-108.814276,43.605255],[-108.933831,43.604719],[-108.934141,43.619163],[-109.171638,43.619764],[-109.171448,43.699198],[-109.180893,43.702487],[-109.182874,43.7055],[-109.196528,43.711668],[-109.200963,43.719498],[-109.206858,43.723707],[-109.209433,43.733101],[-109.222707,43.747327],[-109.229872,43.758569],[-109.234904,43.76389],[-109.245166,43.766937],[-109.247986,43.770728],[-109.262135,43.774146],[-109.26854,43.781136],[-109.274597,43.796873],[-109.28494,43.803043],[-109.287866,43.801404],[-109.296096,43.801411],[-109.302868,43.805151],[-109.309503,43.805454],[-109.31316,43.814725],[-109.316641,43.818473],[-109.317349,43.822653],[-109.316212,43.824194],[-109.32226,43.829446],[-109.322425,43.83537],[-109.335997,43.842099],[-109.340966,43.840171],[-109.349319,43.839907],[-109.366758,43.843009],[-109.368347,43.847621],[-109.36749,43.84974],[-109.371155,43.850869],[-109.372201,43.852991],[-109.371466,43.856646],[-109.369898,43.857226],[-109.372649,43.859419],[-109.376328,43.870923],[-109.373599,43.873756],[-109.374021,43.877447],[-109.38017,43.882799],[-109.391721,43.882681],[-109.398464,43.884341],[-109.402502,43.888398],[-109.401758,43.892008],[-109.406266,43.899043],[-109.404952,43.901982],[-109.410936,43.903988],[-109.413418,43.909252],[-109.426862,43.910039],[-109.4339,43.91404],[-109.438166,43.919802],[-109.442361,43.930434],[-109.451544,43.929544],[-109.454726,43.927657],[-109.472393,43.932177],[-109.470542,43.938806],[-109.472731,43.945128],[-109.476047,43.948835],[-109.489742,43.94829],[-109.491979,43.945388],[-109.502354,43.939183],[-109.510559,43.938648],[-109.53196,43.949455],[-109.534465,43.953883],[-109.53966,43.956943],[-109.542332,43.961352],[-109.552653,43.960572],[-109.559914,43.954636],[-109.566943,43.95482],[-109.576057,43.942583],[-109.584312,43.937883],[-109.587778,43.93835],[-109.594999,43.945589],[-109.600828,43.948929],[-109.605466,43.947962],[-109.60733,43.94561],[-109.605356,43.938775],[-109.613713,43.927479],[-109.620192,43.925732],[-109.628807,43.927008],[-109.636486,43.922755],[-109.641808,43.922785],[-109.64653,43.91781],[-109.648107,43.912997],[-109.654365,43.907116],[-109.656065,43.895969],[-109.653017,43.886766],[-109.656211,43.881304],[-109.6594,43.879289],[-109.661418,43.878578],[-109.666828,43.88058],[-109.667966,43.874445],[-109.672482,43.868096],[-109.669623,43.85996],[-109.665752,43.857133],[-109.665215,43.852163],[-109.666722,43.848981],[-109.665479,43.845934],[-109.672083,43.845108],[-109.676531,43.842695],[-109.685697,43.844239],[-109.689562,43.839472],[-109.702643,43.841031],[-109.706325,43.836658],[-109.709091,43.835727],[-109.716659,43.838115],[-109.719811,43.83758],[-109.722493,43.832969],[-109.731757,43.833181],[-109.735727,43.827229],[-109.742631,43.827504],[-109.750722,43.821002],[-109.752709,43.817425],[-109.757158,43.817315],[-109.763926,43.820601],[-109.765431,43.816852],[-109.768734,43.814521],[-109.78003,43.811695],[-109.780599,43.807125],[-109.786386,43.804804],[-109.787369,43.801156],[-109.798962,43.806266],[-109.801142,43.808605],[-109.809248,43.809508],[-109.817256,43.815775],[-109.825909,43.816173],[-109.827549,43.82438],[-109.841747,43.819324],[-109.852172,43.824495],[-109.856481,43.828369],[-109.855102,43.835137],[-109.849785,43.837087],[-109.856494,43.841696],[-109.855166,43.848255],[-109.851253,43.849281],[-109.847701,43.853195],[-109.841208,43.852714],[-109.834664,43.855229],[-109.825737,43.855333],[-109.813785,43.861761],[-109.821388,43.867322],[-109.828665,43.866669],[-109.831908,43.871786],[-109.830312,43.874586],[-109.82537,43.875094],[-109.824613,43.877168],[-109.816575,43.880534],[-109.817584,43.883277],[-109.830787,43.88979],[-109.832579,43.895071],[-109.837112,43.894677],[-109.847789,43.900231],[-109.859275,43.900759],[-109.847881,43.908123],[-109.850131,43.912598],[-109.848947,43.919806],[-109.854189,43.924063],[-109.851863,43.926594],[-109.85655,43.924837],[-109.865916,43.926271],[-109.872492,43.927946],[-109.873613,43.930179],[-109.873953,43.9336],[-109.865259,43.940001],[-109.858449,43.942046],[-109.857928,43.94901],[-109.854929,43.950261],[-109.858754,43.957988],[-109.884402,43.948573],[-109.922058,43.946085],[-109.92761,43.94999],[-109.932292,43.950718],[-109.939349,43.958172],[-109.945203,43.958221],[-109.955507,43.964147],[-109.958858,43.964571],[-109.966805,43.961393],[-109.971968,43.955627],[-109.982137,43.954235],[-109.990073,43.949066],[-109.993871,43.949557],[-109.999723,43.952319],[-110.002037,43.955449],[-110.000176,43.962087],[-110.001737,43.966849],[-110.017238,43.966849],[-110.018638,43.968249],[-110.018938,43.979949],[-110.023239,43.982449],[-110.023739,43.985949],[-110.032739,43.996449],[-110.031584,44.000972],[-110.043994,44.004502],[-110.048973,44.008784],[-110.053179,44.008022],[-110.053637,43.814549],[-110.051437,43.814449],[-110.05157,43.464783],[-109.754717,43.4632],[-109.754462,43.365905],[-109.734029,43.365604],[-109.726004,43.369927],[-109.710757,43.374402],[-109.708037,43.374223],[-109.704705,43.368686],[-109.694125,43.365356],[-109.696214,43.359326],[-109.694612,43.357227],[-109.694436,43.350665],[-109.700635,43.342826],[-109.700433,43.33499],[-109.694182,43.324807],[-109.686379,43.318771],[-109.679715,43.318152],[-109.677642,43.313486],[-109.672104,43.308739],[-109.672396,43.305928],[-109.67396,43.305077],[-109.671916,43.300879],[-109.673593,43.296676],[-109.681577,43.293235],[-109.680658,43.287232],[-109.685665,43.285735],[-109.685508,43.281921],[-109.67971,43.276182],[-109.678696,43.273152],[-109.681216,43.272364],[-109.683775,43.268698],[-109.692716,43.26503],[-109.682556,43.258905],[-109.681987,43.254661],[-109.678841,43.250625],[-109.673813,43.247971],[-109.676972,43.244366],[-109.677653,43.235866],[-109.672788,43.233169],[-109.670094,43.228701],[-109.675778,43.22406],[-109.6761,43.21526],[-109.670738,43.212729],[-109.670457,43.209565],[-109.664781,43.206088],[-109.665544,43.204406],[-109.658595,43.201503],[-109.66081,43.199112],[-109.654834,43.186718],[-109.656243,43.181739],[-109.654644,43.180649],[-109.655661,43.176064],[-109.651451,43.167036],[-109.643681,43.162128],[-109.634916,43.165918],[-109.630078,43.163348],[-109.630743,43.154759],[-109.629484,43.151767],[-109.630885,43.148685],[-109.626557,43.141148],[-109.626539,43.138195],[-109.623784,43.136376],[-109.624876,43.13378],[-109.621556,43.126524],[-109.617231,43.124421],[-109.612008,43.124951],[-109.60395,43.118978],[-109.595682,43.11827],[-109.584933,43.108943],[-109.581194,43.101488],[-109.57729,43.099598],[-109.570372,43.099652],[-109.568341,43.09436],[-109.570173,43.091588],[-109.565287,43.085128],[-109.560052,43.082821],[-109.561597,43.077784],[-109.558577,43.074407],[-109.553003,43.072302],[-109.551757,43.067322],[-109.55461,43.062128],[-109.552094,43.060467],[-109.55315,43.058584],[-109.563453,43.051029],[-109.570752,43.049336],[-109.564891,43.046621],[-109.559831,43.047758],[-109.558942,43.044051],[-109.560643,43.039634],[-109.552052,43.039959],[-109.548706,43.036712],[-109.553816,43.032695],[-109.555679,43.027601],[-109.553709,43.024841],[-109.555406,43.021674],[-109.552579,43.012538],[-109.543154,43.010373],[-109.539686,43.013093],[-109.529025,43.013857],[-109.522983,43.009399],[-109.517763,43.011043],[-109.514582,43.00714],[-109.506174,43.01063],[-109.502407,43.010511],[-109.493819,43.000703],[-109.49241,42.995579],[-109.488793,42.995621],[-109.487026,42.993953],[-109.475572,42.994077],[-109.472564,42.990475],[-109.466658,42.991951],[-109.459432,42.987076],[-109.459757,42.982973],[-109.463196,42.981297],[-109.455597,42.975083],[-109.454103,42.96999],[-109.450675,42.971159],[-109.443486,42.970352],[-109.44023,42.967579],[-109.432364,42.968151],[-109.431278,42.964144],[-109.427794,42.962379],[-109.428757,42.960662],[-109.420891,42.957283],[-109.411206,42.955459],[-109.404788,42.950605],[-109.400155,42.945743],[-109.400758,42.942931],[-109.397757,42.939198],[-109.39112,42.940339],[-109.384112,42.939288],[-109.370341,42.945574],[-109.359591,42.933453],[-109.356412,42.924745],[-109.345358,42.918896],[-109.339516,42.898813],[-109.331911,42.89542],[-109.330629,42.886523],[-109.331792,42.883443],[-109.329836,42.881802],[-109.329193,42.877035],[-109.330457,42.874952],[-109.326438,42.87186],[-109.325773,42.86878]]],"type":"Polygon"},"id":"REF-WYOMING-COUNTIES-21","properties":{"AREALAND":23785405175,"AREAWATER":212752229,"BASENAME":"Fremont","CENTLAT":"+43.0395992","CENTLON":"-108.6256313","COUNTY":"013","COUNTYCC":"H1","COUNTYNS":"01605072","FUNCSTAT":"A","GEOID":"56013","INTPTLAT":"+43.0548310","INTPTLON":"-108.6089349","LSADC":"06","MTFCC":"G4020","NAME":"Fremont County","OBJECTID":3070,"OID":"27590460534154","STATE":"56","canon_status":"REAL_REFERENCE","fictionality":"REAL","real_world_relation":"REFERENCE_ONLY","source_id":"REF-WYOMING-COUNTIES"},"type":"Feature"},{"geometry":{"coordinates":[[[-104.655639,42.609468],[-104.652992,41.565014],[-104.05254,41.564274],[-104.052838,42.611767],[-104.655639,42.609468]]],"type":"Polygon"},"id":"REF-WYOMING-COUNTIES-22","properties":{"AREALAND":5764310957,"AREAWATER":16969719,"BASENAME":"Goshen","CENTLAT":"+42.0866617","CENTLON":"-104.3532633","COUNTY":"015","COUNTYCC":"H1","COUNTYNS":"01605073","FUNCSTAT":"A","GEOID":"56015","INTPTLAT":"+42.0894553","INTPTLON":"-104.3535403","LSADC":"06","MTFCC":"G4020","NAME":"Goshen County","OBJECTID":3147,"OID":"27590238386344","STATE":"56","canon_status":"REAL_REFERENCE","fictionality":"REAL","real_world_relation":"REFERENCE_ONLY","source_id":"REF-WYOMING-COUNTIES"},"type":"Feature"},{"geometry":{"coordinates":[[[-108.550788,44.127701],[-108.550758,44.079403],[-108.490254,44.07976],[-108.489431,43.991866],[-108.427064,43.992054],[-108.429563,43.903355],[-108.30936,43.903255],[-108.309711,43.860992],[-108.312625,43.859543],[-108.309747,43.858004],[-108.309694,43.846619],[-108.185255,43.848255],[-108.191944,43.839474],[-108.192832,43.835241],[-108.19908,43.831702],[-108.201652,43.825824],[-108.197784,43.82518],[-108.196523,43.828212],[-108.194184,43.828308],[-108.187089,43.824181],[-108.175471,43.822612],[-108.172657,43.820221],[-108.174938,43.818968],[-107.956448,43.818666],[-107.956577,43.733446],[-107.715876,43.733343],[-107.716218,43.645766],[-107.595157,43.646427],[-107.595105,43.501397],[-107.250624,43.501624],[-107.23063,43.501485],[-107.230481,43.500344],[-107.110734,43.500286],[-107.110799,43.555571],[-107.113639,43.555781],[-107.113655,43.816092],[-107.127622,43.815961],[-107.128584,44.165692],[-107.375628,44.167882],[-107.684857,44.166401],[-107.742134,44.168016],[-108.550562,44.168455],[-108.550788,44.127701]]],"type":"Polygon"},"id":"REF-WYOMING-COUNTIES-23","properties":{"AREALAND":5798152485,"AREAWATER":10415891,"BASENAME":"Washakie","CENTLAT":"+43.9051071","CENTLON":"-107.6818968","COUNTY":"043","COUNTYCC":"H1","COUNTYNS":"01605085","FUNCSTAT":"A","GEOID":"56043","INTPTLAT":"+43.8788305","INTPTLON":"-107.6690520","LSADC":"06","MTFCC":"G4020","NAME":"Washakie County","OBJECTID":3183,"OID":"27590554223605","STATE":"56","canon_status":"REAL_REFERENCE","fictionality":"REAL","real_world_relation":"REFERENCE_ONLY","source_id":"REF-WYOMING-COUNTIES"},"type":"Feature"}],"type":"FeatureCollection"}
