{
  "type": "FeatureCollection",
  "features": [
    {
      "type": "Feature",
      "properties": {
        "option_id": "HQ-F",
        "epsg": 26910
      },
      "geometry": {
        "type": "Polygon",
        "coordinates": [
          [
            [
              -121.49398552227532,
              38.590892901753286
            ],
            [
              -121.49395109553447,
              38.59254044349152
            ],
            [
              -121.4968900639686,
              38.59257823444899
            ],
            [
              -121.49692442358935,
              38.59093069049614
            ],
            [
              -121.49398552227532,
              38.590892901753286
            ]
          ]
        ]
      }
    },
    {
      "type": "Feature",
      "properties": {
        "option_id": "FORT-NORTH"
      },
      "geometry": {
        "type": "Polygon",
        "coordinates": [
          [
            [
              -79.95425379152326,
              40.426249789374694
            ],
            [
              -79.95417716614386,
              40.42616823459933
            ],
            [
              -79.95410219838585,
              40.4260873484574
            ],
            [
              -79.95390064131361,
              40.425860969537084
            ],
            [
              -79.95385934495391,
              40.42581279049117
            ],
            [
              -79.95373436511736,
              40.425666814220605
            ],
            [
              -79.95373375100179,
              40.42566610308582
            ],
            [
              -79.9537077519535,
              40.42563625247439
            ],
            [
              -79.95369522978667,
              40.42562104698599
            ],
            [
              -79.9535688496389,
              40.425462823418535
            ],
            [
              -79.95352372828894,
              40.42540593126761
            ],
            [
              -79.9533444648559,
              40.4251689059186
            ],
            [
              -79.9533431713686,
              40.42516723053463
            ],
            [
              -79.95319820953182,
              40.42498327944761
            ],
            [
              -79.95307487858766,
              40.42482640283545
            ],
            [
              -79.95291838412668,
              40.42460552839762
            ],
            [
              -79.95291657634377,
              40.424603054846905
            ],
            [
              -79.95243357558098,
              40.42396205530843
            ],
            [
              -79.95243349230053,
              40.42396194500558
            ],
            [
              -79.95236570320492,
              40.42387222432398
            ],
            [
              -79.95067590913408,
              40.421604506408656
            ],
            [
              -79.95067535628621,
              40.42160377112909
            ],
            [
              -79.95056278053765,
              40.42145540601385
            ],
            [
              -79.95138,
              40.4214
            ],
            [
              -79.9536,
              40.424200000000006
            ],
            [
              -79.95515,
              40.4262
            ],
            [
              -79.95425379152326,
              40.426249789374694
            ]
          ]
        ]
      }
    },
    {
      "type": "Feature",
      "properties": {
        "option_id": "BEDFORD-F"
      },
      "geometry": {
        "type": "Polygon",
        "coordinates": [
          [
            [
              -80.1847,
              39.431720000000006
            ],
            [
              -80.18115,
              39.43212
            ],
            [
              -80.1808,
              39.43160000000001
            ],
            [
              -80.18055,
              39.4299
            ],
            [
              -80.1818,
              39.42994999999999
            ],
            [
              -80.1831,
              39.4306
            ],
            [
              -80.18365,
              39.430449999999986
            ],
            [
              -80.1843,
              39.43071999999999
            ],
            [
              -80.1847,
              39.43055
            ],
            [
              -80.1847,
              39.431720000000006
            ]
          ]
        ]
      }
    }
  ]
}
