{
  "type": "FeatureCollection",
  "features": [
    {
      "type": "Feature",
      "id": "BST-SEG-002",
      "geometry": {
        "type": "LineString",
        "coordinates": [
          [
            -108.225,
            42.17
          ],
          [
            -108.22481148420194,
            42.17028016095954
          ],
          [
            -108.22461896883156,
            42.170559919107966
          ],
          [
            -108.22442250910869,
            42.17083928157015
          ],
          [
            -108.22422216025417,
            42.171118255470944
          ],
          [
            -108.22401797748986,
            42.17139684793506
          ],
          [
            -108.22381001603871,
            42.171675066087246
          ],
          [
            -108.2235983311246,
            42.17195291705223
          ],
          [
            -108.22338297797253,
            42.17223040795472
          ],
          [
            -108.22316401180842,
            42.17250754591948
          ],
          [
            -108.22294148785925,
            42.17278433807131
          ],
          [
            -108.22271546135292,
            42.17306079153501
          ],
          [
            -108.22248598751841,
            42.17333691343557
          ],
          [
            -108.22225312158567,
            42.17361271089794
          ],
          [
            -108.22201691878556,
            42.1738881910473
          ],
          [
            -108.22177743434996,
            42.17416336100888
          ],
          [
            -108.22153472351175,
            42.1744382279081
          ],
          [
            -108.22128884150472,
            42.17471279887048
          ],
          [
            -108.22103984356364,
            42.1749870810218
          ],
          [
            -108.22078778492425,
            42.17526108148794
          ],
          [
            -108.22053272082319,
            42.17553480739505
          ],
          [
            -108.22027470649806,
            42.17580826586947
          ],
          [
            -108.22001379718743,
            42.17608146403779
          ],
          [
            -108.21975004813076,
            42.176354409026814
          ],
          [
            -108.21948351456848,
            42.17662710796364
          ],
          [
            -108.21921425174192,
            42.17689956797566
          ],
          [
            -108.2189423148933,
            42.177171796190514
          ],
          [
            -108.2186677592658,
            42.17744379973616
          ],
          [
            -108.21839064010352,
            42.17771558574089
          ],
          [
            -108.2181110126514,
            42.177987161333306
          ],
          [
            -108.21782893215536,
            42.17825853364233
          ],
          [
            -108.21754445386217,
            42.17852970979731
          ],
          [
            -108.21725763301951,
            42.17880069692788
          ],
          [
            -108.21696852487595,
            42.17907150216408
          ],
          [
            -108.21667718468096,
            42.17934213263635
          ],
          [
            -108.21638366768487,
            42.17961259547553
          ],
          [
            -108.2160880291389,
            42.17988289781285
          ],
          [
            -108.21579032429518,
            42.18015304677998
          ],
          [
            -108.21549060840667,
            42.180423049508995
          ],
          [
            -108.21518893672722,
            42.18069291313245
          ],
          [
            -108.21488536451155,
            42.18096264478329
          ],
          [
            -108.21457994701525,
            42.181232251595
          ],
          [
            -108.21427273949475,
            42.18150174070148
          ],
          [
            -108.21396379720738,
            42.1817711192371
          ],
          [
            -108.21365317541134,
            42.18204039433676
          ],
          [
            -108.2133409293656,
            42.18230957313581
          ],
          [
            -108.21302711433006,
            42.182578662770155
          ],
          [
            -108.21271178556545,
            42.182847670376134
          ],
          [
            -108.21239499833337,
            42.183116603090696
          ],
          [
            -108.21207680789624,
            42.183385468051235
          ],
          [
            -108.21175726951732,
            42.18365427239572
          ],
          [
            -108.21143643846074,
            42.183923023262686
          ],
          [
            -108.21111436999148,
            42.184191727791145
          ],
          [
            -108.21079111937533,
            42.184460393120695
          ],
          [
            -108.21046674187893,
            42.18472902639149
          ],
          [
            -108.21014129276978,
            42.18499763474427
          ],
          [
            -108.2098148273162,
            42.18526622532031
          ],
          [
            -108.20948740078732,
            42.185534805261476
          ],
          [
            -108.20915906845319,
            42.18580338171021
          ],
          [
            -108.20882988558459,
            42.18607196180952
          ],
          [
            -108.2084999074532,
            42.18634055270304
          ],
          [
            -108.20816918933154,
            42.18660916153496
          ],
          [
            -108.2078377864929,
            42.18687779545008
          ],
          [
            -108.20750575421147,
            42.18714646159382
          ],
          [
            -108.20717314776222,
            42.18741516711216
          ],
          [
            -108.20684002242102,
            42.18768391915169
          ],
          [
            -108.2065064334645,
            42.18795272485965
          ],
          [
            -108.20617243617015,
            42.18822159138386
          ],
          [
            -108.20583808581631,
            42.18849052587274
          ],
          [
            -108.20550343768213,
            42.18875953547534
          ],
          [
            -108.20516854704758,
            42.189028627341344
          ],
          [
            -108.20483346919352,
            42.18929780862101
          ],
          [
            -108.20449825940159,
            42.18956708646527
          ],
          [
            -108.20416297295428,
            42.18983646802559
          ],
          [
            -108.20382766513491,
            42.19010596045414
          ],
          [
            -108.20349239122767,
            42.19037557090368
          ],
          [
            -108.20315720651755,
            42.19064530652757
          ],
          [
            -108.20282216629036,
            42.190915174479834
          ],
          [
            -108.20248732583282,
            42.191185181915046
          ],
          [
            -108.20215274043242,
            42.19145533598846
          ],
          [
            -108.20181846537757,
            42.19172564385592
          ],
          [
            -108.20148455595744,
            42.191996112673884
          ],
          [
            -108.20115106746208,
            42.192266749599426
          ],
          [
            -108.2008180551824,
            42.19253756179024
          ],
          [
            -108.20048557441017,
            42.19280855640463
          ],
          [
            -108.20015368043796,
            42.19307974060147
          ],
          [
            -108.19982242855926,
            42.193351121540296
          ],
          [
            -108.19949187406834,
            42.19362270638119
          ],
          [
            -108.19916207226042,
            42.19389450228488
          ],
          [
            -108.19883307843149,
            42.19416651641265
          ],
          [
            -108.19850494787845,
            42.19443875592641
          ],
          [
            -108.19817773589908,
            42.1947112279886
          ],
          [
            -108.197851497792,
            42.19498393976231
          ],
          [
            -108.1975262888567,
            42.195256898411145
          ],
          [
            -108.19720216439354,
            42.195530111099345
          ],
          [
            -108.19687917970381,
            42.19580358499165
          ],
          [
            -108.19655739008964,
            42.19607732725341
          ],
          [
            -108.196236850854,
            42.19635134505052
          ],
          [
            -108.19591761730085,
            42.19662564554941
          ],
          [
            -108.19559974473493,
            42.19690023591706
          ],
          [
            -108.19528328846198,
            42.197175123320996
          ],
          [
            -108.19496830396173,
            42.19745031361171
          ],
          [
            -108.1946548490381,
            42.19772579496431
          ],
          [
            -108.19434298315699,
            42.19800154292
          ],
          [
            -108.1940327658218,
            42.198277532747
          ],
          [
            -108.19372425653755,
            42.19855373971414
          ],
          [
            -108.19341751481075,
            42.19883013909072
          ],
          [
            -108.19311260014953,
            42.199106706146516
          ],
          [
            -108.19280957206355,
            42.19938341615187
          ],
          [
            -108.192508490064,
            42.19966024437759
          ],
          [
            -108.19220941366363,
            42.19993716609496
          ],
          [
            -108.19191240237674,
            42.20021415657572
          ],
          [
            -108.19161751571914,
            42.200491191092105
          ],
          [
            -108.19132481320814,
            42.200768244916766
          ],
          [
            -108.19103435436257,
            42.201045293322814
          ],
          [
            -108.19074619870275,
            42.20132231158377
          ],
          [
            -108.19046040575054,
            42.2015992749736
          ],
          [
            -108.19017703502921,
            42.20187615876665
          ],
          [
            -108.1898961460635,
            42.20215293823768
          ],
          [
            -108.1896177983797,
            42.202429588661786
          ],
          [
            -108.18934205150542,
            42.202706085314496
          ],
          [
            -108.1890689649698,
            42.202982403471616
          ],
          [
            -108.18879859830335,
            42.20325851840937
          ],
          [
            -108.18853101103801,
            42.203534405404234
          ],
          [
            -108.18826626270709,
            42.203810039733085
          ],
          [
            -108.1880044128453,
            42.20408539667302
          ],
          [
            -108.18774552098873,
            42.20436045150147
          ],
          [
            -108.18748964667479,
            42.204635179496094
          ],
          [
            -108.18723684944223,
            42.20490955593485
          ],
          [
            -108.18698718883114,
            42.20518355609593
          ],
          [
            -108.1867407243829,
            42.205457155257726
          ],
          [
            -108.18649751564017,
            42.20573032869883
          ],
          [
            -108.18625762214688,
            42.20600305169809
          ],
          [
            -108.18602110344823,
            42.20627529953443
          ],
          [
            -108.18578801909064,
            42.20654704748704
          ],
          [
            -108.18555842862172,
            42.206818270835186
          ],
          [
            -108.18533239159032,
            42.20708894485826
          ],
          [
            -108.18510996754641,
            42.207359044835776
          ],
          [
            -108.1848912160412,
            42.20762854604735
          ],
          [
            -108.18467619662691,
            42.20789742377266
          ],
          [
            -108.18446496885699,
            42.20816565329139
          ],
          [
            -108.1842575922859,
            42.20843320988334
          ],
          [
            -108.18405412646923,
            42.20870006882824
          ],
          [
            -108.1838546309636,
            42.20896620540589
          ],
          [
            -108.18365916532659,
            42.209231594896
          ],
          [
            -108.18346778911685,
            42.209496212578294
          ],
          [
            -108.183280561894,
            42.209760033732394
          ],
          [
            -108.18309754321857,
            42.21002303363781
          ],
          [
            -108.18291879265206,
            42.210285187574
          ],
          [
            -108.18274436975685,
            42.21054647082027
          ],
          [
            -108.18257433409617,
            42.21080685865577
          ],
          [
            -108.18240874523416,
            42.21106632635949
          ],
          [
            -108.1822476627357,
            42.21132484921021
          ],
          [
            -108.18209114616656,
            42.211582402486506
          ],
          [
            -108.18193925509318,
            42.21183896146672
          ],
          [
            -108.18179204908277,
            42.21209450142889
          ],
          [
            -108.18164958770329,
            42.21234899765085
          ],
          [
            -108.18151193052333,
            42.21260242541003
          ],
          [
            -108.18137913711215,
            42.21285475998359
          ],
          [
            -108.1812512670396,
            42.21310597664834
          ],
          [
            -108.18112837987617,
            42.213356050680645
          ],
          [
            -108.18101053519287,
            42.213604957356516
          ],
          [
            -108.18089779256123,
            42.21385267195152
          ],
          [
            -108.18079021155327,
            42.21409916974076
          ],
          [
            -108.18068785174154,
            42.21434442599888
          ],
          [
            -108.18059077269889,
            42.21458841599997
          ],
          [
            -108.1804990339987,
            42.214831115017624
          ],
          [
            -108.18041269521459,
            42.21507249832486
          ],
          [
            -108.18033181592058,
            42.21531254119411
          ],
          [
            -108.18025645569095,
            42.2155512188972
          ],
          [
            -108.18018667410024,
            42.215788506705266
          ],
          [
            -108.18012253072322,
            42.216024379888864
          ],
          [
            -108.18006408513482,
            42.216258813717744
          ],
          [
            -108.18001139691009,
            42.21649178346099
          ],
          [
            -108.17996452562426,
            42.21672326438697
          ],
          [
            -108.17992353085256,
            42.216953231763156
          ],
          [
            -108.17988847217029,
            42.21718166085631
          ],
          [
            -108.17985940915271,
            42.21740852693228
          ],
          [
            -108.17983640137507,
            42.21763380525609
          ],
          [
            -108.17981950841249,
            42.21785747109187
          ],
          [
            -108.17980878983998,
            42.218079499702704
          ],
          [
            -108.1798043052324,
            42.21829986635086
          ],
          [
            -108.17980611416434,
            42.21851854629752
          ],
          [
            -108.1798142762102,
            42.218735514802866
          ],
          [
            -108.17982885094406,
            42.218950747126016
          ],
          [
            -108.17984989793968,
            42.21916421852501
          ],
          [
            -108.17987747677037,
            42.21937590425675
          ],
          [
            -108.1799116470091,
            42.21958577957699
          ],
          [
            -108.17995246822834,
            42.21979381974028
          ],
          [
            -108.18,
            42.21999999999999
          ]
        ]
      },
      "properties": {
        "feature_id": "BST-SEG-002",
        "object_id": "SH-RAIL-0001",
        "canonical_name": "Later Red Wash integration connection proposal",
        "fictionality": "FICTIONAL_IN_REAL_GEOGRAPHY",
        "real_world_relation": "UNKNOWN",
        "canon_status": "HISTORICAL",
        "geometry_status": "SUPERSEDED_UNBUILT_PROPOSAL",
        "location_method": "ENGINEERED_FROM_CONSTRAINTS",
        "precision_class": "PRELIMINARY_DESIGN",
        "horizontal_accuracy_m": null,
        "public_precision": "FICTIONAL_CONTROL_OR_PROPOSAL",
        "source_id": "SRC-RAIL-PRELIM-ENGINEERING",
        "decision_id": "GEO-D014",
        "recorded_at": "2026-09-06T02:29:42+00:00",
        "world_state_date": "2026-09-05",
        "reference_source_ids": [
          "SRC-ADDENDUM-20260905",
          "DEM-USGS-WYOMING",
          "REF-WYOMING-WATERBODIES",
          "REF-WAMSUTTER-FRA-RAIL"
        ],
        "construction_method": "Declared analyst candidate geometry supported by pinned terrain/water analysis; see GEO-D014.",
        "notes": "Never built or approved. Superseded by Taylor transload / truck last mile / no mine spur. Preserved as proposal history only.",
        "valid_from": null,
        "valid_to": null,
        "owner_entity": "SH-ENT-009",
        "operator_entity": "SH-ENT-009",
        "from_node_id": "BST-NODE-TAY",
        "to_node_id": "BST-NODE-RW",
        "rights_type": "PROPOSED_FICTIONAL_TRACK_NO_REAL_LAND_TITLE",
        "geometry_miles": 4.231150355569572,
        "maximum_grade_pct": 1.7999999999999956,
        "elevation_min_m": 2058.251220703125,
        "elevation_max_m": 2098.42431640625,
        "engineering_status": "PRELIMINARY_PROFILE_AND_TOPOLOGY",
        "route_role": "LATER_MINE_CONNECTION",
        "minimum_sampled_plan_radius_m": 983.5596976404438,
        "maximum_ground_grade_pct": 5.526896836069057,
        "superseded_at": "2026-09-06T00:00:00Z"
      }
    }
  ]
}
